Language_ID,Language_Name,ISO_Code,Family_ID,Genus_ID,Status,Macroarea,Latitude,Longitude,Countrycodes
,Arapesh (Abu),,1,1,unknown,,-3.45,142.95,PG
aari1239,Aari,aiw,2,2,safe,Africa,5.95034,36.5721,ET
abau1245,Abau,aau,3,3,safe,Papunesia,-3.97222,141.324,PG
chad1249,Arabic (Abbéché Chad),shu,2,4,unknown,Africa,14.67,13.5,TD
abid1235,Abidji,abi,4,5,unknown,Africa,5.65656,-4.58421,CI
nort3139,Arabic (Beirut),apc,2,4,unknown,Eurasia,34.1709,36.0468,LB
baha1259,Arabic (Bahrain),abv,2,4,safe,Eurasia,26.223615,50.580811,BH
abip1241,Abipón,axb,5,6,extinct,South America,-29.0,-61.0,AR
abkh1244,Abkhaz,abk,6,7,unknown,Eurasia,43.056218,41.159115,GE
alab1237,Alabama,akz,7,8,definitely endangered,North America,30.76738,-94.62848,US
arab1267,Arabana,ard,8,9,critically endangered,Australia,-28.705,135.449,AU
arbo1245,Arbore,arv,2,10,definitely endangered,Africa,4.92183,36.7986,ET
abun1252,Abun,kgr,9,11,unknown,Papunesia,-0.57073,132.416,ID
abui1241,Abui,abz,10,12,unknown,Papunesia,-8.31058,124.588,ID
west2630,Abenaki (Western),abe,11,13,critically endangered,North America,46.1381,-72.6511,US CA
abaz1241,Abaza,abq,6,7,unknown,Eurasia,41.1214,42.7273,RU
achi1257,Acehnese,ace,12,14,unknown,Eurasia,3.90757,96.6032,ID
acha1250,Achagua,aca,13,15,severely endangered,South America,4.38649,-72.2005,CO
ache1246,Aché,guq,14,16,definitely endangered,South America,-25.5865,-56.4697,PY
quic1275,Achí,acr,15,17,unknown,North America,15.1666666667,-90.5,GT
acol1236,Acholi,ach,16,18,unknown,Africa,3.57738,32.5147,UG SD
achu1247,Achumawi,acv,17,19,critically endangered,North America,41.0979,-121.191,US
acha1249,Achang,acn,18,20,unknown,Eurasia,24.3479,97.7438,MM CN
west2632,Acoma,kjq,19,21,definitely endangered,North America,34.9733,-107.517,US
achu1248,Achuar,acu,20,22,unknown,South America,-2.82646,-77.2641,PE
adam1238,Adamorobe Sign Language,ads,21,23,safe,Africa,5.834,-0.151,GH
adan1251,Adang,adn,10,12,safe,Papunesia,-8.18958,124.448,ID
adio1239,Adioukrou,adj,4,5,safe,Africa,5.41666666667,-4.58333333333,CI
ando1256,Andoke,ano,22,24,severely endangered,South America,-0.53751,-72.0869,CO
adny1235,Adynyamathanha,adt,8,9,definitely endangered,Australia,-30.5,139.5,AU
adyg1241,Adyghe (Temirgoy),ady,6,7,unknown,Eurasia,45.2166666667,39.7,RU
adze1240,Adzera,adz,12,25,safe,Papunesia,-6.25,146.25,PG
aleu1260,Aleut (Eastern),ale,23,26,unknown,North America,52.1228,-174.29,US
egyp1253,Arabic (Egyptian),arz,2,4,unknown,Africa,31.0,31.0,EG
liby1240,Arabic (Eastern Libyan),ayl,2,4,unknown,Africa,22.0032,15.0014,LY
afri1274,Afrikaans,afr,24,27,unknown,Africa,-31.0,22.0,ZA
agar1252,Agarabi,agd,25,28,safe,Papunesia,-6.16666666667,146.0,PG
legb1242,Leggbó,agb,4,29,safe,Africa,6.02645,7.98385,NG
cent2084,Agta (Central),agt,12,30,vulnerable,Papunesia,17.9571,121.857,PH
dupa1235,Agta (Dupaningan),duo,12,30,unknown,Papunesia,17.3748,122.188,PH
aghe1239,Aghem,agq,4,31,safe,Africa,6.66666666667,10.0,CM
aghu1253,Aghul,agx,26,32,unknown,Eurasia,41.75,47.6666666667,RU
anga1287,Angami,nri,18,33,unknown,Eurasia,25.6666666667,94.5,IN
ango1258,Angolar,aoa,21,34,safe,Africa,0.11438,6.59486,ST
agua1253,Aguaruna,agr,20,22,vulnerable,South America,-5.0,-78.0,PE
leni1238,Anguthimri,lnj,8,35,extinct,Australia,-20.0,145.0,AU
agua1252,Aguacatec,agu,15,17,safe,North America,15.4166666667,-91.3333333333,GT
alag1248,Alagwa,wbj,2,36,safe,Africa,-4.64148,35.7231,TZ
arap1274,Arapaho,arp,11,13,safe,North America,43.3879,-108.81,US
hass1238,Arabic (Bani-Hassan),mey,2,4,safe,Africa,20.1464,-2.40278,MR
ahte1237,Ahtna,aht,27,37,critically endangered,North America,62.0,-145.0,US
aghu1255,Aghu,ahh,25,38,safe,Papunesia,-6.16666666667,140.166666667,ID
aika1237,Aikaná,tba,28,39,definitely endangered,South America,-12.6695,-60.5353,BR
ainu1240,Ainu,ain,29,40,unknown,Eurasia,43.633654,142.46167,JP
apro1235,Aizi,ahp,4,41,safe,Africa,5.20273,-4.52192,CI
ajas1235,Aja,aja,30,42,critically endangered,Africa,8.58003,25.6122,SD CF
ajab1235,Ajagbe,ajg,4,5,unknown,Africa,7.06634,1.64992,TG BJ
ajie1238,Ajië,aji,12,25,safe,Papunesia,-21.3029,165.468,NC
yaka1272,Aka,axk,4,31,unknown,Africa,3.6515,17.2713,CF CG
akab1249,Aka-Biada,abj,31,43,extinct,Eurasia,12.3782,92.7818,IN
akac1240,Aka-Cari,aci,31,43,extinct,Eurasia,13.49086,92.94855,IN
akha1245,Akha,ahk,18,20,unknown,Eurasia,21.2309,100.964,MM TH CN
akak1252,Aka-Kede,akx,31,43,extinct,Eurasia,12.8494,92.8227,IN
akla1241,Aklanon,akl,12,30,safe,Papunesia,11.5543,122.354,PH
marm1234,Arakanese (Marma),mhv,18,20,safe,Eurasia,22.759948,92.210748,MM BD
akan1250,Akan,aka,4,5,unknown,Africa,6.34756,-1.33254,GH
cypr1248,Arabic (Kormakiti),acy,2,4,severely endangered,Eurasia,35.1674,33.0943,CY
arik1262,Arikara,ari,32,44,critically endangered,North America,40.6473,-98.7158,US
akaw1239,Akawaio,ake,33,45,vulnerable,South America,6.16277,-60.862,GY
alam1246,Alamblak,amp,3,46,unknown,Papunesia,-4.66307,143.316,PG
tosk1239,Albanian,aln,24,47,unknown,Eurasia,41.0,20.0,AL RS
alle1238,Allentiac,,34,48,extinct,South America,-33.480938,-68.096924,AR
alla1248,Alladian,ald,4,5,safe,Africa,5.22371,-4.42647,CI
algo1255,Algonquin,alq,11,13,severely endangered,North America,47.3876,-77.5258,CA
arop1243,Arop-Lokep,apr,12,25,unknown,Papunesia,-5.31671,147.103,PG
lala1268,Ala'ala,nrz,12,25,safe,Papunesia,-8.93195,146.749,PG
alun1238,Alune,alp,12,49,unknown,Papunesia,-3.11477,128.394,ID
alse1251,Alsea,aes,35,50,unknown,North America,44.408,-123.94,US
swis1247,Alsatian,gsw,24,27,unknown,Eurasia,47.0516,8.46419,FR
alut1245,Alutor,alr,36,51,unknown,Eurasia,60.3844,165.653,RU
alaw1244,Alawa,alh,37,52,critically endangered,Australia,-15.5458,134.282,AU
bata1292,Alas,btz,12,53,safe,Papunesia,3.4293,97.8123,ID
alya1239,Alyawarra,aly,8,9,safe,Australia,-21.0427,136.835,AU
amar1272,Amara,aie,12,25,safe,Papunesia,-5.55778,148.68,PG
ambu1247,Ambulas,abt,3,54,unknown,Papunesia,-3.7801,143.059,PG
amah1246,Amahuaca,amc,38,55,unknown,South America,-10.2012,-72.3208,PE BR
amdo1237,Amdo,adx,18,56,unknown,Eurasia,34.5177,100.485,CN
amel1241,Amele,aey,25,57,unknown,Papunesia,-5.29126,145.687,PG
amha1245,Amharic,amh,2,4,safe,Africa,11.708182,39.543456,ET
amis1246,Amis,ami,12,58,unknown,Papunesia,23.0917,121.348,TW
amar1274,Amarakaeri,amr,39,59,definitely endangered,South America,-12.4931,-70.5533,PE
east2443,Ambae (Lolovoli Northeast),omb,12,25,unknown,Papunesia,-15.3523,167.89,VU
amap1240,Ama,amm,40,60,safe,Papunesia,-4.20192,141.658,PG
aman1265,Amanab,amn,41,61,safe,Papunesia,-3.51516,141.178,PG
amoo1242,Amo,amo,4,62,safe,Africa,10.3229,8.65405,NG
east2379,Arrernte (Mparntwe),aer,8,9,unknown,Australia,-23.3583,135.046,AU
amba1265,Ambai,amk,12,63,unknown,Papunesia,-1.88126,136.526,ID
moro1292,Arabic (Moroccan),ary,2,4,unknown,Africa,32.5,-7.5,MA
stan1318,Arabic (Modern Standard),arb,2,4,safe,Eurasia,27.9625,43.8525,KM KW SO SY OM QA EG TN MA LY JO LB ER YE SA IQ PS DZ AE BH SD IL
yane1238,Yanesha',ame,13,64,severely endangered,South America,-10.5454,-75.315,PE
anam1248,Anamuxra,imi,25,57,safe,Papunesia,-4.63762,144.991,PG
guer1243,Amuzgo,amu,42,65,safe,North America,16.77226,-98.18953,MX
arao1248,Araona,aro,43,66,severely endangered,South America,-12.4242,-67.7293,BO
ngas1240,Angas,anc,2,67,unknown,Africa,9.32042,9.46146,NG
anem1249,Anêm,anz,44,68,safe,Papunesia,-5.54836,148.993,PG
ango1254,Anggor,agg,45,69,unknown,Papunesia,-3.7167,141.199,PG
anii1246,//Ani,hnh,46,70,definitely endangered,Africa,-19.0966,22.9088,BW
anei1239,Anejom,aty,12,25,safe,Papunesia,-20.1864,169.825,VU
anin1240,Anindilyakwa,aoi,47,71,vulnerable,Australia,-13.99904,136.6415,AU
nung1282,Anong,nun,18,72,unknown,Eurasia,27.2887,98.7333,CN MM
anga1290,Angaatiha,agm,25,73,safe,Papunesia,-7.15012,146.352,PG
anuf1239,Anufo,cko,4,5,safe,Africa,10.2839,0.56021,GH TG BJ
andi1255,Andi,ani,26,74,unknown,Eurasia,42.8078,46.2919,RU
anua1242,Anywa,anu,16,18,unknown,Africa,7.57714,34.0267,ET
aona1235,Ao,njo,18,33,unknown,Eurasia,26.3241,94.3824,IN
mufi1238,Mufian,aoj,1,1,unknown,Papunesia,-3.57932,142.955,PG
sout3123,Arabic (Palestinian),ajp,2,4,unknown,Eurasia,31.5601,38.0837,PS
mesc1238,Apache (Chiricahua),apm,27,37,definitely endangered,North America,33.1291,-105.566,US
safe1240,Ampeeli,apz,25,73,unknown,Papunesia,-7.05417,146.09,PG
apin1244,Apinayé,apn,48,75,vulnerable,South America,-6.10774,-47.6315,BR
jica1244,Apache (Jicarilla),apj,27,37,severely endangered,North America,36.8079,-107.007,US
apuc1241,A-Pucikwar,apq,31,43,extinct,Eurasia,12.241,92.7965,IN
apal1257,Apalaí,apy,33,45,vulnerable,South America,1.49792,-54.7457,BR
apat1240,Apatani,apt,18,76,vulnerable,Eurasia,27.1933,93.7284,IN
apur1254,Apurinã,apu,13,77,definitely endangered,South America,-8.21692,-66.7714,BR
west2615,Apache (Western),apw,27,37,definitely endangered,North America,33.8574,-110.123,US
araw1276,Arawak,arw,13,78,critically endangered,South America,5.64295,-56.9243,SR
arab1268,Arabela,arl,49,79,severely endangered,South America,-1.96126,-75.0612,PE
arch1244,Archi,aqc,26,32,definitely endangered,Eurasia,42.3239,46.8267,RU
aran1237,Arandai,jbj,50,80,safe,Papunesia,-2.08016,132.983,ID
gulf1241,Arabic (Gulf),afb,2,4,unknown,Eurasia,30.17,47.5,IQ SA OM QA KW IR BH
hija1235,Arabic (Hijazi),acw,2,4,unknown,Eurasia,22.8346,38.9237,SA
arib1241,Aribwatsa,laz,12,25,extinct,Papunesia,-6.72266,146.991,PG
arak1252,Araki,akr,12,25,critically endangered,Papunesia,-15.632997,166.952542,VU
nucl1235,Armenian (Eastern),hye,24,81,unknown,Eurasia,40.0,45.0,AM
aros1241,Arosi,aia,12,25,unknown,Papunesia,-10.2441,161.432,SB
buki1249,Arapesh (Mountain),ape,1,1,unknown,Papunesia,-3.47169,143.111,PG
meso1252,Arabic (Iraqi),acm,2,4,unknown,Eurasia,33.8178,43.1095,IQ
sana1295,Arabic (San'ani),ayn,2,4,safe,Eurasia,15.6552,44.8412,YE
area1240,Areare,alu,12,25,unknown,Papunesia,-9.20699,161.158,SB
amer1248,American Sign Language,ase,21,23,safe,North America,33.8117,-81.6121,CA US
tamn1235,Asmat,tml,25,82,safe,Papunesia,-5.57962,139.233,ID
sout2694,Altai (Southern),alt,51,83,unknown,Eurasia,50.1347,86.8705,RU
assa1263,Assamese,asm,24,84,unknown,Eurasia,26.0876,91.2932,IN
astu1245,Asturian,ast,24,85,unknown,Eurasia,42.4181,-6.02227,ES
toca1235,Asuriní,asu,14,16,vulnerable,South America,-3.59359,-49.8991,BR
atay1247,Atayal,tay,12,86,unknown,Papunesia,24.5209,121.388,TW
aral1243,Aralle-Tabulahan,atq,12,87,unknown,Papunesia,-2.78397,119.319,ID
urip1239,Atchin,upv,12,25,unknown,Papunesia,-16.00951,167.34643,VU
athp1241,Athpare,aph,18,88,definitely endangered,Eurasia,26.8794,87.3296,NP
atik1240,Atikamekw,atj,11,13,vulnerable,North America,47.9555,-73.7989,CA
atak1252,Atakapa,aqp,52,89,extinct,North America,30.9121,-93.0827,US
kunz1244,Atacameño,kuz,53,90,extinct,South America,-23.0,-69.0,BO CL AR
paci1278,Alutiiq,ems,23,91,unknown,North America,60.4238,-148.043,US
atsu1245,Atsugewi,atw,17,19,extinct,North America,40.4271,-120.661,US
tuni1259,Arabic (Tunisian),aeb,2,4,unknown,Africa,33.7966,9.56156,TN
auuu1241,Au,avt,1,92,safe,Papunesia,-3.53277,142.105,PG
aulu1238,Aulua,aul,12,25,unknown,Papunesia,-16.3333333333,167.666666667,VU
aust1271,Auslan,asf,21,23,safe,Australia,-30.0,145.0,AU
awiy1238,Auyana,auy,25,28,safe,Papunesia,-6.54079,145.76,PG
avar1256,Avar,ava,26,74,unknown,Eurasia,41.7047,46.558,RU AZ
avik1243,Avikam,avi,4,5,safe,Africa,5.15838,-5.2529,CI
avok1242,Avokaya,avu,30,93,unknown,Africa,4.38639,29.9379,SD CD
avat1244,Avatime,avn,4,5,safe,Africa,6.8688,0.41314,GH
awap1236,Awa,awb,25,28,unknown,Papunesia,-6.65534,145.714,PG
awad1243,Awadhi,awa,24,84,unknown,Eurasia,27.5907,82.4663,NP IN
west2441,Arrernte (Western),are,8,9,vulnerable,Australia,-24.05052,133.24621,AU
aeky1238,Aekyom,awi,54,94,unknown,Papunesia,-5.75,141.416666667,PG
pong1250,Akwa,png,4,62,unknown,Africa,10.0823,6.3745,NG
awng1244,Awngi,awn,2,95,safe,Africa,10.9819,36.6916,ET
awac1239,Awa Pit,kwi,55,96,critically endangered,South America,1.21652,-78.3401,EC CO
awtu1239,Awtuw,kmn,3,97,safe,Papunesia,-3.53129,141.928,PG
awyi1241,Awyi,auw,41,61,vulnerable,Papunesia,-3.00564,140.604,ID
akhv1239,Akhvakh,akv,26,74,definitely endangered,Eurasia,42.4003,46.3037,RU
anyi1245,Anyi,any,4,5,unknown,Africa,6.31781,-3.30532,CI
cent2142,Aymara (Central),ayc,56,98,vulnerable,South America,-17.0,-68.5,PE CL BO
ainu1251,Aynu,aib,51,83,safe,Eurasia,39.2714,76.4209,CN
ayor1240,Ayoreo,ayo,57,99,definitely endangered,South America,-19.220055,-60.217495,PY
ayiw1239,Ayiwo,nfl,12,25,safe,Papunesia,-10.282595,166.328715,SB
nort2697,Azerbaijani,azb,51,83,unknown,Eurasia,40.9777,46.4737,AZ IR
sout2697,Azari (Iranian),azb,51,83,unknown,Eurasia,36.5137,48.4302,IR IQ
bara1377,Barai,bbb,25,100,unknown,Papunesia,-9.33333333333,148.083333333,PG
veng1238,Babungo,bav,4,31,safe,Africa,6.11403,10.4137,CM
wadj1254,Bachamal,wdj,58,101,safe,Australia,-12.8596,130.737,AU
bade1248,Bade,bde,2,67,unknown,Africa,12.789,10.6557,NG
bare1276,Baré,bae,13,15,critically endangered,South America,1.91649,-66.828,BR VR
bafu1246,Bafut,bfd,4,31,unknown,Africa,6.14153,10.1194,CM
bagi1246,Bagirmi,bmi,30,102,unknown,Africa,11.52392,14.769495,TD
xiri1243,Xiriana,xir,13,103,extinct,South America,2.69932,-62.5413,BR
cent2004,Bai,bca,18,104,unknown,Eurasia,26.1666,99.7052,CN
indo1317,Bajau (Sama),bdl,12,105,unknown,Papunesia,-3.68664,122.253,ID
baka1272,Baka (in Cameroon),bkc,4,106,safe,Africa,2.16013,13.7804,CM
bali1278,Balinese,ban,12,14,unknown,Papunesia,-8.35714,115.075,ID
bamb1269,Bambara,bam,59,107,unknown,Africa,12.0401,-9.98949,ML
bana1305,Bana,bcw,2,108,unknown,Africa,10.3535,13.6131,CM
bona1250,Bao'an,peh,51,109,unknown,Eurasia,35.6972,102.995,CN
baur1253,Baure,brg,13,110,critically endangered,South America,-13.1278,-64.1838,BO
bari1284,Bari,bfa,16,18,unknown,Africa,4.19522,31.0723,SD
basa1284,Basaá,bas,4,31,unknown,Africa,3.80765,10.4213,CM
bata1301,Batak,bya,12,30,definitely endangered,Papunesia,10.1115,119.025,PH
bauu1244,Bau,bbd,25,57,safe,Papunesia,-5.26465,145.611,PG
bawm1236,Bawm,bgr,18,33,definitely endangered,Eurasia,22.4405233333,92.92553,BD IN MM
sout2840,Bobo Madaré (Northern),bbo,59,107,unknown,Africa,11.5409,-4.26497,BF
dibo1245,Babole,bvx,4,31,unknown,Africa,1.07773,17.2305,CG
bamb1270,Bambam,ptu,12,87,unknown,Papunesia,-3.02759,119.201,ID
bara1361,Barambu,brm,4,106,safe,Africa,3.34642,26.861,CD
gunw1252,Bininj Gun-Wok,gup,47,111,unknown,Australia,-12.3398,133.358,AU
band1339,Bandjalang (Casino),bdy,8,112,unknown,Australia,-28.3458,152.859,AU
tach1249,Berber (Chaouia),shy,2,113,safe,Africa,35.1867,6.88901,DZ
bell1243,Bella Coola,blc,60,114,critically endangered,North America,52.3448,-126.689,CA
berb1259,Berbice Dutch Creole,brc,21,34,extinct,South America,5.3829,-58.0002,GY
bada1257,Badaga,bfq,61,115,definitely endangered,Eurasia,11.3094,76.5974,IN
budu1248,Budukh,bdk,26,32,unknown,Eurasia,41.2272,48.3353,AZ
badi1246,Badimaya,bia,8,116,safe,Australia,-29.0647,117.246,AU
budu1250,Budu,buu,4,31,unknown,Africa,2.00501,27.951,CD
baha1258,Baham,bdw,62,117,safe,Papunesia,-3.10628,132.637,ID
bena1264,Benabena,bef,25,28,safe,Papunesia,-6.09974,145.534,PG
chit1275,Bengali (Chittagong),ctg,24,84,safe,Eurasia,20.831,93.1695,BD
beem1239,Beembe,beq,4,31,unknown,Africa,-3.95895,14.1,CG
idaa1241,Begak-Ida'an,dbj,12,118,unknown,Papunesia,5.29059,118.515,MY
beja1238,Beja,bej,2,119,unknown,Africa,17.2436,36.6666,ER SD
belh1239,Belhare,byw,18,88,safe,Eurasia,26.9972,87.2783,NP
bemb1258,Bemba,bmy,4,31,safe,Africa,-10.0,28.08,CD
beng1280,Bengali,ben,24,84,unknown,Eurasia,24.0,90.0,IN BD
beot1247,Beothuk,bue,63,120,extinct,North America,48.0,-57.0,CA
bert1248,Berta,wti,64,121,unknown,Africa,10.6474,34.7042,ET SD
dalo1238,Bété,bev,4,41,safe,Africa,6.69281,-6.63944,CI
bezh1248,Bezhta,kap,26,74,unknown,Eurasia,42.1206,46.0332,RU
biaf1240,Biafada,bif,4,122,safe,Africa,11.467,-15.1347,GW
bafi1243,Bafia,ksf,4,31,unknown,Africa,4.72603,11.0982,CM
beng1282,Benga,bng,4,31,definitely endangered,Africa,1.075766,9.600739,GQ GA
bang1368,Banggai,bgz,12,123,unknown,Papunesia,-1.58305,123.171,ID
bagr1243,Bagri,bgq,24,84,safe,Eurasia,28.6036,71.453,IN
bugl1243,Buglere,sab,65,124,unknown,North America,8.57695,-81.25648,PA
bang1363,Bangime,dba,66,125,safe,Africa,14.8116,-3.77092,ML
bugu1246,Bugun,,18,126,definitely endangered,Eurasia,27.204,92.367,IN
bong1285,Bongo,bot,30,102,unknown,Africa,7.4145,27.9918,SD
furu1242,Bagiro,fuu,30,102,safe,Africa,4.485,20.6448,CF CD
baga1272,Baga Sitemu,bsp,4,127,severely endangered,Africa,10.4793,-14.4756,GN
bagv1239,Bagvalal,kva,26,74,definitely endangered,Eurasia,42.3966,46.1041,RU
bong1289,Banggi,bdg,12,128,safe,Papunesia,7.29249,117.174,MY
bhil1251,Bhili,bhb,24,84,unknown,Eurasia,20.85,73.9592,IN
bahi1254,Bahinemo,bjh,3,46,safe,Papunesia,-4.55527,142.832,PG
bhoj1244,Bhojpuri,bho,24,84,unknown,Eurasia,26.458455,84.817115,IN
mund1320,Bhumij,unr,67,129,safe,Eurasia,25.0391,87.1792,IN
bila1255,Bira,bip,4,31,unknown,Africa,1.16839,28.7626,CD
bidi1241,Bidiya,bid,2,130,unknown,Africa,11.9204,18.8065,TD
yulu1243,Binga,yul,30,102,unknown,Africa,8.04124,23.6166,SD CF
biri1256,Biri,bzr,8,35,extinct,Australia,-20.1494,146.67,AU
biak1248,Biak,bhw,12,63,unknown,Papunesia,-0.9523,135.879,ID
bilu1245,Bilua,blb,68,131,safe,Papunesia,-7.92388,156.663,SB
bima1247,Bima,bhp,12,49,unknown,Papunesia,-8.57376,118.445,ID
bina1277,Binandere,bhg,25,132,unknown,Papunesia,-8.37433,147.884,PG
naii1241,Nai,bio,69,133,safe,Papunesia,-3.73034,141.273,PG
sara1326,Bilaan,bps,12,134,safe,Papunesia,6.03691,125.354,PH
bero1242,Birom,bom,4,135,unknown,Africa,9.67037,8.81221,NG
biss1248,Bisa,bib,59,136,unknown,Africa,10.4257,-1.67332,GH BF
biat1246,Biatah,bth,12,137,unknown,Papunesia,1.17596,110.254,ID MY
bisu1246,Bisu,lwm,18,20,unknown,Eurasia,19.75,100.0,TH
sout2918,Sama (Southern),ssb,12,105,unknown,Papunesia,4.755836,119.483887,MY PH
baka1274,Baka (in Sudan),bdh,30,102,safe,Africa,4.65943,29.59,SD
bett1235,Betta Kurumba,xub,61,115,safe,Eurasia,11.6385,76.6064,IN
binu1244,Binukid,bkd,12,30,safe,Papunesia,8.15933,124.892,PH
baka1277,Bakairí,bkq,33,45,vulnerable,South America,-14.2628,-54.7034,BR
cent2087,Bikol,bcl,12,30,unknown,Papunesia,13.7574,123.403,PH
orok1266,Bakundu,bdu,4,31,unknown,Africa,4.89504,9.15209,CM
bata1293,Batak (Karo),btx,12,53,safe,Papunesia,2.12787,98.2517,ID
brok1247,Brokskat,bkk,24,84,definitely endangered,Eurasia,34.5308,76.6026,PK IN
mokp1239,Bakueri,bri,4,31,safe,Africa,4.24178,9.23887,CM
siks1238,Blackfoot,bla,11,13,unknown,North America,49.0669,-113.109,CA US
east2304,Baluchi,bgp,24,138,safe,Eurasia,28.0,62.0,PK IR AF
baou1238,Baule,bci,4,5,safe,Africa,5.42509,-4.76565,CI
bala1310,Balangao,blw,12,139,safe,Papunesia,17.0994,121.272,PH
kaci1244,Baale,koe,16,140,unknown,Africa,6.16512,34.9436,SD
bala1315,Balantak,blz,12,123,safe,Papunesia,-0.86809,123.289,ID
bili1260,Bilin,byn,2,95,safe,Africa,15.7833,38.3917,ER
nucl1695,Bole,bol,2,67,safe,Africa,11.4839,11.2322,NG
bela1254,Belorussian,bel,24,141,unknown,Eurasia,53.2307,25.6038,BY
balt1258,Balti,bft,18,56,vulnerable,Eurasia,34.4491,77.2859,IN PK
luba1249,Bena-Lulua,lua,4,31,unknown,Africa,-5.72717,22.4422,CD
bilo1248,Biloxi,bll,70,142,extinct,North America,31.32,-89.1951,US
nija1241,Balyku,nad,8,116,safe,Australia,-22.8558,120.831,AU
bala1300,Balanta,bjt,4,122,unknown,Africa,12.25,-15.3333333333,SN GW
cent2194,Berber (Middle Atlas),tzm,2,113,unknown,Africa,32.7415,-2.40872,MA
bimo1239,Bimoba,bim,4,143,safe,Africa,10.4575,0.06121,GH
bamu1253,Bamun,bax,4,31,safe,Africa,5.49017,10.8477,CM
buru1306,Burum,bmu,25,144,unknown,Papunesia,-6.5,147.333333333,PG
tumz1238,Berber (Mzab),mzb,2,113,vulnerable,Africa,32.5014,3.85035,DZ
jama1261,Banawá,jaa,71,145,unknown,South America,-7.62223,-66.5662,BR
buna1275,Bunuba,bck,72,146,severely endangered,Australia,-17.75,125.75,AU
band1352,Bandi,bza,59,107,unknown,Africa,7.73729,-10.1684,LR
qaqe1238,Baining,byx,73,147,safe,Papunesia,-4.45258,151.702,PG
bini1246,Bini,bin,4,148,safe,Africa,6.40701,5.70426,NG
bank1256,Bankon,abb,4,31,safe,Africa,4.3702,9.6403,CM
bang1339,Banggarla,bjb,8,9,extinct,Australia,-33.3036,136.079,AU
binu1245,Binumarien,bjr,25,28,safe,Papunesia,-6.22068,146.102,PG
bann1247,Banoni,bcm,12,25,safe,Papunesia,-6.23061,155.128,PG
waim1255,Waimaha,bao,74,149,unknown,South America,0.30416,-70.1644,CO
beng1286,Beng,nhb,59,136,safe,Africa,7.78122,-4.23539,CI
ngar1235,Bilinarra,nbj,8,116,unknown,Australia,-15.4661,130.651,AU
bant1286,Bantik,bnq,12,150,safe,Papunesia,1.44586,124.846,ID
bula1255,Bularnu,,8,116,extinct,Australia,-21.02656922,138.1566659,AU
bani1255,Baniwa,bwi,13,151,unknown,South America,2.17859,-67.7704,VR BR
kuni1265,Boazi,kvg,50,152,unknown,Papunesia,-6.97504,141.365,PG
bang1354,Bobangi,bni,4,31,safe,Africa,-0.87437,17.227,CD
bodo1269,Bodo,brx,18,153,unknown,Eurasia,26.725455,89.333235,IN
boik1241,Boiken,bzf,3,54,unknown,Papunesia,-3.68297,143.474,PG
damu1236,Bori,adi,18,76,vulnerable,Eurasia,27.6281,94.3538,IN
boko1266,Boko,bqc,59,136,safe,Africa,10.5189,3.71771,NG BJ
boli1255,Bolia,bli,4,31,safe,Africa,-1.38362,18.09748,CD
bong1291,Bongu,bpu,25,57,safe,Papunesia,-5.50519,145.806,PG
bora1263,Bora,boa,75,154,unknown,South America,-2.91467,-68.9093,CO PE
bosn1245,Bosnian,bos,24,141,definitely endangered,Eurasia,42.9331,17.6704,BA
taga1278,Berber (Wargla),oua,2,113,unknown,Africa,31.9454,5.28444,DZ
tiey1235,Bozo (Tigemaxo),boz,59,107,safe,Africa,14.1223,-5.08609,ML
bura1292,Bura-Pabir,bwr,2,108,unknown,Africa,10.5,12.25,NG
bahn1262,Bahnar (Plei Bong-Mang Yang),bdq,67,155,unknown,Eurasia,14.0476,108.471,VN
basq1248,Basque (Bidasoa Valley),eus,76,156,unknown,Eurasia,43.2787,-1.31622,ES
lave1249,Brao,brb,67,155,safe,Eurasia,14.5994,107.008,VN
baat1238,Bariba,bba,4,143,safe,Africa,9.63186,2.99607,NG BJ
boru1252,Boruca,brn,65,157,safe,North America,8.88093,-83.2124,CR
bard1255,Bardi,bcj,77,158,unknown,Australia,-16.6274,122.906,AU
bret1244,Breton,bre,24,159,unknown,Eurasia,48.2452,-3.78934,FR
tari1263,Berber (Rif),rif,2,113,unknown,Africa,34.916974,-3.430616,DZ MA
brah1256,Brahui,brh,61,160,unknown,Eurasia,28.5347,64.2991,PK
brib1243,Bribri,bzd,65,157,unknown,North America,9.39794,-83.0539,CR
burj1242,Burji,bji,2,10,vulnerable,Africa,5.5,37.8333333333,ET
beri1254,Berik,bkl,78,161,safe,Papunesia,-2.26904,138.866,ID
lowa1242,Baragaunle,loy,18,56,unknown,Eurasia,29.0324,83.8959,NP
nucl1310,Burmese,mya,18,20,unknown,Eurasia,21.0,96.0,MM
buru1320,Burunge,bds,2,36,vulnerable,Africa,-5.33333333333,36.0,TZ
torr1261,Broken,tcs,21,34,safe,Australia,-11.066,142.692,AU
wara1302,Barupu,wra,79,162,severely endangered,Papunesia,-3.07263,142.012,PG
boro1282,Bororo,bor,80,163,definitely endangered,South America,-16.6029,-55.2004,BR
bara1380,Barasano,bsn,74,149,unknown,South America,0.02193,-70.808,CO
east2332,Bru (Eastern),bru,67,164,unknown,Eurasia,17.1311,105.671,LA
west2397,Bru (Western),brv,67,164,definitely endangered,Eurasia,16.4906,104.754,LA
baru1267,Baruya,byr,25,73,unknown,Papunesia,-6.89261,145.818,PG
birr1240,Birri,bvq,30,102,unknown,Africa,5.3328,27.0842,CF
bush1247,Bushoong,buf,4,31,unknown,Africa,-4.5,21.5,CD
siwi1239,Berber (Siwa),siz,2,113,definitely endangered,Africa,29.200415,25.519627,EG
bash1264,Bashkir,bak,51,83,unknown,Eurasia,53.5967,56.5594,RU
brit1235,British Sign Language,bfi,21,23,safe,Eurasia,51.6688,-0.4431,GB
bisl1239,Bislama,bis,21,34,safe,Papunesia,-15.4,166.89,VU
basq1250,Basque (Souletin),eus,76,156,unknown,Eurasia,43.5,-1.5,FR
bass1258,Basari,bsc,4,122,vulnerable,Africa,12.4529,-13.3495,GN SN
bath1244,Bathari,bhm,2,4,critically endangered,Eurasia,17.4485,53.119,OM
beto1236,Betoi,,81,165,extinct,South America,7.245731,-71.67366,VR CO
cent2083,Bontok,bnc,12,139,unknown,Papunesia,17.0833333333,120.916666667,PH
bata1289,Batak (Toba),bbc,12,53,safe,Papunesia,2.35498,99.1761,ID
bura1267,Burarra,bvr,82,166,unknown,Australia,-12.25,134.583333333,AU
bube1242,Bubi,bvb,4,31,unknown,Africa,3.53638,8.68929,GQ
budu1265,Buduma,bdm,2,108,unknown,Africa,13.0692,14.4492,NG TD CM
bugi1244,Bugis,bug,12,87,unknown,Papunesia,-4.47,119.977,ID
buli1255,Buli (in Indonesia),bzq,12,63,unknown,Papunesia,1.0,128.5,ID
kwas1243,Bujeba,nmg,4,31,unknown,Africa,2.39354,10.0812,GQ CM
buku1249,Bukusu,bxk,4,31,unknown,Africa,0.68043,34.7719,KE
bulg1262,Bulgarian,bul,24,141,unknown,Eurasia,42.5,25.0,BG
tean1237,Buma,tkw,12,25,definitely endangered,Papunesia,-11.6752,166.868,SB
tere1278,Buin,buo,83,167,safe,Papunesia,-6.70051,155.745,PG
buru1296,Burushaski,bsk,84,168,unknown,Eurasia,36.5,74.5,PK
busa1253,Busa,bqp,59,136,unknown,Africa,9.66666666667,4.0,NG
mong1330,Buriat,bxm,51,109,unknown,Eurasia,48.7686,109.005,MN RU CN
buru1303,Buru,mhs,12,49,unknown,Papunesia,-3.5,126.5,ID
bulu1251,Bulu,bum,4,31,unknown,Africa,3.0,11.0,CM
buli1254,Buli (in Ghana),bwu,4,143,safe,Africa,10.5,-1.25,GH
bali1280,Bali-Vitu,wiv,12,25,unknown,Papunesia,-4.9,149.116666667,PG
west2560,Bajau (West Coast),bdr,12,105,unknown,Papunesia,6.00631,116.124,MY
bayu1240,Bayungu,bxj,8,116,safe,Australia,-23.3809,114.108,AU
byan1241,Byansi,bee,18,56,unknown,Eurasia,29.92002,80.63653,IN
bais1246,Bayso,bsw,2,10,definitely endangered,Africa,6.44892,37.7681,ET
bauz1241,Bauzi,bvz,85,169,unknown,Papunesia,-2.44717,137.629,ID
cabe1245,Cabécar,cjp,65,157,unknown,North America,9.67031,-83.4102,CR
cacu1241,Cacua,cbv,86,170,unknown,South America,0.88778,-69.5659,CO
cadd1256,Caddo,cad,32,44,critically endangered,North America,35.1826,-98.2634,US
cahu1264,Cahuilla,chl,87,171,critically endangered,North America,33.5324,-116.691,US
suri1267,Chai,suq,16,140,unknown,Africa,6.03205,35.0823,ET
kaqc1274,Cakchiquel,ckf,15,17,unknown,North America,14.5,-91.0,GT
cams1241,Camsá,kbh,88,172,definitely endangered,South America,1.14537,-76.8931,CO
cand1248,Candoshi,cbu,89,173,unknown,South America,-4.23835,-76.9347,PE
capa1241,Capanahua,kaq,38,55,severely endangered,South America,-6.63254,-74.3813,PE
gali1262,Carib,car,33,45,unknown,South America,5.83772,-56.8323,SR
cash1251,Cashibo,cbr,38,55,unknown,South America,-8.70232,-75.4206,PE
embe1260,Catio,cto,90,174,vulnerable,South America,7.52721,-76.7476,CO
cavi1250,Cavineña,cav,43,66,definitely endangered,South America,-13.3544,-66.6277,BO
asha1243,Campa (Axininca),cpc,13,175,vulnerable,South America,-11.9311,-73.9073,PE
chac1249,Cayapa,cbi,55,96,definitely endangered,South America,0.71489,-79.0508,EC
barb1263,Chumash (Barbareño),boi,91,176,extinct,North America,34.462,-119.699,US
chac1251,Chácobo,cao,38,55,definitely endangered,South America,-12.133,-66.7164,BO
choc1279,Chocho,coz,42,177,severely endangered,North America,17.666,-97.2388,MX
chic1270,Chickasaw,cic,7,8,severely endangered,North America,33.9452,-97.1301,US
coma1246,Chinantec (Comaltepec),cco,42,178,safe,North America,17.5909,-96.445,MX
tutu1242,Chasta Costa,,27,37,extinct,North America,42.5563,-124.293,US
coco1261,Cocopa,coc,17,179,severely endangered,North America,32.376,-114.848,MX US
choc1276,Choctaw,cho,7,8,vulnerable,North America,33.8993,-94.819,US
maqu1238,Carib (De'kwana),mch,33,45,unknown,South America,4.70705,-64.3877,VR
swam1239,Cree (Swampy),csw,11,13,unknown,North America,56.0,-95.0,CA
cebu1242,Cebuano,ceb,12,30,unknown,Papunesia,8.38799,124.367,PH
chic1271,Chicomuceltec,cob,15,17,extinct,North America,15.6078,-91.2869,MX
cemu1238,Cèmuhî,cam,12,25,safe,Papunesia,-20.8489,165.13,NC
moch1256,Chaga,old,4,31,safe,Africa,-3.33743,37.3357,TZ
cham1312,Chamorro,cha,12,180,unknown,Papunesia,15.233333,145.75,GU
cham1313,Chambri,can,92,181,safe,Papunesia,-4.27831,143.097,PG
chec1245,Chechen,che,26,182,unknown,Eurasia,43.5,45.5,RU
chau1259,Chaudangsi,cdn,18,56,safe,Eurasia,29.7033,80.4832,IN
cher1273,Cherokee,chr,93,183,unknown,North America,35.4664,-83.163,US
chan1313,Chang,nbc,18,184,vulnerable,Eurasia,26.4336,94.9536,IN MM
seba1251,Chaha,sgw,2,4,unknown,Africa,8.11879,37.9891,ET
chim1301,Chimariko,cid,17,185,extinct,North America,41.0,-123.0,US
chuj1249,Chuj,cnm,15,17,unknown,North America,15.9166666667,-91.5833333333,GT
chuk1273,Chukchi,ckt,36,51,unknown,Eurasia,68.6436,170.045,RU
uppe1439,Chehalis (Upper),cjh,60,186,extinct,North America,46.7981,-123.169,US
cham1309,Chamalal,cji,26,74,unknown,Eurasia,42.5024,45.995,RU
chan1310,Chantyal,chx,18,56,definitely endangered,Eurasia,28.684,83.4488,NP
high1242,Chontal (Highland),chd,94,187,severely endangered,North America,16.1849,-95.7301,MX
chip1261,Chipewyan,chp,27,37,vulnerable,North America,58.3637,-110.832,CA
quio1240,Chinantec (Quiotepec),chq,42,178,safe,North America,17.5621,-96.602,MX
chra1242,Chrau,crw,67,155,unknown,Eurasia,10.8021,107.293,VN
siyi1240,Chin (Siyin),csy,18,33,safe,Eurasia,23.8192,93.6884,MM
nopa1235,Chatino (Nopala),cya,42,188,safe,North America,16.0954,-97.1339,MX
niva1238,Chulupí,cag,95,189,unknown,South America,-22.8557,-61.7606,PY
chuv1255,Chuvash,chv,51,83,unknown,Eurasia,55.487,47.163,RU
west2650,Cham (Western),cja,12,14,vulnerable,Eurasia,12.4771,104.026,KH
lowl1260,Chontal (Huamelultec Oaxaca),clo,94,187,safe,North America,15.9497,-95.6876,MX
chay1248,Chayahuita,cbt,96,190,unknown,South America,-5.63764,-76.8252,PE
minn1241,Chaozhou,,18,191,unknown,Eurasia,24.5,118.17,CN
nyan1308,Chichewa,nya,4,31,unknown,Africa,-14.8047,32.8108,ZW MW ZM MZ
ines1240,Chumash (Ineseño),inz,91,176,extinct,North America,34.6169,-120.08,US
chic1272,Chichimeca-Jonaz,pei,42,192,vulnerable,North America,21.2943,-100.524,MX
chek1238,Cheke Holo,mrn,12,25,unknown,Papunesia,-8.27055,159.625,SB
chin1286,Chinook (Lower),chh,97,193,unknown,North America,45.1729,-119.166,US
cane1242,Canela-Krahô,xra,48,75,unknown,South America,-6.10712,-45.1299,BR
wasc1239,Chinook (Upper),wac,97,193,safe,North America,45.0278,-121.509,US
clal1241,Clallam,clm,60,194,extinct,North America,48.0707,-123.511,US
cola1237,Colac,,8,112,extinct,Australia,-38.471266,143.422444,AU
chal1275,Chaldean (Modern),cld,2,4,unknown,Eurasia,37.0972,43.5027,IQ
leal1235,Chinantec (Lealao),cle,42,178,safe,North America,17.3162,-95.9265,MX
chil1275,Cholón,clh,98,195,severely endangered,Eurasia,35.2494,73.3344,PE
chul1246,Chulym,clw,51,83,unknown,Eurasia,54.3209,89.5541,RU
chim1309,Chimila,cbg,65,196,severely endangered,South America,10.1902,-74.2559,CO
come1251,Comecrudo,xcm,99,197,extinct,North America,26.1333,-98.4667,MX
east2563,Cham (Eastern),cjm,12,14,definitely endangered,Eurasia,11.2853,108.49,VN
utes1238,Chemehuevi,ute,87,198,unknown,North America,40.0965,-110.305,US
chim1310,Chemakum,xch,100,199,extinct,North America,48.0833333333,-122.916666667,US
caml1239,Camling,rab,18,88,definitely endangered,Eurasia,27.3371,86.7612,NP
coma1245,Comanche,com,87,198,severely endangered,North America,34.5701,-98.424,US
mara1382,Chin (Mara),mrh,18,33,unknown,Eurasia,22.1138,93.0387,IN MM
como1259,Comox,coo,60,194,unknown,North America,49.7233,-124.967,CA
taba1266,Chontal Maya,chf,15,17,unknown,North America,18.1713,-92.7367,MX
kana1291,Canamarí,knm,101,200,vulnerable,South America,-6.45399,-68.7678,BR
yuec1235,Cantonese,yue,18,191,unknown,Eurasia,23.0,113.0,CN
coah1252,Coahuilteco,xcw,102,201,extinct,North America,28.2589,-97.89,MX
coca1259,Cocama,cod,14,16,unknown,South America,-4.5,-74.0,PE
coeu1236,Coeur d'Alene,crd,60,202,critically endangered,North America,47.2958,-116.715,US
cofa1242,Cofán,con,103,203,unknown,South America,0.276675,-77.0643,CO EC
cogu1240,Cogui,kog,65,204,vulnerable,South America,10.9485,-73.8043,CO
chor1273,Chortí,caa,15,17,definitely endangered,North America,14.818,-89.2363,HN GT
chol1281,Chol,cti,15,17,unknown,North America,17.75,-92.5,MX
maor1244,Comorian,swb,4,31,unknown,Africa,-12.830306,45.154942,KM YT
coos1249,Coos (Hanis),csz,35,205,extinct,North America,43.4413,-124.16,US
copt1239,Coptic,cop,2,206,unknown,Africa,29.472,31.2053,EG
elna1235,Cora,crn,87,207,unknown,North America,22.4099,-104.467,MX
sout2986,Rumsien,css,97,208,unknown,North America,36.787073,-121.487098,US
ashe1273,Campa Pajonal Asheninca,cjo,13,175,vulnerable,South America,-10.7583,-74.2014,PE
pala1351,Chinantec (Palantla),cpa,42,178,safe,North America,17.884,-96.3407,MX
chep1245,Chepang,cdm,18,88,unknown,Eurasia,27.7206,84.9017,NP
chip1241,Chippewa (Red Lake and Pillager),ciw,11,13,unknown,North America,47.347,-94.2738,US
chip1262,Chipaya,cap,104,209,definitely endangered,South America,-18.73951,-67.89633,BO
chiq1248,Chiquitano,cax,105,210,unknown,South America,-17.6354,-59.9172,BO
plai1258,Cree (Plains),crk,11,13,unknown,North America,51.2437,-110.463,CA
east2555,Chiriguano,gui,14,16,unknown,South America,-21.0909,-61.7179,PY BO AR
chru1239,Chru,cje,12,14,unknown,Eurasia,11.6625,108.529,VN
crim1257,Crimean Tatar,crh,51,83,unknown,Eurasia,45.0,34.08,UZ
cari1279,Carijona,cbd,33,45,critically endangered,South America,1.21894,-72.0664,CO
cree1270,Creek,mus,7,8,unknown,North America,31.0,-87.5,US
caro1242,Carolinian,cal,12,25,safe,Papunesia,15.205,145.765,MP
corn1251,Cornish,cor,24,159,extinct,Eurasia,50.5233,-4.18619,GB
crow1244,Crow,cro,70,142,definitely endangered,North America,45.368,-107.874,US
cara1272,Carapana,cbc,74,149,severely endangered,South America,0.06168,-69.6465,CO BR
carr1249,Carrier,crx,27,37,severely endangered,North America,54.3768,-124.328,CA
chor1274,Chorote,crt,95,189,unknown,South America,-22.5,-62.5,PY AR BO
soch1239,Chinantec (Sochiapan),cso,42,178,safe,North America,17.7985,-96.6079,MX
usil1237,Chinantec (San Felipe Usila),cuc,42,178,safe,North America,17.9184,-96.4074,MX
cash1254,Cashinahua,cbs,38,55,vulnerable,South America,-9.72027,-71.1733,PE BR
jola1262,Diola-Kasa,csk,4,122,unknown,Africa,12.5089,-16.5539,
chin1283,Chinese Sign Language,csl,21,23,safe,Eurasia,30.9063,121.569,CN
west2644,Chatino (Sierra Occidental),ctp,42,188,unknown,North America,16.2495,-97.3244,MX
cuic1234,Cuicatec,cux,42,211,unknown,North America,17.8333333333,-96.8333333333,MX
tepe1279,Chinantec (Tepetotutla),cnt,42,178,safe,North America,17.7115,-96.5404,MX
tedi1235,Chin (Tiddim),ctd,18,33,unknown,Eurasia,23.6079,93.519,MM
stan1289,Catalan,cat,24,85,unknown,Eurasia,41.453,1.569,ES
chit1248,Chitimacha,ctm,106,212,extinct,North America,30.3386,-90.9123,US
tata1258,Chatino (Tataltepec),cta,42,188,safe,North America,16.2963,-97.5311,MX
cata1286,Catawba,chc,70,213,extinct,North America,34.9685,-80.8857,US
cuaa1241,Cua,cua,67,155,unknown,Eurasia,15.1688,108.431,VN
cube1242,Cubeo,cub,74,149,definitely endangered,South America,1.32382,-70.1939,CO
timo1237,Cuica,,107,214,extinct,South America,8.848165,-70.975342,VR
cuib1242,Cuiba,cui,108,215,unknown,South America,6.19829,-69.8197,CO
culi1244,Culina,cul,71,145,vulnerable,South America,-8.55268,-70.6648,BR PE
chum1261,Chumburung,ncu,4,5,unknown,Africa,8.15211,-0.2755,GH
cupe1243,Cupeño,cup,87,171,extinct,North America,33.3148,-116.515,US
curr1243,Curripaco,kpc,13,15,unknown,South America,0.69618,-67.5028,CO
cuit1236,Cuitlatec,,109,216,extinct,North America,18.1,-100.5,MX
chuu1238,Chuukese,chk,12,25,unknown,Papunesia,7.34083,151.596,FM
chav1241,Chavacano,cbk,21,34,unknown,Papunesia,7.435034,122.18849,PH
chua1250,Chuave,cjv,25,217,unknown,Papunesia,-6.17824,145.139,PG
colu1241,Columbia-Wenatchi,col,60,202,unknown,North America,48.217,-118.454,US
cayu1261,Cayuga,cay,93,218,critically endangered,North America,42.41,-76.5969,US
chey1247,Cheyenne,chy,11,13,definitely endangered,North America,45.5321,-106.659,US
cayu1262,Cayuvava,cyb,110,219,critically endangered,South America,-13.2482,-65.4822,BO
czec1258,Czech,ces,24,141,unknown,Eurasia,49.873398,15.10437,CZ
daak1235,Da'a,kzf,12,123,unknown,Papunesia,-1.21051,119.527,ID
nucl1683,Daba,dkx,2,108,unknown,Africa,10.3521,13.6318,CM
dadi1250,Dadibi,mps,111,220,safe,Papunesia,-6.65765,144.511,PG
daga1275,Daga,dgz,112,221,safe,Papunesia,-9.9747,149.263,PG
daha1245,Dahalo,dal,2,222,severely endangered,Africa,-2.1843,40.37,KE
dako1258,Dakota,dak,70,142,unknown,North America,47.6857,-102.12,US
mala1522,Damana,mbp,65,204,definitely endangered,South America,10.9286,-73.4056,CO
dann1241,Dan,daf,59,136,unknown,Africa,7.22812,-8.24535,LR GN CI
dara1250,Darai,dry,24,84,severely endangered,Eurasia,27.8623,84.1357,NP
dato1239,Datooga,tcc,16,18,unknown,Africa,-4.4131,35.2321,TZ
daww1239,Dâw,kwa,113,223,vulnerable,South America,-0.1177,-67.2934,BR
dayy1236,Day,dai,4,224,unknown,Africa,8.52612,17.5146,TD
tait1250,Dabida,dav,4,31,unknown,Africa,-3.79347,38.57254,KE
dutc1256,Dutch (Brabantic),nld,24,27,unknown,Eurasia,52.0,5.0,BE
casi1235,Dumagat (Casiguran),dgc,12,139,safe,Papunesia,16.2176,121.878,PH
dhuw1249,Dhuwal (Dätiwuy),duj,8,116,unknown,Australia,-12.7825,136.008,AU
darf1239,Daju (Dar Fur),daj,16,225,unknown,Africa,12.2598,25.3127,SD
godi1239,Dadjriwalé,god,4,41,unknown,Africa,5.3944,-5.82696,CI
donn1238,Donno So,dds,114,226,unknown,Africa,14.3402,-3.51468,BF ML
defa1248,Defaka,afn,115,227,critically endangered,Africa,4.58451,7.50186,NG
dege1246,Degema,deg,4,148,unknown,Africa,4.73373,6.80991,NG
deni1241,Dení,dny,71,145,vulnerable,South America,-6.74962,-67.5029,BR
dera1245,Dla (Proper),kbv,45,69,unknown,Papunesia,-3.52309,140.947,PG ID
desa1247,Desano,des,74,149,definitely endangered,South America,0.58157,-69.4955,CO BR
shua1254,Deti,shg,46,70,unknown,Africa,-21.52,26.0238,BW
deor1238,Deuri,der,18,153,definitely endangered,Eurasia,26.86152,93.70572,IN
sout2789,Dagaare,dga,4,143,safe,Africa,10.4226,-2.52265,GH BF
dagb1246,Dagbani,dag,4,143,safe,Africa,9.64745,-0.43227,GH
germ1281,Deutsche Gebärdensprache,gsg,21,23,safe,Eurasia,50.8154,7.30478,DE
indo1311,Dogri,dgo,24,84,unknown,Eurasia,33.0,75.0,IN
dong1290,Dongo,doo,4,106,safe,Africa,3.0,30.0,CD
daur1238,Dagur,dta,51,109,unknown,Eurasia,48.0,124.0,CN
dege1248,Degexit'an,ing,27,37,critically endangered,North America,62.0697,-160.044,US
daas1238,Dhaasanac,dsh,2,10,safe,Africa,4.58879,35.9888,ET
baya1257,Dharumbal,bjy,8,35,extinct,Australia,-24.9793,151.699,AU
dhiv1236,Dhivehi,div,24,84,safe,Eurasia,1.928498,73.54433,MV
dhal1245,Dhalandji,dhl,8,116,critically endangered,Australia,-22.196,114.937,AU
dhim1246,Dhimal,dhi,18,228,unknown,Eurasia,26.6283,88.3798,NP
dhar1247,Dhargari,dhr,8,116,safe,Australia,-24.0601,114.847,AU
dhur1239,Dhurga,dhu,8,112,extinct,Australia,-35.412,150.134,AU
thur1254,Dharawal,tbh,8,112,extinct,Australia,-35.2853,147.475,AU
didi1258,Didinga,did,16,140,safe,Africa,4.21489,33.6869,SD
kumi1248,Diegueño (Mesa Grande),dih,17,179,critically endangered,North America,32.331,-116.604,MX US
diga1241,Digaro,mhu,18,229,vulnerable,Eurasia,28.4993,96.8803,IN
dime1235,Dime,dim,2,2,vulnerable,Africa,6.20951,36.3329,ET
nort2815,Dinka,dip,16,18,unknown,Africa,9.27995,31.8392,SD
jola1263,Diola-Fogny,dyo,4,122,unknown,Africa,12.75752,-15.7354766667,GM SN
dier1241,Diyari,dif,8,9,safe,Australia,-28.1667,138.0,AU
dizi1235,Dizi,mdx,2,230,safe,Africa,6.1405,35.5763,ET
dyaa1242,Djabugay,dyy,8,35,unknown,Australia,-16.596,145.388,AU
djin1251,Djingili,jig,116,231,severely endangered,Australia,-17.165,133.659,AU
djam1256,Djambarrpuyngu,djr,8,116,safe,Australia,-12.021,135.59,AU
djin1253,Djinang,dji,8,116,unknown,Australia,-12.462,134.82,AU
jaru1254,Djaru,ddj,8,116,unknown,Australia,-18.3288,128.262,AU
duma1253,Duma,dma,4,31,safe,Africa,-0.91927,13.0046,GA
dumi1241,Dumi,dus,18,88,unknown,Eurasia,27.45849,86.75699,NP
doma1260,Dumaki,dmk,24,84,severely endangered,Eurasia,36.1666666667,74.0,PK
dima1251,Dimasa,dis,18,153,unknown,Eurasia,25.4198,93.1806,IN
ding1239,Ding,diz,4,31,safe,Africa,-4.44304,19.3881,CD
lowe1415,Dani (Lower Grand Valley),dni,25,232,unknown,Papunesia,-4.25684,138.992,ID
dang1274,Dangaléat (Western),daa,2,130,unknown,Africa,12.1517,18.385,TD
dobe1238,Dobel,kvo,12,49,unknown,Papunesia,-6.32531,134.638,ID
ngom1268,Doko,ngc,4,31,unknown,Africa,1.45357,20.14148,CD
dolg1241,Dolgan,dlg,51,83,definitely endangered,Eurasia,71.1083,94.2936,RU
doma1258,Domari,rmt,24,84,unknown,Eurasia,32.0,35.0,IR JO IL
sout2741,Dong,kmc,117,233,safe,Eurasia,25.8874,109.222,CN
dout1240,Doutai,tds,118,234,severely endangered,Papunesia,-3.24832,138.22,ID
doya1240,Doyayo,dow,4,224,unknown,Africa,8.68604,13.0768,CM
dehu1237,Drehu,dhv,12,25,unknown,Papunesia,-20.8892,167.229,NC
darg1241,Dargwa,dar,26,235,unknown,Eurasia,42.4257,47.4388,RU
dari1249,Dari,prs,24,138,unknown,Eurasia,31.0405,67.3593,AF
darm1243,Darma,drd,18,56,definitely endangered,Eurasia,29.8629,80.5439,IN
dani1285,Danish,dan,24,27,safe,Eurasia,54.8655,9.36284,DK
toro1252,Toro So,dts,114,226,unknown,Africa,14.40749,-3.10006,BF ML
dual1243,Duala,dua,4,31,unknown,Africa,4.10208,9.61877,CM
gaww1239,Dullay (Gollango),gwd,2,10,unknown,Africa,5.37869,37.2737,ET
huns1239,Duka,dud,4,62,unknown,Africa,10.7898,5.07312,NG
drun1238,Dulong,duu,18,72,unknown,Eurasia,28.00792,98.49449,CN
vani1248,Dumo,vam,79,236,safe,Papunesia,-2.68501,141.258,PG
duna1248,Duna,duc,25,237,safe,Papunesia,-5.41439,142.475,PG
zeeu1238,Dutch (Zeeuws),zea,24,27,unknown,Eurasia,51.4981,3.85428,NL BE
dyir1250,Dyirbal,dbl,8,35,unknown,Australia,-17.4516,145.544,AU
djim1235,Dyimini,dyi,4,143,unknown,Africa,8.36279,-4.45627,CI
dyul1238,Dyula,dyu,59,107,unknown,Africa,10.4536,-4.72007,ML BF CI
ebir1243,Ebira,igb,4,238,unknown,Africa,8.15516,7.06183,NG
edol1239,Edolo,etr,119,239,unknown,Papunesia,-6.11618,142.65,PG
efik1245,Efik,efi,4,29,safe,Africa,4.89379,8.38121,NG
egaa1242,Ega,ega,4,5,severely endangered,Africa,5.56081,-5.41732,CI
enge1239,Engenni,enn,4,148,unknown,Africa,5.11931,6.37339,NG
eipo1242,Eipo,eip,25,240,safe,Papunesia,-4.33691,140.045,ID
ejag1239,Ejagham,etu,4,31,unknown,Africa,5.54442,8.90959,NG CM
ekar1243,Ekari,ekg,25,241,unknown,Papunesia,-3.88974,136.018,ID
koti1238,Ekoti,eko,4,31,unknown,Africa,-16.4823,39.7602,MZ
else1239,Elseng,mrf,120,242,safe,Papunesia,-3.00176,140.418,ID
nort2972,Emberá (Northern),emp,90,174,vulnerable,South America,7.12761,-77.574,PA CO
embe1262,Embera Chami,cmi,90,174,vulnerable,South America,4.8791,-76.0749,CO
emer1243,Émérillon,eme,14,16,severely endangered,South America,3.23694,-52.3699,GF
emba1238,Embaloh,emb,12,87,safe,Papunesia,1.3156,112.63,ID
amii1238,Emmi,amy,121,243,safe,Australia,-13.5573,130.04,AU
enga1252,Enga,enq,25,244,unknown,Papunesia,-5.45619,143.685,PG
enet1250,Enets,enh,122,245,unknown,Eurasia,67.5,86.5,RU
stan1293,English,eng,24,27,unknown,Eurasia,53.0,-1.0,GB IE
engg1245,Enggano,eno,12,246,vulnerable,Papunesia,-5.38846,102.245,ID
enya1247,Enya,gey,4,31,safe,Africa,-4.67337,26.7496,CD
epen1239,Epena Pedee,sja,90,174,vulnerable,South America,4.25877,-77.3566,CO
sout2856,Efate (South),erk,12,25,safe,Papunesia,-17.7006,168.377,VU
siee1239,Erromangan,erg,12,25,unknown,Papunesia,-18.8181,169.166,VU
esee1248,Ese Ejja,ese,43,66,definitely endangered,South America,-11.7268,-67.515,PE BO
atac1235,Esmeraldeño,,123,247,extinct,South America,0.834931,-79.778137,EC
esse1238,Esselen,esq,124,248,extinct,North America,36.5473,-121.867,US
esto1258,Estonian,est,122,249,unknown,Eurasia,58.55,25.82,EE
yekh1238,Etsako,ets,4,148,unknown,Africa,7.10204,6.44919,NG
opat1246,Eudeve,opt,87,250,extinct,North America,31.15211,-110.06212,MX
even1259,Evenki,evn,51,251,unknown,Eurasia,53.85,108.626,RU
even1260,Even,eve,51,251,unknown,Eurasia,70.6687,130.914,RU
ewee1241,Ewe (Anglo),ewe,4,5,unknown,Africa,6.46061,0.814975,GH
ewon1239,Ewondo,ewo,4,31,unknown,Africa,4.21141,11.93646,CM
eyak1241,Eyak,eya,27,252,extinct,North America,60.4232,-144.762,US
faro1244,Faroese,fao,24,27,vulnerable,Eurasia,62.0732,-6.88497,DK
fasu1242,Fasu,faa,25,253,unknown,Papunesia,-6.62687,143.284,PG
west2454,Fula (Burkina Faso),fuh,4,122,unknown,Africa,14.2471,-0.52004,BF
east2288,Frisian (Eastern),frs,24,27,vulnerable,Eurasia,52.9713,7.73549,DE
fefe1239,Fe'fe',fmp,4,31,unknown,Africa,5.18158,10.1442,CM
adam1253,Fulani (Gombe),fub,4,122,unknown,Africa,8.140326,13.077338,NG
pula1262,Fula (Guinean),fuf,4,122,unknown,Africa,12.1826,-12.7338,GN
fiji1243,Fijian,fij,12,25,unknown,Papunesia,-18.0,178.33,FJ
finn1318,Finnish,fin,122,249,unknown,Eurasia,64.7628,25.5577,FI
koon1244,Fiote,kng,4,31,unknown,Africa,-5.57722,14.4771,CD
west2519,Fijian (Wayan),wyy,12,25,unknown,Papunesia,-17.8355,177.657,FJ
pula1263,Fula (Mauritanian),fuc,4,122,unknown,Africa,13.8694,-13.4482,MR
nige1253,Fula (Nigerian),fuv,4,122,unknown,Africa,10.9972,11.1188,NG
nort2626,Frisian (North),frr,24,27,unknown,Eurasia,54.6409,8.58489,DE
foii1241,Foe,foi,25,254,unknown,Papunesia,-6.47258,143.495,PG
fonn1241,Fongbe,fon,4,5,unknown,Africa,7.15484,1.66495,BJ
fore1270,Fore,for,25,28,unknown,Papunesia,-6.64473,145.5065,PG
mesk1242,Fox,sac,11,13,unknown,North America,40.0,-94.0,US
fass1245,Momu,fqs,69,255,unknown,Papunesia,-3.10868,141.64,PG
ford1242,Fordata,frd,12,49,unknown,Papunesia,-7.28902,131.511,ID
stan1290,French,fra,24,85,unknown,Eurasia,48.0,2.0,CH FR
west2354,Frisian (Western),fry,24,27,unknown,Eurasia,53.143,5.86091,NL
finn1310,Finnish Sign Language,fse,21,23,safe,Eurasia,60.661,25.0677,FI
east2447,Futuna (East),fud,12,25,safe,Papunesia,-19.535487,170.216578,WF
fuln1247,Fulniô,fun,125,256,unknown,South America,-9.02591,-37.1402,BR
maas1239,Fulfulde (Maasina),ffm,4,122,unknown,Africa,11.1324,-3.64763,ML
furr1244,Fur,fvr,126,257,safe,Africa,12.0455,23.6401,SD
futu1245,Futuna-Aniwa,fut,12,25,unknown,Papunesia,-19.5303,170.215,VU
mind1253,Fuzhou,cdo,18,191,unknown,Eurasia,26.0,119.5,MY TH CN
fyam1238,Fyem,pym,4,135,severely endangered,Africa,9.59006,9.22293,NG
gaaa1244,Gã,gaa,4,5,safe,Africa,5.65488,-0.18598,GH
gaga1251,Gaagudju,gbu,127,258,safe,Australia,-12.5176,132.643,AU
gade1242,Gade,ged,4,238,safe,Africa,8.71139,7.49869,NG
scot1245,Gaelic (Scots),gla,24,159,unknown,Eurasia,56.7574,-5.24366,GB
gaga1249,Gagauz,gag,51,83,unknown,Eurasia,44.5988,28.0277,MD
alek1238,Gahuku,gah,25,28,safe,Papunesia,-6.03901,145.387,PG
gamo1244,Gamo,gmo,2,259,safe,Africa,6.57645,37.1381,ET
gapa1238,Gapapaiwa,pwg,12,25,safe,Papunesia,-9.73317,149.854,PG
garo1247,Garo,grt,18,153,unknown,Eurasia,25.2954,90.462,IN
bava1246,German (Upper Austrian),bar,24,27,unknown,Eurasia,47.9232,13.246,AT
gavi1246,Gavião,gvo,14,260,unknown,South America,-10.7235,-61.6752,BR
gayo1244,Gayo,gay,12,53,unknown,Papunesia,4.3733,97.3456,ID
gbay1287,Gbeya Bossangoa,gbp,4,261,unknown,Africa,6.61896,17.645,CF
uppe1455,Guinea Bissau Crioulo,pov,21,34,unknown,Africa,13.2335066667,-15.33254,GW
nort2775,Gbaya Kara,gya,4,261,unknown,Africa,5.9503,15.2569,CM CF
stan1295,German (Berlin),deu,24,27,unknown,Eurasia,48.649,12.4676,DE
mode1248,Greek (Cypriot),ell,24,262,unknown,Eurasia,42.3224,24.8699,CY
bodo1267,Gutob,gbj,67,129,unknown,Eurasia,18.3857,82.771,IN
gudu1252,Guduf,gdf,2,108,unknown,Africa,11.1057,13.7893,CM NG
pott1240,Gadaba (Kondekor),gdb,61,263,critically endangered,Eurasia,18.5968,82.7586,IN
guad1242,Guadeloupe Creole,gcf,21,34,unknown,North America,14.4989,-61.0228,GP
gida1247,Gidar,gid,2,108,safe,Africa,9.874715,14.07845,CM
gads1258,Gadsup,gaj,25,28,unknown,Papunesia,-6.31631,145.997,PG
gela1263,Gela,nlg,12,25,safe,Papunesia,-9.04587,160.186,SB
nucl1302,Georgian,kat,128,264,unknown,Eurasia,41.850397,43.78613,GE
guia1246,Guianese French Creole,gcr,21,34,safe,South America,4.94804,-52.7336,GF
guga1239,Gugadj,ggd,8,35,extinct,Australia,-17.8372,141.168,AU
gure1255,Gureng Gureng,gnr,8,112,extinct,Australia,-25.3893,151.175,AU
guah1255,Guahibo,guh,108,215,unknown,South America,5.81736,-68.9839,CO
ghot1243,Ghotuo,aaa,4,148,safe,Africa,7.11551,5.95663,NG
gahr1239,Bunan,bfu,18,56,definitely endangered,Eurasia,32.5,77.0,IN
gila1241,Gilaki,glk,24,138,unknown,Eurasia,37.1344,49.8359,IR
benc1235,Gimira,bcq,2,259,unknown,Africa,7.04682,35.7673,ET
gula1265,Gula Iro,glj,4,224,unknown,Africa,10.267,19.5359,TD
gitx1241,Gitksan,git,97,265,unknown,North America,55.09,-128.08,CA
maro1246,Giziga,giz,2,108,unknown,Africa,10.3333333333,14.1666666667,CM
guri1247,Gurindji,gue,8,116,unknown,Australia,-17.0329,130.379,AU
guaj1255,Guajajara,gub,14,16,unknown,South America,-4.69461,-45.7081,BR
puel1244,Gününa Küne,pue,129,266,extinct,South America,-36.6376,-62.9413,AR
gela1261,Gelao,gio,117,267,critically endangered,Eurasia,26.1545,106.235,VN
gali1258,Galician,glg,24,85,safe,Eurasia,42.2446,-7.5343,ES
gale1259,Galela,gbi,9,268,unknown,Papunesia,2.31461,128.44,ID
goli1247,Golin,gvf,25,217,unknown,Papunesia,-6.2249,144.8505,PG
dhan1270,Gaalpu,dhg,8,116,unknown,Australia,-11.9493,135.752,AU
guam1248,Guambiano,gum,55,96,definitely endangered,South America,2.55849,-76.582,CO
gami1243,Gamilaraay,kld,8,112,unknown,Australia,-29.9037,149.543,AU
guma1253,Gumatj,gnn,8,116,safe,Australia,-12.25254,136.83042,AU
guma1254,Gumawana,gvs,12,25,safe,Papunesia,-9.28497,150.762,PG
gumu1244,Gumuz,guk,130,269,unknown,Africa,11.05,35.93,ET SD
guan1268,Guana,gva,131,270,unknown,South America,-21.9803,-58.0654,PY
kunb1251,Gunbalang,wlg,47,111,severely endangered,Australia,-11.9133,133.723,AU
gaan1243,Ga'anda,gqa,2,108,unknown,Africa,10.2955,12.6479,NG
kwin1241,Gunin,gww,132,271,safe,Australia,-14.2515,126.562,AU
guan1269,Guanano,gvc,74,149,vulnerable,South America,1.07554,-69.5705,BR CO
guny1241,Gunya,gyy,8,35,extinct,Australia,-27.0642,145.862,AU
wayu1243,Goajiro,guc,13,78,vulnerable,South America,11.395566,-72.199791,VR CO
ghod1238,Godoberi,gdo,26,74,definitely endangered,Eurasia,42.7428,46.2252,RU
goem1240,Goemai,ank,2,67,safe,Africa,8.74455,9.72453,NG
gogo1265,Gogodala,ggw,133,272,safe,Papunesia,-8.08527,142.874,PG
guja1253,Gojri,gju,24,84,unknown,Eurasia,34.3768,73.1461,IN
goka1239,Gokana,gkn,4,29,unknown,Africa,4.61889,7.34457,NG
gola1255,Gola,gol,4,127,unknown,Africa,7.06193,-10.8138,SL LR
sout2711,Gondi,ggo,61,273,unknown,Eurasia,20.10446,80.27811,IN
goon1238,Gooniyandi,gni,72,146,severely endangered,Australia,-18.4073,126.351,AU
goro1270,Gorowa,gow,2,36,safe,Africa,-4.23575,35.7996,TZ
barc1235,Grebo,grj,4,41,unknown,Africa,4.67843,-8.09378,LR
kala1399,Greenlandic (East),kal,23,91,unknown,Eurasia,69.3761,-52.864,GL
gari1256,Garífuna,cab,13,78,unknown,North America,15.3529,-86.9091,BZ GT HN
gura1252,Gurr-goni,gge,82,166,vulnerable,Australia,-12.66855,134.09501,AU
huar1255,Guarijío,var,87,274,unknown,North America,27.8685,-108.437,MX
gour1243,Gurma,gux,4,143,unknown,Africa,11.6711,1.28489,BF
fare1241,Gurenne,gur,4,143,unknown,Africa,11.0918,-0.81109,GH
guro1248,Guro,goa,59,136,safe,Africa,7.34954,-6.31154,CI
kols1241,German (Ripuarian),ksh,24,27,vulnerable,Eurasia,50.947,6.927,BE
gara1261,Garrwa,gbc,134,275,unknown,Australia,-17.0833333333,137.166666667,AU
garu1246,Garus,gyb,25,57,safe,Papunesia,-4.9222,145.683,PG
goro1259,Gorontalo,gor,12,30,unknown,Papunesia,0.62689,122.288,ID
gree1271,Greek Sign Language,gss,21,23,safe,Eurasia,38.0536,23.3762,GR
guat1253,Guató,gta,135,276,critically endangered,South America,-17.8696,-57.2897,BR
para1311,Guaraní,gug,14,16,safe,South America,-25.60551,-57.08816,PY
gude1246,Gude,gde,2,108,unknown,Africa,10.2138,13.403,CM NG
guer1240,Guere,gxx,4,41,unknown,Africa,6.66666666667,-7.75,CI
gupa1247,Gupapuyngu,guf,8,116,unknown,Australia,-12.2868,135.337,AU
koka1244,Gugada,ktd,8,116,safe,Australia,-31.2052,136.813,AU
guhu1244,Guhu-Samane,ghs,25,132,safe,Papunesia,-7.99922,147.228,PG
guja1252,Gujarati,guj,24,84,unknown,Eurasia,22.687,71.0962,IN
gula1269,Gula (in Central African Republic),glu,30,102,safe,Africa,10.3049,19.2182,CF
kumb1268,Gumbaynggir,kgs,8,112,critically endangered,Australia,-29.8189,152.913,AU
nugu1242,Gunu,yas,4,31,unknown,Africa,4.63103,11.1837,CM
guru1261,Gurung,ggn,18,56,unknown,Eurasia,27.41687,86.28988,NP
gusi1247,Gusii,guz,4,31,safe,Africa,-0.78872,34.76751,KE
gugu1255,Guugu Yimidhirr,kky,8,35,vulnerable,Australia,-14.9424,144.831,AU
gunn1250,Gungbe,guw,4,5,unknown,Africa,6.48529,2.76767,BJ
gbag1258,Gwari,gbr,4,238,unknown,Africa,9.29842,6.90495,NG
west2356,German (Westphalian),wep,24,27,vulnerable,Eurasia,51.459,7.499,DE
tyap1238,Gworok,kcg,4,135,unknown,Africa,9.75568,8.3082,NG
guay1257,Guayabero,guo,108,215,definitely endangered,South America,2.8969,-71.844,CO
jiar1239,Gyarong (Cogtse),jya,18,277,unknown,Eurasia,31.5,102.0,CN
hadz1240,Hadza,hts,136,278,vulnerable,Africa,-3.83115,35.0458,TZ
haid1248,Haida,hax,137,279,unknown,North America,53.0,-132.0,CA US
hakk1236,Hakka,hak,18,191,unknown,Eurasia,25.0,116.0,CN
hali1244,Halia,hla,12,25,unknown,Papunesia,-5.26603,154.662,PG
hamt1247,Hamtai,hmt,25,73,unknown,Papunesia,-7.54975,146.227,PG
hani1248,Hani,hni,18,20,unknown,Eurasia,22.67753,102.851673333,CN
haru1245,Haruai,tmd,138,280,unknown,Papunesia,-5.09522,144.3375,PG
hata1243,Hatam,had,9,281,unknown,Papunesia,-1.13531,134.037,ID
haus1257,Hausa,hau,2,67,unknown,Africa,11.1513,8.7804,NG NE
hava1248,Havasupai,yuf,17,179,unknown,North America,35.6302,-113.385,US
hawa1245,Hawaiian,haw,12,25,critically endangered,Papunesia,19.6297,-155.43,US
wayu1241,Hayu,vay,18,88,critically endangered,Eurasia,27.3047,86.1227,NP
hebr1245,Hebrew (Modern Ashkenazic),heb,2,4,unknown,Eurasia,31.1056,35.0179,IL
hait1244,Haitian Creole,hat,21,34,unknown,North America,18.795135,-72.136115,HT
hdii1240,Hdi,xed,2,108,safe,Africa,10.942,13.6881,CM NG
hehe1240,Hehe,heh,4,31,safe,Africa,-7.71572,35.7255,TZ
heil1246,Heiltsuk,hei,139,282,unknown,North America,51.7045,-127.221,CA
hemb1242,Hemba,hem,4,31,safe,Africa,-7.77459,27.5913,CD
here1253,Herero,her,4,31,safe,Africa,-21.0231,20.5655,BW NA
hang1263,Hanga Hundi,wos,3,54,safe,Papunesia,-3.90364,142.849,PG
hida1246,Hidatsa,hid,70,142,definitely endangered,North America,47.7534,-102.528,US
hili1240,Hiligaynon,hil,12,30,unknown,Papunesia,10.4018,122.974,PH
hind1269,Hindi,hin,24,84,unknown,Eurasia,25.0,77.0,IN
hixk1239,Hixkaryana,hix,33,45,vulnerable,South America,-0.16265,-58.80153,BR
hong1241,Hong Kong Sign Language,,21,23,safe,Eurasia,22.5,114.0,CN
halb1244,Halbi,hlb,24,84,unknown,Eurasia,20.3081,81.3742,IN
halk1245,Halkomelem (Island),hur,60,194,unknown,North America,48.0751,-122.029,CA
hala1252,Halang,hal,67,155,safe,Eurasia,14.7862,107.457,VN
hmar1241,Hmar,hmr,18,33,vulnerable,Eurasia,24.7534,93.5497,IN
huam1247,Huambisa,hub,20,22,vulnerable,South America,-3.99109,-77.9797,PE
hmon1333,Hmong Daw,mww,140,283,unknown,Eurasia,21.5461,103.164,VN CN
mini1256,Huitoto (Minica),hto,75,284,safe,South America,-1.54535,-73.1107,CO
huam1250,Hmong Njua,hnj,140,283,unknown,Eurasia,28.0,105.0,CN
hame1242,Hamer,amf,2,2,safe,Africa,5.06515,36.5176,ET
nupo1240,Huitoto (Muinane),hux,75,284,safe,South America,-2.34495,-70.9559,PE
mina1276,Mina,hna,2,108,unknown,Africa,10.38053,13.84054,CM
hund1239,Hunde,hke,4,31,safe,Africa,-1.46762,28.9308,CD
hinu1240,Hinuq,gin,26,74,definitely endangered,Eurasia,42.4502,45.8064,RU
hanu1241,Hanunóo,hnn,12,30,unknown,Papunesia,12.4159,121.221,PH
nort2938,Haida (Northern),hdn,137,279,critically endangered,North America,54.004532,-132.079257,CA
hooo1248,Ho,hoc,67,129,unknown,Eurasia,23.9596,87.1188,IN
hoav1238,Hoava,hoa,12,25,vulnerable,Papunesia,-8.19679,157.595,SB
holo1240,Holoholo,hoo,4,31,safe,Africa,-5.37545,28.3274,TZ
hopi1249,Hopi,hop,87,285,vulnerable,North America,35.7653,-110.535,US
hupd1244,Hup,jup,113,223,unknown,South America,0.58622,-69.8359,CO BR
hree1244,Hre,hre,67,155,unknown,Eurasia,14.6308,108.694,VN
hara1271,Harari,har,2,4,safe,Africa,9.30485,42.1332,ET
hars1241,Harsusi,hss,2,4,definitely endangered,Eurasia,19.6511,56.1562,OM
hais1244,Haisla,has,139,282,critically endangered,North America,53.964,-128.602,CA
huas1256,Huastec,hsf,15,17,unknown,North America,22.0833333333,-99.3333333333,MX
yaga1260,Hua,ygr,25,28,unknown,Papunesia,-6.32432,145.388,PG
huaa1248,=|Hoan,huc,141,286,critically endangered,Africa,-24.20022,20.79583,BW
huic1243,Huichol,hch,87,207,unknown,North America,21.954,-104.062,MX
muru1274,Huitoto (Murui),huu,75,284,safe,South America,-1.13669,-73.8331,PE CO BR
hung1274,Hungarian,hun,122,287,unknown,Eurasia,46.9068585714,19.6555271429,HU
hupa1239,Hupa,hup,27,37,critically endangered,North America,41.0982,-123.68,US
sanm1287,Huave (San Mateo del Mar),huv,142,288,vulnerable,North America,16.2129,-95.0077,MX
hawa1247,Hawaiian Creole,hwc,21,34,safe,North America,19.6287,-155.437,US
gura1251,Hawrami,hac,24,138,unknown,Eurasia,36.8377,44.4956,IQ
haya1250,Haya,hay,4,31,unknown,Africa,-1.70878,31.4846,TZ
asho1236,Hyow,csh,18,33,unknown,Eurasia,21.393,93.5069,BD
hunz1247,Hunzib,huz,26,74,definitely endangered,Eurasia,42.0808,46.1369,RU
iaai1238,Iaai,iai,12,25,safe,Papunesia,-20.6301,166.59,NC
iatm1242,Iatmul,ian,3,54,unknown,Papunesia,-4.30064,143.316,PG
iauu1242,Iau,tmu,118,234,unknown,Papunesia,-3.14537,137.69,ID
iban1264,Iban,iba,12,14,unknown,Papunesia,2.09041,112.934,MY
ibib1240,Ibibio,ibb,4,29,unknown,Africa,5.15279,7.86688,NG
iban1267,Ibanag,ibg,12,139,unknown,Papunesia,17.4201,121.891,PH
icel1247,Icelandic,isl,24,27,safe,Eurasia,63.4837,-19.0212,IS
icel1236,Icelandic Sign Language,icl,21,23,safe,Eurasia,64.1731,-20.2731,IS
idun1242,Iduna,viv,12,25,unknown,Papunesia,-9.34361,150.24,PG
idom1241,Idoma,idu,4,289,unknown,Africa,7.19139,7.71261,NG
idum1241,Idu,clk,18,229,definitely endangered,Eurasia,29.4473,95.6472,IN
ital1282,Italian (Fiorentino),ita,24,85,unknown,Eurasia,43.0464,12.6489,IT
teke1274,Ifumu,ifm,4,31,unknown,Africa,-3.59003,15.5061,CG
bata1298,Ifugao (Batad),ifb,12,139,unknown,Papunesia,16.8266,121.23,PH
inga1252,Inga,inb,143,290,unknown,South America,1.00313,-76.8606,CO
nucl1417,Igbo,ibo,4,291,unknown,Africa,4.62705,7.23441,NG
iged1239,Igede,ige,4,289,unknown,Africa,6.95522,8.27362,NG
igna1246,Ignaciano,ign,13,110,definitely endangered,South America,-15.1188,-65.3993,BO
gaam1241,Ingessana,tbi,16,292,unknown,Africa,11.4674,33.9797,SD
ihaa1241,Iha,ihp,62,117,safe,Papunesia,-2.81013,132.271,ID
papu1250,Indonesian (Papuan),pmy,12,14,safe,Papunesia,-2.53482,139.651,ID
izon1238,Ijo (Kolokuma),ijc,115,227,unknown,Africa,5.17986,5.51702,NG
ikkk1242,Ik,ikx,16,293,severely endangered,Africa,3.61407,34.2507,UG
arhu1242,Ika,arh,65,204,vulnerable,South America,10.7018,-73.6363,CO
ilaa1246,Ila,ilb,4,31,unknown,Africa,-15.60807,26.45548,ZW ZM
miam1252,Illinois,mia,11,13,unknown,North America,40.0,-90.0,US
ilok1237,Ilocano,ilo,12,139,safe,Papunesia,15.9361,120.993,PH
imon1245,Imonda,imn,41,61,safe,Papunesia,-3.31228,141.171,PG
suab1238,Inanwatan,szp,50,80,safe,Papunesia,-2.07971,132.157,ID
indo1316,Indonesian,ind,12,14,unknown,Papunesia,-7.33458,109.716,ID
ingu1240,Ingush,inh,26,182,vulnerable,Eurasia,42.9525,44.158,RU
yand1253,Innamincka,ynd,8,9,extinct,Australia,-28.4744,140.583,AU
west2618,Inuktitut (Rankin Inlet),ikt,23,91,unknown,North America,64.3486,-96.148,CA
east2534,Inuktitut (Salluit),ike,23,91,unknown,North America,62.1735,-75.6139,CA
nort2943,Iñupiaq,esi,23,91,unknown,North America,69.582,-143.77,US
indi1237,Indo-Pakistani Sign Language (Indian dialects),ins,21,23,unknown,Eurasia,27.5186,79.6787,IN
paki1242,Indo-Pakistani Sign Language (Karachi dialect),pks,21,23,safe,Eurasia,28.0667,67.8843,PK
iqui1243,Iquito,iqu,49,79,critically endangered,South America,-3.31233,-73.97046,PE
iris1253,Irish (Donegal),gle,24,159,unknown,Eurasia,53.2186,-7.61509,IE
iraq1241,Iraqw,irk,2,36,safe,Africa,-4.19948,35.2939,TZ
irar1238,Irarutu,irh,12,63,safe,Papunesia,-2.94438,133.586,ID
iris1235,Irish Sign Language,isg,21,23,safe,Eurasia,53.315,-6.36541,IE
iran1263,Iranxe,irn,144,294,unknown,South America,-12.7178,-57.9806,BR
kris1246,I'saka,ksi,79,295,safe,Papunesia,-2.80084,141.303,PG
isek1239,Isekiri,its,4,296,safe,Africa,5.81898,5.5862,NG
sang1316,Ishkashmi,sgl,24,138,unknown,Eurasia,37.0,72.0,AF TJ
isir1237,Isirawa,srl,145,297,unknown,Papunesia,-1.88775,138.595,ID
inte1259,International Sign,,21,23,extinct,North America,40.0,-170.0,
isna1241,Isnag,isd,12,139,unknown,Papunesia,18.2139,121.16,PH
isok1239,Isoko,iso,4,148,unknown,Africa,5.52889,6.24682,NG
isra1236,Israeli Sign Language,isr,21,23,safe,Eurasia,31.5279,34.7637,IL
emil1242,Italian (Bologna),eml,24,85,unknown,Eurasia,44.5,11.3333333333,IT
itel1242,Itelmen,itl,36,298,unknown,Eurasia,56.7798,156.906,RU
ligu1248,Italian (Genoa),lij,24,85,unknown,Eurasia,44.0816,7.90522,IT
neap1235,Italian (Napolitanian),nap,24,85,unknown,Eurasia,39.2288,16.4225,IT
iton1250,Itonama,ito,146,299,critically endangered,South America,-12.80431,-64.35748,BO
piem1238,Italian (Turinese),pms,24,85,unknown,Eurasia,45.4633,8.32366,IT
itaw1240,Itawis,itv,12,139,safe,Papunesia,17.7329,121.58,PH
itza1241,Itzaj,itz,15,17,critically endangered,North America,17.0269,-89.8734,GT
ivat1242,Ivatan,ivv,12,300,unknown,Papunesia,20.3848,121.975,PH
iwai1244,Iwaidja,ibd,147,301,vulnerable,Australia,-11.3379,132.453,AU
iwam1256,Iwam,iwm,3,3,safe,Papunesia,-4.27346,141.817,PG
ixca1245,Ixcatec,ixc,42,177,critically endangered,North America,17.7597,-97.1242,MX
ixil1250,Ixil,ixi,15,17,unknown,North America,15.5,-91.0,GT
ingr1248,Izhor,izh,122,249,unknown,Eurasia,59.47403,29.71145,RU
izie1238,Izi,izi,4,291,unknown,Africa,6.31831,8.03044,NG
yabe1254,Jabêm,jae,12,25,safe,Papunesia,-6.67052,147.81,PG
tibe1272,Jad,bod,18,56,unknown,Eurasia,28.3681,90.1872,IN
jeha1242,Jahai,jhi,67,302,unknown,Eurasia,5.63695,101.541,MY
popt1235,Jakaltek,jac,15,17,safe,North America,15.6609,-91.6633,GT
djam1255,Jaminjung,djd,116,303,severely endangered,Australia,-15.0558,130.06,AU
jaqa1244,Jaqaru,jqr,56,98,severely endangered,South America,-12.8823,-75.8958,PE
jara1263,Jarawa (in Nigeria),jar,4,31,unknown,Africa,9.8,9.61,NG
java1254,Javanese,jav,12,304,unknown,Papunesia,-0.572307,110.885,ID
djeo1235,Jabutí,jbt,148,305,severely endangered,South America,-12.038,-64.6694,BR
jama1262,Jamaican Creole,jam,21,34,safe,North America,18.13,-77.2612,JM
jebe1250,Jebero,jeb,96,190,critically endangered,South America,-5.40317,-76.4103,PE
jehh1245,Jeh,jeh,67,155,unknown,Eurasia,15.2351,107.753,LA VN
jeri1242,Jeli,,59,107,severely endangered,Africa,9.3957,-5.66717,CI
jeme1245,Jemez,tow,149,306,vulnerable,North America,35.5994,-106.766,US
sheh1240,Jibbali,shv,2,4,unknown,Eurasia,17.29154,53.99526,OM
jino1236,Jino,jiy,18,20,unknown,Eurasia,22.0,101.0,CN
shua1257,Jivaro,jiv,20,22,definitely endangered,South America,-3.45136,-78.1892,EC
luwo1239,Luwo,lwo,16,18,safe,Africa,7.35089,28.1378,SD
jurm1239,Jur Mödö,bex,30,102,unknown,Africa,6.03321,29.974,SD
jams1239,Jamsay,djm,114,226,unknown,Africa,14.1794,-2.57999,ML
kach1280,Jingpho,kac,18,307,unknown,Eurasia,25.4634,97.3278,MM
talo1250,Jomang,tlo,150,308,critically endangered,Africa,10.6453,30.4815,SD
nucl1643,Japanese,jpn,151,309,unknown,Eurasia,35.0,135.0,JP
japr1238,Japreria,jru,33,45,vulnerable,South America,10.5523,-72.7101,VR
juru1256,Juruna,jur,14,16,vulnerable,South America,-10.9354,-53.3472,BR
jara1245,Jarawa (in Andamans),anq,152,310,safe,Eurasia,11.6089,92.658,IN
tase1235,Jugli,nst,18,184,unknown,Eurasia,27.2572,96.3855,IN
juho1239,Ju|'hoan,ktz,141,311,unknown,Africa,-19.688,20.7673,BW AO NA
juku1254,Jukun,jbu,4,135,unknown,Africa,7.20236,10.2576,NG
juma1249,Júma,jua,14,16,critically endangered,South America,-7.27501,-64.0998,BR
juan1238,Juang,jun,67,129,definitely endangered,Eurasia,21.2606,85.5845,IN
jurc1239,Jurchen,juc,51,251,extinct,Eurasia,44.412626,126.866803,CN
kara1500,Karajá,kpj,48,312,definitely endangered,South America,-11.1881,-50.3492,BR
karo1305,Karó (Arára),arr,14,313,vulnerable,South America,-10.3342,-61.5691,BR
kaba1278,Kabardian,kbd,6,7,vulnerable,Eurasia,43.5082,43.3918,RU
kach1279,Kachari,xac,18,153,definitely endangered,Eurasia,26.6882,92.317,IN
katc1249,Kadugli,xtc,153,314,unknown,Africa,10.8423,29.4914,SD
kaki1249,Kaki Ae,tbd,154,315,vulnerable,Papunesia,-7.9946,145.816,PG
kome1238,Kayu Agung,kge,12,316,safe,Papunesia,-3.79215,105.107,ID
kaia1245,Kaian,kct,92,317,safe,Papunesia,-4.06543,144.756,PG
kaur1271,Kaure,bpp,155,318,safe,Papunesia,-3.39188,140.14,ID
kama1370,Kamano-Kafe,kbq,25,28,safe,Papunesia,-6.25829,145.728,PG
kala1373,Kalami,gwc,24,84,unknown,Eurasia,35.5303,72.5738,PK
kamb1299,Kambera,xbr,12,49,unknown,Papunesia,-9.88447,120.235,ID
khan1278,Kana,ogo,4,29,unknown,Africa,4.70908,7.44363,NG
kara1487,Karao,kyj,12,139,safe,Papunesia,16.5655,120.956,PH
kela1255,Kela (Apoze),kcl,12,25,safe,Papunesia,-7.47103,147.173,PG
kaur1267,Kaurna,,8,9,extinct,Australia,-34.34966141,138.4800794,AU
kara1482,Kara (in Central African Republic),kah,30,102,safe,Africa,9.99526,22.9947,CF
kash1277,Kashmiri,kas,24,84,unknown,Eurasia,34.166825,74.330455,PK IN
kate1253,Kâte,kmg,25,144,unknown,Papunesia,-6.4795,147.757,PG
kaul1240,Kaulong,pss,12,25,unknown,Papunesia,-6.08192,149.696,PG
kaiw1246,Kaiwá,kgk,14,16,unknown,South America,-24.589,-54.6815,PY BR
kaya1319,Kayardild,gyd,156,319,critically endangered,Australia,-17.0695,139.489,AU
kaza1248,Kazakh,kaz,51,83,unknown,Eurasia,41.8729,65.7709,KZ
kamb1297,Kamba,kam,4,31,unknown,Africa,-1.60827,37.9532,KE
inpu1234,Kabui,nkf,18,33,vulnerable,Eurasia,24.8761,93.8096,IN
kaby1243,Kabyle,kab,2,113,unknown,Africa,36.4103,4.76137,DZ
apma1241,Kambot,kbx,92,320,safe,Papunesia,-4.35147,144.085,PG
bara1370,Kayan (Baram),kys,12,118,unknown,Papunesia,3.51211,114.482,MY
kaba1276,Kabatei,xkp,24,138,unknown,Eurasia,37.0529,49.7603,IR
kane1243,Kanembu,kbl,157,321,unknown,Africa,13.8749,14.8437,NG NE TD
bwek1238,Karen (Bwe),bwe,18,322,safe,Eurasia,18.9796,96.9936,MM
kabi1261,Kabiyé,kbp,4,143,unknown,Africa,8.96816,0.495023,TG
koyr1240,Koyra Chiini,khq,158,323,unknown,Africa,16.192,-3.73962,ML
kond1295,Konda,kfc,61,273,unknown,Eurasia,18.26754,82.93402,IN
kari1317,Karipuna do Guapore,kuq,38,55,definitely endangered,South America,-10.2006,-64.2807,BR
kadi1248,Kadiwéu,kbc,5,324,definitely endangered,South America,-19.7222,-57.582,BR
coas1294,Kadazan,kzj,12,118,safe,Papunesia,5.77065,116.063,MY
qanj1241,Kanjobal (Eastern),kjb,15,17,safe,North America,15.6846,-91.3043,GT
keda1252,Kedang,ksx,12,49,safe,Papunesia,-8.23039,123.77,ID
kafa1242,Kefa,kbr,2,2,unknown,Africa,7.34022,36.1718,ET
keii1239,Kei,kei,12,49,unknown,Papunesia,-5.63948,133.02,ID
kekc1242,K'ekchí,kek,15,17,vulnerable,North America,15.3788,-89.2452,GT
kele1258,Kele,sbc,12,25,safe,Papunesia,-2.09163,147.064,PG
qima1242,Kemant,ahg,2,95,unknown,Africa,12.8119,37.0542,ET
keng1240,Kenga,kyq,30,102,unknown,Africa,11.6816,18.1464,TD
keoo1238,Ke'o,xxk,12,49,safe,Papunesia,-8.8704,121.256,ID
kera1255,Kera,ker,2,130,safe,Africa,9.88165,15.1419,TD
kett1243,Ket,ket,159,325,severely endangered,Eurasia,63.7551,87.5466,RU
kewa1250,Kewa,kjs,25,244,unknown,Papunesia,-6.5,143.833333333,PG
koro1298,Koromfe,kfz,4,143,unknown,Africa,14.046,-1.96187,BF ML
kirg1245,Kirghiz (Fu-Yu),kir,51,83,unknown,Eurasia,42.0,74.0,CN
nucl1379,Kinga,zga,4,31,safe,Africa,-9.35868,34.2321,TZ
wame1240,Konyagi,cou,4,122,safe,Africa,12.5421,-13.177,ML GN
umbu1258,Umbu Ungu,ubu,25,217,unknown,Papunesia,-5.9513,143.97,PG
kago1247,Kagoma,kdm,4,135,safe,Africa,9.22607,8.18694,NG
kagu1239,Kagulu,kki,4,31,unknown,Africa,-6.38204,37.0534,TZ
kalk1246,Kalkatungu,ktg,8,35,extinct,Australia,-21.0,139.5,AU
kyer1238,Kyirong,kgy,18,56,safe,Eurasia,28.2922,85.4257,CN
halh1238,Khalkha,khk,51,109,unknown,Eurasia,48.324,106.289,MN
kham1282,Kham (Dege),khg,18,56,unknown,Eurasia,31.9313,91.7062,CN
khal1275,Khaling,klr,18,88,definitely endangered,Eurasia,27.3912,87.5053,IN CN NP
khin1240,Khinalug,kjj,26,32,severely endangered,Eurasia,41.1801,48.0571,AZ
khak1248,Khakas,kjh,51,83,unknown,Eurasia,50.7393,107.169,RU
turk1303,Khalaj,klj,51,83,vulnerable,Eurasia,34.4224,50.3222,IR
cent1989,Khmer,khm,67,326,unknown,Eurasia,12.0515,105.015,KH
khun1259,Khün,kkh,117,233,safe,Eurasia,19.6062,99.3363,MM
nama1264,Khoekhoe,naq,46,70,unknown,Africa,-25.0747,17.9767,
khar1287,Kharia,khr,67,129,unknown,Eurasia,22.3571,84.3922,IN
khas1269,Khasi,kha,67,327,unknown,Eurasia,24.977,91.9998,IN
khum1248,Khumi,cnk,18,33,unknown,Eurasia,22.87125,92.9894633333,MM
khva1239,Khvarshi,khv,26,74,unknown,Eurasia,42.2743,45.9977,RU
khow1242,Khowar,khw,24,84,unknown,Eurasia,36.0,72.0,PK
kick1244,Kickapoo,kic,11,13,severely endangered,North America,41.655145,-89.03034,US
kire1240,Kire,geb,92,328,safe,Papunesia,-4.25927,144.711,PG
kitj1240,Kitja,gia,160,329,severely endangered,Australia,-17.5758,127.392,AU
kiku1240,Kikuyu,kik,4,31,unknown,Africa,-0.29005,36.719,KE
luba1250,Kiluba,lub,4,31,safe,Africa,-8.2816,25.8918,CD
kima1246,Kimaghama,kig,161,330,safe,Papunesia,-8.01899,138.355,ID
kiny1244,Kinyarwanda,kin,4,31,unknown,Africa,-1.56771,29.6441,RW
kiow1266,Kiowa,kio,149,306,severely endangered,North America,34.9403,-98.9042,US
kalm1243,Kalmyk (Issyk-Kul),xal,51,109,unknown,Eurasia,46.566667,45.316667,KG
cerm1238,Kirma,cme,4,143,unknown,Africa,10.1245,-4.94917,BF
kiss1245,Kisi,kss,4,127,unknown,Africa,8.83333333333,-10.1666666667,SL GN LR
kits1249,Kitsai,kii,32,44,extinct,North America,31.83,-96.5,US
kuii1253,Kui (in Indonesia),kvd,10,12,unknown,Papunesia,-8.38204,124.791,ID
sout2949,Kiwai,kjd,162,331,unknown,Papunesia,-8.64889,143.244,PG
kore1283,Koreguaje,coe,74,149,definitely endangered,South America,0.92316,-75.3475,CO
nort2641,Kurmanji,kmr,24,138,unknown,Eurasia,37.0,43.0,TR
kunj1245,Kunjen,kjn,8,35,unknown,Australia,-16.6807,143.53,AU
coas1295,Konjo,kjc,12,87,unknown,Papunesia,-5.41532,120.304,ID
koor1239,Koorete,kqy,2,259,safe,Africa,5.80545,37.8679,ET
konk1269,Konkomba,xon,4,143,unknown,Africa,9.82224,0.2783,TG GH
beng1239,Kata Kolok,bqy,21,23,safe,Papunesia,-8.383,115.098,ID
konk1267,Konkani,knn,24,84,unknown,Eurasia,19.2414,73.9166,IN
kura1250,Koranko,knk,59,107,unknown,Africa,9.49325,-10.6122,SL GN
kara1467,Karakalpak,kaa,51,83,unknown,Eurasia,39.98,63.3223,UZ
kuik1246,Kuikúro,kui,33,45,vulnerable,South America,-12.3035,-53.2261,BR
kiri1256,Kirikiri,kiy,118,234,unknown,Papunesia,-3.18494,137.282,ID
koko1269,Kokota,kkk,12,25,vulnerable,Papunesia,-8.16481,159.191,SB
kork1243,Korku,kfq,67,129,unknown,Eurasia,21.8358,77.5541,IN
lusi1240,Lusi,khl,12,25,safe,Papunesia,-5.55033,149.148,PG
kara1289,Karankawa,zkk,163,332,extinct,North America,28.9082,-96.4856,US
kank1243,Kankanay,kne,12,139,unknown,Papunesia,16.8548,120.689,PH
kukn1238,Kokni,kex,24,84,safe,Eurasia,20.5657,73.5713,IN
klao1243,Klao,klu,4,41,unknown,Africa,6.87233,-10.9214,LR
huba1236,Kilba,hbb,2,108,safe,Africa,10.3544,13.139,NG
kulu1253,Kulung,kle,18,88,unknown,Eurasia,27.1606,87.5717,NP
kala1372,Kalasha,kls,24,84,unknown,Eurasia,35.6415,71.6657,PK
ledo1238,Kaili,lew,12,123,unknown,Papunesia,-1.03033,120.132,ID
kuoo1238,Koh (Lakka),xuo,4,224,safe,Africa,7.97771,15.4843,TD CM
kalu1248,Kaluli,bco,119,239,unknown,Papunesia,-6.45932,142.788,PG
klam1254,Klamath,kla,97,333,extinct,North America,42.5861,-121.704,US
wers1238,Kolana,kvw,10,334,unknown,Papunesia,-8.33936,124.932,ID
kala1400,Kalapuya,kyl,164,335,extinct,North America,44.9861,-123.925,US
kala1397,Kalam,kmh,25,57,safe,Papunesia,-5.25216,144.585,PG
shah1254,Koluri,shm,24,138,definitely endangered,Eurasia,36.7581,50.2074,IR
kali1308,Kalispel,fla,60,202,unknown,North America,47.5825,-114.19,US
kela1258,Kelabit,kzi,12,118,unknown,Papunesia,3.31783,115.428,MY
kili1267,Kilivila,kij,12,25,unknown,Papunesia,-8.72574,151.072,PG
kili1268,Kiliwa,klb,17,179,critically endangered,North America,30.5471,-115.123,MX
kala1377,Kala Lagaw Ya,mwp,8,35,definitely endangered,Papunesia,-10.6748,142.196,AU
kala1384,Kalanga,kck,4,31,unknown,Africa,-21.2887,27.401,ZW BW
kama1373,Kamaiurá,kay,14,16,vulnerable,South America,-12.2661,-53.4651,BR
ndei1235,Kombai,tyn,25,38,unknown,Papunesia,-5.58333333333,140.0,ID
gama1251,Kham,kgj,18,88,unknown,Eurasia,28.411,82.6749,NP
kami1256,Kami,kcu,4,31,severely endangered,Africa,-6.71075,37.98,TZ
kara1483,Karimojong,kdj,16,18,unknown,Africa,2.45157,34.2761,UG
kuma1280,Kuman,kue,25,217,unknown,Papunesia,-5.90586,144.977,PG
moun1252,Koiali (Mountain),kpx,25,100,safe,Papunesia,-9.06973,147.384,PG
kuni1267,Kunimaipa,kup,25,336,unknown,Papunesia,-8.09371,146.908,PG
kamo1255,Kamoro,kgq,25,82,unknown,Papunesia,-4.30433,135.883,ID
kama1351,Kamass,xas,122,245,unknown,Eurasia,55.07,94.83,RU
kemt1242,Kemtuik,kmt,165,337,safe,Papunesia,-2.64894,140.372,ID
khmu1256,Khmu',kjg,67,338,unknown,Eurasia,20.2463,101.671,LA
kamu1258,Kamu,xmu,166,339,extinct,Australia,-13.5393,131.098,AU
kama1367,Kamasau,kms,1,340,unknown,Papunesia,-3.8503,143.842,PG
kari1311,Karitiâna,ktn,14,341,vulnerable,South America,-9.37937,-64.1522,BR
badi1247,Kanum (Bädi),khd,167,342,safe,Papunesia,-8.85301,140.753,ID
kuku1280,Kugu Nganhcara,uwa,8,35,safe,Australia,-14.0756,141.724,AU
nucl1305,Kannada,kan,61,115,unknown,Eurasia,13.5878,76.1198,IN
kain1272,Kaingang,kgp,48,75,unknown,South America,-27.7671,-52.5394,BR
konn1242,Konni,kma,4,143,vulnerable,Africa,10.2368,-1.54376,GH
dera1248,Kanakuru,kna,2,67,unknown,Africa,10.072,12.0256,NG
kuna1268,Kunama,kun,168,343,unknown,Africa,14.5879,37.5292,ER ET
kinn1249,Kinnauri,kfk,18,56,definitely endangered,Eurasia,31.3688,78.3148,IN
kano1245,Kanoê,,169,344,critically endangered,South America,-12.1789,-64.5812,BR
ngka1235,Kanum (Ngkâlmpw),kcd,167,342,safe,Papunesia,-8.87044,140.818,ID
krio1252,Kriol (Ngukurr),rop,21,34,safe,Australia,-18.135,137.669,AU
cent2050,Kanuri,knc,157,321,unknown,Africa,11.8863,16.3918,NE TD NG SD
rapo1238,Konua,kyx,170,345,safe,Papunesia,-5.78724,154.834,PG
nort2951,Konkow,mjd,97,346,critically endangered,North America,39.6721,-121.368,US
koas1236,Koasati,cku,7,8,definitely endangered,North America,30.4096,-92.709,US
kobo1249,Kobon,kpw,25,57,safe,Papunesia,-5.16446,144.46,PG
koda1255,Kodava,kfa,61,115,definitely endangered,Eurasia,12.2443,75.9161,IN
kweg1241,Koegu,xwg,16,140,unknown,Africa,5.40416,36.1702,ET
kohu1244,Kohumono,bcs,4,29,safe,Africa,5.92596,7.96202,NG
gras1249,Koiari,kbk,25,100,unknown,Papunesia,-9.51218,147.437,PG
kokb1239,Kokborok,trp,18,153,unknown,Eurasia,23.1916,91.4673,IN
kola1242,Kolami,nit,61,263,unknown,Eurasia,20.0,78.5,IN
komo1258,Komo,xom,171,347,unknown,Africa,8.94162,34.0939,SD ET
kola1285,Kola,kvv,12,49,safe,Papunesia,-5.48833,134.592,ID
komi1269,Komi-Permyak,koi,122,348,unknown,Eurasia,59.6602,54.7959,RU
kore1280,Korean,kor,172,349,unknown,Eurasia,37.5,128.0,KP KR
kosr1238,Kosraean,kos,12,25,unknown,Papunesia,5.31,162.98,FM
kota1263,Kota,kfe,61,115,critically endangered,Eurasia,11.4978,76.9387,IN
komc1235,Kom,bkm,4,31,safe,Africa,6.2596,10.3348,CM
winy1241,Ko (Winye),kst,4,143,safe,Africa,11.8239,-2.97518,BF
koya1251,Koya,kff,61,273,unknown,Eurasia,17.6772,81.2096,IN
kpan1246,Kpan,kpk,4,135,unknown,Africa,7.58343,10.1642,NG
libe1247,Kpelle,xpe,59,107,safe,Africa,6.92048,-9.96128,LR
pamp1243,Kapampangan,pam,12,350,safe,Papunesia,14.9603,120.502,PH
kapi1249,Kapingamarangi,kpg,12,25,severely endangered,Papunesia,1.039166,154.797223,FM
ikpo1238,Kposo,kpo,4,5,unknown,Africa,7.44776,0.83312,TG
east2341,Karen (Pwo),kjp,18,322,unknown,Eurasia,13.0,99.1666666667,MM CN
kren1239,Krenak,kqq,48,351,critically endangered,South America,-18.9988,-41.2299,BR
kara1486,Kara (in Papua New Guinea),leu,12,25,unknown,Papunesia,-2.81957,151.111,PG
gilb1244,Kiribati,gil,12,25,unknown,Papunesia,-1.34,176.44,KI
kara1465,Karachay-Balkar,krc,51,83,unknown,Eurasia,43.565,42.2606,RU
gbay1288,Kresh,krs,30,42,unknown,Africa,8.43391,25.5173,SD
kora1294,Korafe,kpr,25,132,safe,Papunesia,-9.07,149.267,PG
shon1251,Karanga,sna,4,31,unknown,Africa,-17.20849,29.75725,ZW
krah1246,Krahô,xra,48,75,vulnerable,South America,-8.01172,-47.5774,BR
kari1255,Kipea,kzw,173,352,unknown,South America,-9.84999,-36.3333,BR
kara1476,Karadjeri,gbd,8,116,unknown,Australia,-18.6771,122.334,AU
karo1304,Karok,kyh,174,353,severely endangered,North America,41.8228,-123.315,US
kare1335,Karelian,krl,122,249,unknown,Eurasia,65.1691,30.8655,RU
kara1464,Karaim,kdr,51,83,unknown,Eurasia,54.5534,25.1054,LT UA
kora1292,Korana,kqz,46,70,extinct,Africa,-30.4207,19.7711,ZA
kron1241,Krongo,kgo,153,314,definitely endangered,Africa,10.514,30.003,SD
kere1280,Kerek,krk,36,51,unknown,Eurasia,62.1777,175.07,RU
kair1263,Kairiru,kxa,12,25,safe,Papunesia,-3.34608,143.558,PG
kara1474,Karata,kpt,26,74,unknown,Eurasia,42.6501,46.3151,RU
koro1312,Korowai,khe,25,38,safe,Papunesia,-5.26952,140.047,ID
kory1246,Koryak,kpy,36,51,unknown,Eurasia,63.8977,166.695,RU
kryt1240,Kryz,kry,26,32,unknown,Eurasia,41.1811,48.1846,AZ
east1472,Keresan (Santa Ana),kee,19,21,unknown,North America,35.5216,-106.453,US
koyr1242,Koyraboro Senni,ses,158,323,safe,Africa,16.9634,-0.55187,ML NE
sgaw1245,Karen (Sgaw),ksw,18,322,unknown,Eurasia,17.9872,97.7126,MM
kash1280,Kashaya,kju,17,354,critically endangered,North America,38.5424,-123.08,US
puoc1238,Ksingmul,puo,67,338,safe,Eurasia,20.8862,103.931,VN LA
keny1241,Kenyan Sign Language,xki,21,23,safe,Africa,-1.00166,37.1995,KE
kase1253,Kasem,xsm,4,143,unknown,Africa,11.0824,-1.39076,BF
suoy1242,Kasong,,67,355,critically endangered,Eurasia,11.936,104.136,TH
kimm1246,Kosop,kia,4,224,unknown,Africa,9.79442,15.8936,TD
kisa1266,Kisar,kje,12,49,safe,Papunesia,-8.05122,127.18,ID
sout2778,Kisi (Southern),kss,4,127,unknown,Africa,8.32448,-10.3377,LR GN
kash1274,Kashubian,csb,24,141,unknown,Eurasia,54.2996,18.6163,PL
koit1244,Koita,kqi,25,100,unknown,Papunesia,-9.36877,147.079,PG
kitu1246,Kituba,ktu,21,34,unknown,Africa,-2.29601,17.1548,CD
kete1252,Kete,kcv,4,31,safe,Africa,-7.15104,22.9027,CD
gwic1235,Kutchin,gwi,27,37,severely endangered,North America,67.4307,-142.963,US CA
afad1236,Kotoko,aal,2,108,safe,Africa,11.3333333333,15.3333333333,CF
katl1237,Katla,kcr,150,356,unknown,Africa,11.80325,29.28254,SD
kete1254,Ketengban,xte,25,240,unknown,Papunesia,-4.50417,140.443,ID
kato1244,Kato,ktw,27,37,extinct,North America,39.7002,-123.432,US
mala1479,Ketapang,zlm,12,14,safe,Eurasia,1.85856,103.0,ID
kott1239,Kott,,159,325,extinct,Eurasia,55.0,94.0,RU
nucl1297,Katu,ktv,67,164,unknown,Eurasia,15.8333333333,107.583333333,VN LA
khan1273,Khanty,kca,122,287,unknown,Eurasia,62.4308,66.1218,RU
kati1270,Kati (in Afghanistan),bsh,24,357,unknown,Eurasia,35.4145,70.9826,AF PK
mand1415,Kunming,cmn,18,191,unknown,Eurasia,40.0209,116.228,CN
kuii1252,Kui (in India),kxu,61,273,unknown,Eurasia,19.2043,83.5859,IN
kuma1273,Kumauni,kfy,24,84,unknown,Eurasia,29.5622,80.0171,IN
bord1248,Kuna,kvn,65,358,severely endangered,South America,7.92993,-77.1664,CO PA
kuot1243,Kuot,kto,175,359,vulnerable,Papunesia,-3.06952,151.537,PG
kumy1244,Kumyk,kum,51,83,unknown,Eurasia,43.0,47.0,RU
kuru1302,Kurukh,kru,61,160,unknown,Eurasia,24.4644,86.4657,IN
kusu1250,Kusunda,kgg,176,360,safe,Eurasia,29.1766,80.6309,NP
kute1249,Kutenai,kut,177,361,severely endangered,North America,48.7892,-115.065,CA US
kuuk1238,Kuuku Ya'u,kuy,8,35,critically endangered,Australia,-12.4947,143.165,AU
kuvi1243,Kuvi,kxv,61,273,definitely endangered,Eurasia,18.8832,83.7552,IN
teng1267,Kutai,vkt,12,14,unknown,Papunesia,0.71803,117.645,ID
mati1250,Kulamanen,mbt,12,30,unknown,Papunesia,7.72124,125.16,PH
kwai1243,Kwaio,kwd,12,25,safe,Papunesia,-8.93744,160.965,SB
nucl1595,Kwerba,kwe,145,297,unknown,Papunesia,-2.2137,138.486,ID
west2635,Kanjobal (Western),knj,15,17,vulnerable,North America,15.5932,-91.8421,GT
kwak1269,Kwakw'ala,kwk,139,282,critically endangered,North America,50.9269,-127.308,CA
kwaa1269,Kwami,ksq,2,67,safe,Africa,10.4141,11.0192,NG
kwan1273,Kwangali,kwn,4,31,safe,Africa,-17.9026,19.256,NA AO
kwom1262,Kwoma,kmo,3,54,safe,Papunesia,-4.08721,142.664,PG
kwam1252,Kwamera,tnk,12,25,safe,Papunesia,-19.5954,169.442,VU
kawa1283,Kawaiisu,xaw,87,198,critically endangered,North America,36.0538,-118.679,US
nucl1593,Kwomtari,kwo,69,133,unknown,Papunesia,-3.50718,141.488,PG
sans1272,Iwoyo,kwy,4,31,safe,Africa,-5.33539,13.3587,AO
kwaz1243,Kwaza,,178,362,critically endangered,South America,-11.6667,-61.1833,BR
kxoe1243,Kxoe,xuu,46,70,unknown,Africa,-16.59051,22.599835,NA AO
kuku1273,Kuku-Yalanji,gvn,8,35,unknown,Australia,-16.0036,145.188,AU
keny1279,Kenyang,ken,4,31,unknown,Africa,5.58288,9.55918,CM
kyak1244,Kyaka,kyc,25,244,safe,Papunesia,-5.52462,144.119,PG
east2342,Kayah Li (Eastern),eky,18,322,safe,Eurasia,19.8939,98.3359,MM TH
nort2690,Krymchak,uzn,51,83,unknown,Eurasia,43.7489,59.231,UA
koyu1237,Koyukon,koy,27,37,critically endangered,North America,65.6093,-154.229,US
kany1247,Kanyok,kny,4,31,safe,Africa,-7.31878,23.613,CD
kaya1330,Kayapó,txu,48,75,unknown,South America,-7.77352,-51.6737,BR
noot1239,Kyuquot,noo,139,363,severely endangered,North America,49.6212,-126.086,CA
kark1258,Karkar-Yuri,yuj,179,364,unknown,Papunesia,-3.74954,141.098,PG
kayt1238,Kaytej,gbb,8,9,safe,Australia,-21.5844,133.602,AU
kaya1329,Kayabí,kyz,14,16,vulnerable,South America,-11.2747,-55.5479,BR
nort2735,Kam (Zhanglu),doc,117,233,safe,Eurasia,26.9944,109.204,CN
komi1268,Komi-Zyrian,kpv,122,348,definitely endangered,Eurasia,64.0527,54.946,RU
laal1242,Laal,gdm,180,365,unknown,Africa,10.0063,17.6143,TD
labu1248,Labu,lbu,12,25,safe,Papunesia,-6.75,146.903,PG
laca1243,Lacandón,lac,15,17,unknown,North America,17.02093,-91.42348,MX
lada1244,Ladakhi,lbj,18,56,unknown,Eurasia,33.468,80.6013,IN
lafo1243,Lafofa,laf,150,366,unknown,Africa,10.3357,30.7331,SD
lagw1237,Lagwan,kot,2,108,unknown,Africa,11.5592,14.9884,CM
lahu1253,Lahu,lhu,18,20,unknown,Eurasia,21.2701,100.214,CN TH MM
haka1240,Lai,cnh,18,33,unknown,Eurasia,22.8735,92.8208,MM
lakk1252,Lak,lbe,26,235,unknown,Eurasia,42.1328,47.0809,RU
xish1235,Lalo,ywt,18,20,vulnerable,Eurasia,24.8709,100.711,CN
peve1243,Lamé,lme,2,367,unknown,Africa,9.16111,14.441,CM TD
lang1324,Lango,laj,16,18,safe,Africa,2.13867,33.0553,UG
laoo1244,Lao,lao,117,233,unknown,Eurasia,16.0726,104.568,LA TH
lara1258,Laragia,lrg,181,368,safe,Australia,-12.4111,130.922,AU
latv1249,Latvian,lav,24,369,unknown,Eurasia,56.826108,24.309118,LV
lauu1247,Lau,llu,12,25,unknown,Papunesia,-8.51018,160.872,SB
lavu1241,Lavukaleve,lvk,68,370,safe,Papunesia,-9.05569,159.119,SB
lazz1240,Laz,lzz,128,264,unknown,Eurasia,41.5004,41.9096,GE TR
lund1266,Lunda,lun,4,31,unknown,Africa,-11.1793,23.8662,CD
lach1248,Lachi,lbt,117,267,unknown,Eurasia,22.8549,104.776,VN
gand1255,Luganda,lug,4,31,unknown,Africa,0.66884,32.15153,UG
ladi1250,Ladin,lld,24,85,unknown,Eurasia,46.60651,11.89498,IT
lend1245,Lendu,led,30,371,unknown,Africa,2.1898,30.6794,CD
ngel1238,Lebeo,agh,4,31,unknown,Africa,1.81314,24.8754,CD
leco1242,Leko,lec,182,372,critically endangered,South America,-15.0092,-67.8818,BO
lega1249,Lega,lea,4,31,unknown,Africa,-3.83196,27.1424,CD
lele1276,Lele,lln,2,130,safe,Africa,9.158,15.81149,TD
lena1238,Lenakel,tnl,12,25,unknown,Papunesia,-19.4763,169.261,VU
lepc1244,Lepcha,lep,18,373,unknown,Eurasia,27.0869,88.5726,IN NP BT
lese1243,Lese,les,30,374,unknown,Africa,1.3,29.3,CD
leti1246,Leti,lti,12,49,safe,Papunesia,-8.19808,127.674,ID
lewo1242,Lewo,lww,12,25,unknown,Papunesia,-16.7612,168.334,VU
lezg1247,Lezgian,lez,26,32,unknown,Eurasia,41.5157,47.8951,RU AZ
onto1237,Luangiua,ojv,12,25,unknown,Papunesia,-5.49029,159.701,SB
nort2627,Low German,nds,24,27,unknown,Eurasia,50.771,6.092,DE
lang1320,Langi,lag,4,31,unknown,Africa,-4.71413,35.9517,TZ
port1277,Língua Gestual Portuguesa,psr,21,23,unknown,Eurasia,38.5474,-8.53355,PT
logo1259,Logoti,log,30,93,unknown,Africa,3.32608,29.8866,CD
long1395,Longgu,lgu,12,25,safe,Papunesia,-9.75258,160.663,SB
laha1250,Laha,lha,117,267,definitely endangered,Eurasia,21.55149,103.86379,VN
lhom1239,Lhomi,lhm,18,56,vulnerable,Eurasia,27.5948,87.7161,NP
hlai1239,Hlai (Baoding),lic,117,375,unknown,Eurasia,18.8062,109.459,CN
ital1275,Lingua Italiana dei Segni,ise,21,23,safe,Eurasia,42.72915,12.42949,IT
lill1248,Lillooet,lil,60,202,severely endangered,North America,50.7272,-122.04,CA
limb1266,Limbu,lif,18,88,unknown,Eurasia,27.2703,87.8859,BT NP IN
ling1263,Lingala,lin,4,31,safe,Africa,1.40324,19.7829,CD
lisu1250,Lisu,lis,18,20,unknown,Eurasia,22.5488,94.0184,CN MM
lith1251,Lithuanian,lit,24,369,unknown,Eurasia,55.1429,23.9601,LT
livv1244,Liv,liv,122,249,unknown,Eurasia,57.566,22.0262,LV
lauj1238,Lauje,law,12,123,vulnerable,Papunesia,0.50708,120.262,ID
lakk1238,Lakkia,lbc,117,267,definitely endangered,Eurasia,24.1169,110.106,CN
lako1247,Lakhota,lkt,70,142,critically endangered,North America,46.3699,-103.95,US
lamu1254,Lamu-Lamu,lby,8,35,safe,Australia,-14.559,143.977,AU
lele1264,Lelemi,lef,4,5,safe,Africa,7.34549,0.50746,GH
loma1260,Loma,lom,59,107,unknown,Africa,7.91585,-9.69906,LR GN
lamb1271,Lamba,lam,4,31,unknown,Africa,-12.3366,27.9026,CD ZM
lama1288,Lamang,hia,2,108,unknown,Africa,11.0243,13.7362,NG
lama1277,Lamaholot,slp,12,49,unknown,Papunesia,-8.36439,122.803,ID
nucl1327,Limilngan,lmc,181,376,extinct,Australia,-12.4294,131.845,AU
lamb1269,Lamani,lmn,24,84,unknown,Eurasia,16.5734,76.9717,IN
lamp1243,Lampung,ljp,12,316,safe,Papunesia,-5.73463,105.037,ID
lame1260,Lamen,lmu,12,25,safe,Papunesia,-16.6098,168.171,VU
band1344,Linda,liy,4,106,unknown,Africa,6.21563,20.9827,CF
leng1262,Lengua,leg,131,270,unknown,South America,-22.6559,-58.9053,PY
ladi1251,Ladino,lad,24,85,unknown,Eurasia,41.205,28.6632,IL TR
lamn1239,Lamnso',lns,4,31,safe,Africa,6.39743,11.0684,CM
lonw1238,Lonwolwol,crc,12,25,safe,Papunesia,-16.2286,168.016,VU
lobi1245,Lobi,lob,4,143,safe,Africa,9.96122,-3.336,BF CI
loko1255,Loko,lok,59,107,unknown,Africa,9.11838,-12.1583,SL
loni1238,Loniu,los,12,25,safe,Papunesia,-2.06124,147.35,PG
loth1237,Lotha,njh,18,33,unknown,Eurasia,26.01396,94.04355,IN
louu1245,Lou,loj,12,25,safe,Papunesia,-2.38659,147.346,PG
lave1248,Loven,lbo,67,155,safe,Eurasia,15.2726,106.322,LA
lozi1239,Lozi,loz,4,31,safe,Africa,-17.7052,24.7398,ZM
lard1243,Lardil,lbz,156,319,critically endangered,Australia,-16.56152,139.4343,AU
lari1255,Larike,alo,12,49,unknown,Papunesia,-3.76522,127.956,ID
arge1236,Lengua de Señas Argentina,aed,21,23,safe,South America,-34.797,-59.1798,AR
braz1236,Língua de Sinais Brasileira,bzs,21,23,safe,South America,-15.5,-48.0,BR
span1263,Lengua de Señas Española,ssp,21,23,safe,Eurasia,40.0314,-3.70738,ES
fren1243,Langue des Signes Française,fsl,21,23,safe,Eurasia,47.0,3.0,FR
queb1245,Langue des Signes Québecoise,fcs,21,23,safe,North America,45.99654,-74.87193,CA
luuu1242,Lü,khb,117,233,safe,Eurasia,21.0321,101.282,LA MM CN
niel1243,Lua,nie,4,224,unknown,Africa,9.70362,17.81346,TD
luch1239,Lucazi,lch,4,31,safe,Africa,-14.0648,22.2437,AO
lund1271,Lun Dayeh,lnd,12,118,unknown,Papunesia,4.25064,115.5,ID
lugb1240,Lugbara,lgg,30,93,unknown,Africa,3.02245,30.8642,CD UG
luis1253,Luiseño,lui,87,171,unknown,North America,33.3184,-116.939,US
lule1238,Lule,,183,377,extinct,South America,-25.221839,-61.887818,AR
stra1244,Lummi,str,60,194,unknown,North America,48.51614,-123.757114,US
luok1236,Luo,luo,16,18,safe,Africa,-0.93296,34.4896,TZ KE
nort2645,Luri,lrc,24,138,unknown,Eurasia,32.5438,47.916,IR
lush1252,Lushootseed,lut,60,194,unknown,North America,48.42,-122.529,US
luva1239,Luvale,lue,4,31,safe,Africa,-13.5382,22.2924,AO
luxe1241,Luxemburgeois,ltz,24,27,vulnerable,Eurasia,49.6839,6.14931,LU
saam1283,Luyia,luy,4,31,safe,Africa,0.3652,34.0335,KE
lyel1241,Lyele,lee,4,143,unknown,Africa,12.4305,-2.59229,BF
made1252,Ma,msj,4,106,safe,Africa,3.69351,26.9939,CD
masa1300,Maasai,mas,16,18,unknown,Africa,-3.1419,36.4573,KE TZ
maba1277,Maba,mde,184,378,unknown,Africa,12.89147,20.8889,TD
macu1259,Macushi,mbc,33,45,vulnerable,South America,4.31861,-60.2209,GY BR VR
madi1260,Ma'di,mhi,30,93,unknown,Africa,3.62499,31.8471,SD UG
maee1241,Mae,mme,12,25,safe,Papunesia,-15.9914,167.288,VU
east2352,Magar,mgp,18,88,definitely endangered,Eurasia,27.4135166667,87.06171,NP
west2392,Mari (Hill),mrj,122,379,unknown,Eurasia,57.08,58.83,RU
mait1250,Maithili,mai,24,84,unknown,Eurasia,26.3817,86.2211,NP IN
maja1242,Majang,mpe,16,140,safe,Africa,7.6843,35.0228,ET
maka1318,Makah,myh,139,363,extinct,North America,48.3258,-124.616,US
plat1254,Malagasy,plt,12,128,unknown,Africa,-19.5907,47.1211,MG
mamc1234,Mam,mvc,15,17,unknown,North America,15.0,-91.8333333333,GT
mann1248,Mano,mev,59,136,safe,Africa,7.04616,-8.86405,LR GN
maor1246,Maori,mri,12,25,unknown,Papunesia,-38.2881,176.541,NZ
mapu1245,Mapudungun,arn,185,380,unknown,South America,-38.7392,-71.277,CL
mari1440,Maricopa,mrc,17,179,severely endangered,North America,33.5123,-111.749,US
masa1322,Masa,mcn,2,367,unknown,Africa,10.0606,15.4748,TD CM
maun1240,Maung,mph,147,301,vulnerable,Australia,-11.8393,133.185,AU
mari1435,Maring,mbw,25,217,unknown,Papunesia,-5.44015,144.642,PG
west2500,Maninka (Western),mlq,59,107,unknown,Africa,13.5677,-12.8009,ML
maxa1247,Maxakalí,mbl,48,381,vulnerable,South America,-16.9402,-40.7891,BR
maib1239,Maybrat,ayz,9,11,unknown,Papunesia,-1.3679,132.591,ID
maza1293,Mazahua,maz,42,382,unknown,North America,19.4166666667,-99.9166666667,MX
mbaa1245,Mba,mfc,4,106,safe,Africa,1.06885,25.143,CD
mbab1239,Mbabaram,,8,35,extinct,Australia,-20.1389,143.438,AU
mber1257,Mbere,mdt,4,31,safe,Africa,-0.477445,14.2877,GA CG
mbug1240,Mbugu,mhd,2,36,unknown,Africa,-4.72863,38.3519,TZ
bamb1266,Mbili,baw,4,31,unknown,Africa,6.10821,10.2233,CM
mbol1247,Mbole,mdq,4,31,unknown,Africa,-0.57181,24.0443,CD
mbum1254,Mbum,mdd,4,224,unknown,Africa,7.5789,14.2722,TD CF CM
nucl1458,Monumbo,mxk,186,383,safe,Papunesia,-4.2717,144.95,PG
mbar1260,Mbara,mpk,2,108,severely endangered,Africa,10.9585,15.5363,TD
mang1394,Mangbetu,mdj,30,384,unknown,Africa,2.5511,27.0712,CD
mana1298,Manambu,mle,3,54,safe,Papunesia,-4.19082,142.862,PG
mbay1241,Mbay,myb,30,102,unknown,Africa,8.23066,15.7328,TD
mbee1250,Mbe',mtk,4,31,safe,Africa,6.25838,11.0906,CM
maca1260,Maca,mca,95,189,definitely endangered,South America,-25.0119,-57.3694,PY
moch1259,Mochica,,187,385,extinct,South America,-8.01667,-79.0,PE
mace1250,Macedonian,mkd,24,141,unknown,Eurasia,41.5957,21.7932,MK
beli1260,Mískito Coast English Creole,bzj,21,34,safe,North America,17.3941,-88.6281,BZ
mich1243,Michif,crg,11,13,critically endangered,North America,49.1681,-99.9119,CA
maca1259,Macaguán,mbn,108,215,definitely endangered,South America,6.34582,-71.2671,CO
mach1267,Machiguenga,mcb,13,175,definitely endangered,South America,-12.1291,-72.5017,PE
macu1260,Macuna,myy,74,149,vulnerable,South America,-0.14459,-70.0749,CO BR
coat1238,Mixe (Coatlán),mco,188,386,unknown,North America,16.9404,-95.4659,MX
mori1278,Mauritian Creole,mfe,21,34,safe,Africa,-20.2613,57.5517,MU
cent2140,Miwok (Central Sierra),csm,97,387,unknown,North America,38.0812,-120.257,US
moco1246,Mocoví,moc,5,6,definitely endangered,South America,-28.097,-60.4145,AR
mada1293,Mada (in Cameroon),mxu,2,108,safe,Africa,10.8806,14.1142,CM
mudb1240,Mudburra,mwd,8,116,severely endangered,Australia,-16.7694,132.329,AU
mend1266,Mende,men,59,107,unknown,Africa,7.90935,-10.9926,SL
mund1325,Mundang,mua,4,224,unknown,Africa,9.83195,14.4751,TD
mand1436,Mandinka,mnk,59,107,safe,Africa,12.8165233333,-15.6539466667,ML SN GN
madn1237,Matngele,zml,166,339,critically endangered,Australia,-13.9479,130.6,AU
west2443,Madimadi,,8,112,unknown,Australia,-34.13829932,143.6694397,AU
mand1446,Mandan,mhq,70,142,critically endangered,North America,47.6631,-102.376,US
gbay1281,Mbodomo,gmm,4,261,safe,Africa,4.800365,14.606865,CF
nucl1460,Madurese,mad,12,14,unknown,Papunesia,-7.0,113.0,ID
mala1481,Manadonese,xmm,12,14,safe,Papunesia,1.48099,124.843,ID
mund1326,Mündü,muh,4,106,safe,Africa,4.22755,29.9967,SD CD
mbos1242,Mbosi,mdw,4,31,safe,Africa,-1.23019,15.5322,CG
mada1282,Mada (in Nigeria),mda,4,135,safe,Africa,9.02294,8.34119,NG
meya1236,Meyah,mej,189,388,safe,Papunesia,-1.18016,133.618,ID
beta1252,Melayu Betawi,bew,21,34,safe,Papunesia,-6.21174,107.022,ID
meen1242,Me'en,mym,16,140,unknown,Africa,6.63207,35.6255,ET
mehr1241,Mehri,gdq,2,4,unknown,Eurasia,21.4268,51.1512,YE OM
mani1292,Meithei,mni,18,33,unknown,Eurasia,24.4409,93.3426,IN
saki1248,Mekens,skf,14,389,severely endangered,South America,-13.054,-62.0927,BR
cent2101,Melanau,mel,12,118,unknown,Papunesia,2.524086,111.346451,MY
mane1266,Manem,jet,41,61,safe,Papunesia,-2.99145,141.02,ID PG
meno1252,Menomini,mez,11,13,critically endangered,North America,44.9794,-88.6395,US
meri1244,Meryam Mir,ulk,190,390,unknown,Papunesia,-9.59575,143.773,AU
meny1245,Menya,mcr,25,73,safe,Papunesia,-7.17425,146.071,PG
ndun1249,Mondunga,ndt,4,106,safe,Africa,2.3886,21.5755,CD
mong1342,Mongondow,mog,12,30,unknown,Papunesia,0.64616,124.114,ID
east2333,Mnong (Eastern),mng,67,155,unknown,Eurasia,12.3939,108.354,VN
tuuu1240,Mangghuer,mjg,51,109,unknown,Eurasia,36.8177,102.117,CN
maga1260,Magahi,mag,24,84,unknown,Eurasia,25.0915,85.3335,IN
mail1248,Magi,mgu,25,391,unknown,Papunesia,-10.3657,149.521,PG
mung1266,Mungaka,mhk,4,31,unknown,Africa,5.89752,10.0294,CM
ming1252,Mingrelian,xmf,128,264,definitely endangered,Eurasia,42.5129,41.8719,GE
magu1243,Magindanao,mdh,12,30,unknown,Papunesia,6.9453,124.509,PH
mong1338,Mongo,lol,4,31,unknown,Africa,-1.54228,20.4259,CD
mang1398,Mango,mge,30,102,safe,Africa,8.75884,16.9082,TD
musg1254,Musgu,mug,2,108,unknown,Africa,10.8439,15.1065,TD CM
mohe1244,Mahican,mof,11,13,unknown,North America,41.8581,-72.1701,US
mara1378,Marathi,mar,24,84,unknown,Eurasia,17.9344,76.6665,IN
mehe1243,Mehek,nux,3,392,safe,Papunesia,-3.70927,142.498,PG
misi1242,Miri (Hill):,mrg,18,76,unknown,Eurasia,27.418,94.69,IN
besi1244,Mah Meri,mhe,67,302,unknown,Eurasia,2.717,101.676,MY
mbal1255,Mbalanhu,lnb,4,31,safe,Africa,-19.593,16.617,
mikm1235,Micmac,mic,11,13,unknown,North America,45.9941,-65.5766,CA
mido1240,Midob,mei,16,393,unknown,Africa,14.789,27.2236,SD
iumi1238,Mien,ium,140,283,unknown,Eurasia,20.83,101.17,CN
miga1249,Migama,mmy,2,130,unknown,Africa,12.2367,18.9614,TD
tama1331,Miisiirii,tma,16,394,unknown,Africa,14.332,21.9951,TD SD
miju1243,Miju,mxj,18,76,vulnerable,Eurasia,28.4732,97.0444,IN
karb1241,Mikir,mjw,18,33,unknown,Eurasia,25.7317,93.0462,IN
mina1268,Minangkabau,min,12,14,unknown,Papunesia,4.17,96.25,ID
miri1266,Miriwung,mep,160,329,critically endangered,Australia,-16.3596,128.889,AU
misk1235,Miskito,miq,191,395,unknown,North America,15.1576,-84.2942,NI
mitu1240,Mituku,zmq,4,31,safe,Africa,-1.57031,25.104,CD
miya1266,Miya,mkf,2,67,unknown,Africa,10.9234,9.71505,NG
lush1249,Mizo,lus,18,33,unknown,Eurasia,22.6138,92.6247,IN BD
jami1235,Mixtec (Jamiltepec),mxt,42,211,safe,North America,16.2279,-97.8417,MX
sanj1281,Mixtec (San Juan Colorado),mjc,42,211,safe,North America,16.3964,-97.9279,MX
mand1419,Manjaku,mfv,4,122,unknown,Africa,12.829,-15.9217,GW
maho1249,Mauka,mxx,59,107,unknown,Africa,8.3548,-7.57109,CI
coas1301,Miwok (Bodega),csi,97,387,unknown,North America,38.3285,-122.994,US
mako1251,Makonde,kde,4,31,unknown,Africa,-10.9906,39.5133,MZ TZ
meke1243,Mekeo,mek,12,25,unknown,Papunesia,-8.23853,146.586,PG
mika1239,Mikasuki,mik,7,8,unknown,North America,26.08142,-80.90847,US
maka1316,Makasae,mkz,10,396,unknown,Papunesia,-8.65843,126.507,TL
makl1246,Maklew,mgf,192,397,safe,Papunesia,-7.74424,139.273,ID
mank1251,Mankanya,knf,4,122,unknown,Africa,12.2615066667,-15.74389,GW
muku1242,Mokilko,moz,2,130,unknown,Africa,11.8644,18.1822,TD
ngem1255,Mankon,nge,4,31,unknown,Africa,5.97864,10.1469,CM
arua1260,Mikarew,msy,92,328,safe,Papunesia,-4.28957,144.842,PG
maka1311,Makassar,mak,12,87,unknown,Papunesia,-5.65551,119.838,ID
mara1386,Maranungku,zmr,121,243,safe,Australia,-13.6754,130.12,AU
maku1246,Máku,,193,398,extinct,South America,1.35,-66.4333333333,BR
maka1304,Makaa,mcp,4,31,unknown,Africa,4.15471,13.0789,CM
nige1255,Mambila,mcu,4,31,safe,Africa,6.69736,11.3161,CM NG
mala1533,Malacca Creole,mcm,21,34,severely endangered,Eurasia,2.188087,102.262059,MY
male1284,Maale,mdy,2,259,safe,Africa,5.91975,36.9892,ET
wand1278,Malgwa,mfi,2,108,unknown,Africa,11.3169,13.8996,NG
mali1284,Mali,gcc,73,147,safe,Papunesia,-4.71826,152.214,PG
mull1237,Malakmalak,mpb,194,399,critically endangered,Australia,-13.2973,130.615,AU
mola1238,Molala,mbe,97,400,extinct,North America,44.556,-122.857,US
mlab1235,Mlabri (Minor),mra,67,338,definitely endangered,Eurasia,18.5533,101.163,TH
malt1254,Maltese,mlt,2,4,unknown,Eurasia,35.8884,14.4508,MT
male1289,Maleu,mgl,12,25,unknown,Papunesia,-5.61613,148.445,PG
stan1306,Malay,zsm,12,14,safe,Eurasia,3.08896,101.699,MY
nucl1706,Mandaic (Modern),mid,2,4,unknown,Eurasia,31.3443,48.8128,IR IQ
mbul1263,Mangap-Mbula,mna,12,25,unknown,Papunesia,-5.66965,148.041,PG
east2328,Mari (Meadow),mhr,122,379,definitely endangered,Eurasia,55.8307,48.405,RU
mamb1294,Mambai,mcs,4,224,severely endangered,Africa,9.6121,14.0013,TD
mama1275,Mamanwa,mmn,12,30,safe,Papunesia,9.44744,125.548,PH
moks1248,Mordvin (Moksha),mdf,122,401,definitely endangered,Eurasia,54.1855,42.6728,RU
mamp1244,Mampruli,maw,4,143,unknown,Africa,10.3884,-0.74675,GH TG
mama1276,Mamasa,mqj,12,87,unknown,Papunesia,-3.0811,119.484,ID
nege1240,Malay (Ulu Muar),zmi,12,14,safe,Eurasia,2.66503,102.291,MY
mamv1243,Mamvu,mdi,30,374,unknown,Africa,2.68167,28.9862,CD
mamb1296,Mambwe,mgr,4,31,unknown,Africa,-8.86817,31.2269,TZ ZM
mams1234,Mam (Southern),mms,15,17,unknown,North America,14.8333333333,-91.6666666667,GT
muna1247,Muna,mnb,12,123,unknown,Papunesia,-5.40419,122.541,ID
manc1252,Manchu,mnc,51,251,unknown,Eurasia,47.3122,126.557,CN
nort2952,Maidu (Northeast),nmu,97,346,critically endangered,North America,40.4102,-120.645,US
mang1405,Manggarai,mqy,12,49,unknown,Papunesia,-8.55748,120.329,ID
moni1261,Moni,mnz,25,241,safe,Papunesia,-3.72962,136.886,ID
mart1256,Mantjiltjara,mpj,8,116,unknown,Australia,-24.3194,121.954,AU
east2426,Maninka,emk,59,107,unknown,Africa,9.33048,-10.5394,GN SL
mana1295,Manam,mva,12,25,safe,Papunesia,-4.07921,145.033,PG
mono1275,Mono (in United States),mnr,87,198,critically endangered,North America,37.1935,-119.347,US
mand1442,Mandar,mdr,12,87,unknown,Papunesia,-3.34717,119.068,ID
mans1258,Mansi,mns,122,287,unknown,Eurasia,64.4118,61.344,RU
ment1249,Mentawai,mwv,12,53,unknown,Papunesia,-1.41092,98.9401,ID
kimm1245,Mun,mji,140,283,unknown,Eurasia,22.9856,105.024,CN
mina1269,Minaveha,mvn,12,25,safe,Papunesia,-9.59922,150.501,PG
manx1243,Manx,glv,24,159,extinct,Eurasia,54.2604,-4.45437,GB
marg1253,Margany,zmc,8,35,extinct,Australia,-26.789,144.892,AU
monz1249,Munzombo,moj,4,106,safe,Africa,3.19008,18.5129,CG
mono1273,Mono-Alu,mte,12,25,unknown,Papunesia,-7.05102,155.76,SB
shek1244,Moca,moy,2,259,safe,Africa,7.27424,35.3922,ET
erzy1239,Mordvin (Erzya),myv,122,401,definitely endangered,Eurasia,52.8548,45.3901,KZ RU
mofu1248,Mofu-Gudur,mif,2,108,unknown,Africa,10.567,14.0314,CM
mogh1245,Moghol,mhj,51,109,unknown,Eurasia,34.2504,62.2802,AF
moha1258,Mohawk,moh,93,218,definitely endangered,North America,43.72,-74.66836,CA US
moha1256,Mojave,mov,17,179,severely endangered,North America,34.8866,-114.599,US
moki1238,Mokilese,mkj,12,25,critically endangered,Papunesia,6.65651,159.776,FM
roma1327,Moldavian,ron,24,85,unknown,Eurasia,46.3913,24.2256,MD
nucl1452,Mombum,mso,195,402,safe,Papunesia,-8.27141,138.773,ID
monn1252,Mon,mnw,67,403,unknown,Eurasia,15.49394,98.122465,TH MM
moss1236,Mooré,mos,4,143,unknown,Africa,10.4524,-1.17278,BF
mopa1243,Mopan,mop,15,17,severely endangered,North America,16.3533,-89.0673,BZ
morm1235,Mor,mhz,12,63,safe,Papunesia,-2.87055,135.95,ID
mose1249,Mosetén,cas,196,404,vulnerable,South America,-14.64448,-67.83756,BO
siwa1245,Motuna,siw,83,167,safe,Papunesia,-6.6429,155.452,PG
moru1253,Moru,mgd,30,93,unknown,Africa,5.1232,30.3287,SD
movi1243,Movima,mzp,197,405,severely endangered,South America,-13.8115,-65.6348,BO
murr1258,Murrinh-Patha,mwf,198,406,unknown,Australia,-14.74852,129.70152,AU
myen1241,Mpongwe,mye,4,31,unknown,Africa,-1.48741,9.50247,GA
maip1246,Maipure,,13,151,extinct,South America,4.8,-67.5,VR
mian1256,Mian,mpt,25,407,unknown,Papunesia,-4.70881,141.523,PG
mpur1239,Mpur,akc,9,408,unknown,Papunesia,-0.7489,133.166,ID
mapo1246,Mapoyo,mcg,33,45,critically endangered,South America,5.96952,-67.2581,VR
momu1241,Momuna,mqf,25,409,vulnerable,Papunesia,-5.04431,139.26,ID
mara1385,Mara,mec,37,410,safe,Australia,-14.7927,134.865,AU
rong1264,Marchha,rnp,18,56,unknown,Eurasia,30.528,79.567,IN
nucl1622,Marind,mrz,50,152,unknown,Papunesia,-8.15651,140.009,ID
marg1265,Margi,mrt,2,108,unknown,Africa,10.93854,13.0521,NG
mari1424,Marrithiyel,mfr,121,411,unknown,Australia,-13.8818,130.237,AU
moro1289,Moraori,mok,199,412,severely endangered,Papunesia,-8.5692,140.688,ID
ngad1258,Mirniny,nju,8,116,extinct,Australia,-32.02447,124.46601,AU
muri1260,Murik,mtf,92,181,vulnerable,Papunesia,-3.86959,144.166,PG
murl1244,Murle,mur,16,140,unknown,Africa,6.69756,33.988,SD
mara1404,Maranao,mrw,12,30,safe,Papunesia,7.79414,124.175,PH
moro1285,Moro,mor,150,413,unknown,Africa,10.9194,30.2138,SD
sout2866,Marquesan,mrq,12,25,unknown,Papunesia,-9.75663,-138.979,PF
mari1419,Maringarr,zmt,121,411,critically endangered,Australia,-14.3819,130.25,AU
nucl1594,Mairasi,zrs,25,414,safe,Papunesia,-3.4511,134.071,ID
mart1255,Martuthunira,vma,8,116,safe,Australia,-20.9294,116.607,AU
maru1249,Maru,mhx,18,20,unknown,Eurasia,24.942535,99.8338,MM
muru1266,Muruwari,zmu,8,112,extinct,Australia,-28.9618,146.546,AU
chib1270,Muisca,chb,65,415,extinct,South America,6.24999,-74.1666,CO
muns1251,Munsee,umu,11,13,critically endangered,North America,42.5968,-81.9166,US
mars1254,Marshallese,mah,12,25,unknown,Papunesia,8.72,167.73,MH
ngil1242,Masakin,jle,150,308,unknown,Africa,10.7194,29.997,SD
nucl1440,Masalit,mls,184,378,unknown,Africa,13.2733,22.1752,SD TD
muso1238,Musom,msu,12,25,definitely endangered,Papunesia,-6.53817,146.93,PG
mais1250,Maisin,mbq,12,25,unknown,Papunesia,-9.22853,148.731,PG
sout2985,Miwok (Southern Sierra),skd,97,387,critically endangered,North America,38.2363,-120.507,US
west2418,Magar (Syangja),mrd,18,88,definitely endangered,Eurasia,28.2462,83.511,NP
buka1257,Mentuh Tapuh,sdo,12,137,unknown,Papunesia,0.96817,110.657,MY
matu1259,Matuumbi,mgw,4,31,safe,Africa,-8.53734,39.0409,TZ
mont1268,Montagnais,moe,11,13,unknown,North America,49.0533,-68.7376,CA
tlah1239,Mixe (Tlahuitoltepec),mxp,188,386,safe,North America,16.9634,-96.1186,MX
bari1297,Barí,mot,65,416,vulnerable,South America,9.08497,-72.9353,VR CO
matu1261,Matukar,mjk,12,25,safe,Papunesia,-4.9078,145.779,PG
matt1238,Mattole,mvb,27,37,extinct,North America,40.4321,-122.863,US
kuma1274,Malto,kmj,61,160,definitely endangered,Eurasia,24.1217,87.2699,IN
toto1305,Mixe (Totontepec),mto,188,386,safe,North America,17.2157,-96.0179,MX
mati1255,Matis,mpq,38,55,vulnerable,South America,-4.3553,-70.2079,BR
wamp1249,Massachusett,wam,11,13,extinct,North America,41.705,-73.3148,US
motu1246,Motu,meu,12,25,unknown,Papunesia,-9.67492,147.424,PG
makh1264,Makua,xsq,4,31,unknown,Africa,-14.8509,38.8052,MZ
mund1327,Mundani,mnf,4,31,unknown,Africa,5.68073,9.91533,CM
barg1252,Mugil,mlp,25,57,safe,Papunesia,-4.8723,145.756,PG
muin1242,Muinane,bmr,75,154,definitely endangered,South America,-0.8652,-72.4249,CO
mula1253,Mulao,mlm,117,233,vulnerable,Eurasia,24.8151,108.928,CN
nucl1240,Mumuye,mzm,4,224,unknown,Africa,8.90347,11.71545,NG
muon1246,Muong,mtq,67,417,unknown,Eurasia,20.7374,105.186,VN
mwag1236,Mupun,sur,2,67,safe,Africa,9.47205,8.96522,NG
murs1242,Mursi,muz,16,140,vulnerable,Africa,5.69801,36.0971,ET
muss1246,Mussau,emi,12,25,unknown,Papunesia,-1.44105,149.624,PG
mund1330,Mundurukú,myu,14,418,vulnerable,South America,-8.41095,-57.691,BR
muyu1244,Muyuw,myw,12,25,unknown,Papunesia,-9.195,152.731,PG
west2555,Manobo (Western Bukidnon),mbb,12,30,unknown,Papunesia,7.6682,124.825,PH
mawc1242,Mawchi,mke,24,84,unknown,Eurasia,21.5724,73.9956,IN
mwer1248,Mwera,mwe,4,31,safe,Africa,-9.75639,38.8762,TZ
lake1258,Miwok (Lake),lmw,97,387,critically endangered,North America,39.0021,-122.621,US
nort2968,Miwok (Northern Sierra),nsq,97,387,extinct,North America,38.4179,-120.588,US
motl1237,Mwotlap,mlv,12,25,critically endangered,Papunesia,-13.6535,167.673,VU
plai1259,Miwok (Plains),pmw,97,387,extinct,North America,38.39772,-121.653344,US
atat1238,Mixtec (Atatlahuca),mib,42,211,safe,North America,17.07133,-97.67753,MX
sanm1295,Mixtec (Chalcatongo),mig,42,211,unknown,North America,17.0777,-97.5432,MX
mele1250,Ifira-Mele,mxe,12,25,unknown,Papunesia,-17.6841,168.275,VU
pino1237,Mixtec (Jicaltepec),mio,42,211,safe,North America,16.3043,-97.9966,MX
alac1244,Mixtec (Alacatlatzala),mim,42,211,unknown,North America,17.4944,-98.4674,MX
ocot1243,Mixtec (Ocotepec),mie,42,211,safe,North America,17.1823,-97.751,MX
peno1244,Mixtec (Peñoles),mil,42,211,unknown,North America,17.0671,-97.0101,MX
sila1250,Mixtec (Silacayoapan),mks,42,211,safe,North America,17.5541,-98.1163,MX
ayut1236,Mixtec (Ayutla),miy,42,211,safe,North America,16.8833,-98.9916,MX
chay1249,Mixtec (Chayuco),mih,42,211,safe,North America,16.3158,-97.8114,MX
yoso1239,Mixtec (Yosondúa),mpm,42,211,safe,North America,16.9042,-97.5018,MX
coat1241,Mixtec (Coatzospan),miz,42,211,safe,North America,18.1209,-96.6591,MX
maya1282,Ma'ya,slz,12,63,unknown,Papunesia,-1.22329,130.909,ID
mayo1261,Mayogo,mdm,4,106,unknown,Africa,2.79827,27.8282,CD
mang1381,Mangarrayi,mpc,37,419,critically endangered,Australia,-14.7982,133.803,AU
mala1464,Malayalam,mal,61,115,unknown,Eurasia,9.59208,76.7651,IN
maan1238,Ma'anyan,mhy,12,128,unknown,Papunesia,-2.1239,115.092,ID
mayo1264,Mayo,mfy,87,250,critically endangered,North America,26.4522,-108.981,MX
mats1244,Matsés,mcf,38,55,vulnerable,South America,-5.73914,-72.6281,PE BR
mayk1239,Mayi-Yapi,,8,35,unknown,Australia,-20.4352,140.481,AU
chiq1250,Mazatec (Chiquihuitlán),maq,42,177,definitely endangered,North America,18.0541,-96.6659,MX
huau1238,Mazatec (Huautla),mau,42,177,unknown,North America,18.2556,-96.724,MX
maza1291,Mazanderani,mzn,24,138,unknown,Eurasia,36.241,52.3009,IR
naba1256,Nabak,naf,25,144,safe,Papunesia,-6.42709,146.966,PG
nade1244,Nadëb,mbj,113,223,definitely endangered,South America,-1.24449,-66.3068,BR
nafa1258,Nafaanra,nfr,4,143,unknown,Africa,8.00522,-2.51001,GH CI
yale1246,Nagatman,nce,200,420,safe,Papunesia,-3.79762,141.566,PG
niha1238,Nahali,nll,201,421,critically endangered,Eurasia,21.1886,76.3318,IN
nana1257,Nanai,gld,51,251,unknown,Eurasia,48.4343,134.797,RU
lish1245,Neo-Aramaic (Arbel Jewish),aij,2,4,unknown,Eurasia,44.065281,36.213298,IL
naka1262,Nakanai,nak,12,25,unknown,Papunesia,-5.59931,150.888,PG
nali1244,Nalik,nal,12,25,safe,Papunesia,-2.94411,151.332,PG
nami1256,Namia,nnm,3,422,safe,Papunesia,-3.85538,141.788,PG
nand1266,Nandi,kln,16,18,safe,Africa,0.793737,35.408478,KE
lish1246,Neo-Aramaic (Persian Azerbaijan),trg,2,4,unknown,Eurasia,38.0,47.0,IR IL
nara1262,Nara (in Ethiopia),nrb,16,423,unknown,Africa,15.3251,37.499,ER
naas1242,Nasioi,nas,83,167,unknown,Papunesia,-6.46022,155.632,PG
natc1249,Natchez,ncz,202,424,extinct,North America,31.75,-91.33,US
naur1243,Nauruan,nau,12,25,severely endangered,Papunesia,-0.52957,166.922,NR
nava1243,Navajo,nav,27,37,vulnerable,North America,36.2106,-110.082,US
naxi1245,Naxi,nbf,18,425,unknown,Eurasia,27.4599,100.182,CN
bign1238,Nambas (Big),nmb,12,25,safe,Papunesia,-16.0903,167.239,VU
kenu1236,Nubian (Dongolese),kzh,16,393,unknown,Africa,21.2837,31.8992,SD
ghul1238,Ghulfan,ghl,16,393,safe,Africa,11.6432,29.8122,SD
natu1249,Natügu,stc,12,25,safe,Papunesia,-10.6771,165.835,SB
ngba1284,Ngbaka (Ma'bo),nbm,4,106,safe,Africa,4.0,18.12,CD
nyam1277,Nyambo,now,4,31,safe,Africa,-1.6096,30.9156,TZ
ngab1239,Ngäbere,gym,65,124,unknown,North America,8.8251,-82.3911,PA
carn1240,Nicobarese (Car),caq,67,426,critically endangered,Eurasia,9.18853,92.7671,IN
ntch1242,Ncàm,bud,4,143,unknown,Africa,9.23971,0.599275,GH TG
sout2808,Ndebele (in South Africa),nbl,4,31,safe,Africa,-25.6272,29.048,ZA
nand1264,Nande,nnb,4,31,unknown,Africa,-0.24904,29.0243,CD
ndog1248,Ndogo,ndz,4,106,safe,Africa,7.73028,27.5588,SD
nort2774,Ngbandi,ngb,4,106,safe,Africa,3.56357,21.85251,CD
djee1236,Ndjébbana,djj,82,427,safe,Australia,-12.0133,134.097,AU
ndon1254,Ndonga,ndo,4,31,unknown,Africa,-17.6417,19.1631,AO NA
ndut1239,Ndut,ndv,4,122,safe,Africa,14.925,-16.9811,SN
ndum1239,Ndumu,nmd,4,31,unknown,Africa,-1.67033,13.7279,GA
ndyu1242,Ndyuka,djk,21,34,unknown,South America,4.5,-54.5,GF SR
dutc1253,Nederlandse Gebarentaal,dse,21,23,safe,Eurasia,52.1251,4.91133,NL
negi1245,Negidal,neg,51,251,unknown,Eurasia,52.9658,139.206,RU
neha1247,Nehan,nsn,12,25,unknown,Papunesia,-4.56875,154.2,PG
kuma1276,Nelemwa,nee,12,25,unknown,Papunesia,-20.4035,164.193,NC
nene1249,Nenets,yrk,122,245,unknown,Eurasia,66.1775,71.0234,RU
nepa1252,Nepali,nep,24,84,unknown,Eurasia,28.0,85.0,NP
toho1245,Nevome,ood,87,428,unknown,North America,31.7973,-111.995,MX
newa1246,Newari (Kathmandu),new,18,88,unknown,Eurasia,27.2614,84.9577,NP
neyo1238,Neyo,ney,4,41,safe,Africa,4.95048,-6.08043,CI
nezp1238,Nez Perce,nez,97,429,critically endangered,North America,46.3073,-116.408,US
ngan1291,Nganasan,nio,122,245,unknown,Eurasia,73.1354,86.2106,RU
ngba1285,Ngbaka (Minagende),nga,4,261,safe,Africa,2.98887,18.994,CD
ngad1261,Ngad'a,nxg,12,49,unknown,Papunesia,-8.79508,120.976,ID
nang1259,Ngan'gityemerri,nam,198,430,unknown,Australia,-14.268,131.237,AU
wang1291,Ngiyambaa,wyb,8,112,unknown,Australia,-30.6481,146.18,AU
ngal1293,Ngalakan,nig,47,431,extinct,Australia,-14.4281,134.716,AU
ngam1268,Ngambay,sba,30,102,unknown,Africa,8.57051,15.414,TD CM
ngan1295,Ngandi,nid,47,432,extinct,Australia,-12.8448,134.649,AU
ngon1269,Ngoni,ngo,4,31,vulnerable,Africa,-11.7794,37.4118,MZ TZ
narr1259,Ngarinyeri,nay,8,112,safe,Australia,-36.2301,140.158,AU
tang1336,Naga (Tangkhul),nmf,18,33,unknown,Eurasia,25.0489,94.3567,IN
nort2836,Nguna,llp,12,25,unknown,Papunesia,-17.5774,168.375,VU
ngaw1240,Ngawun,nxn,8,35,extinct,Australia,-19.4484,141.471,AU
ngiz1242,Ngizim,ngi,2,67,safe,Africa,12.1051,11.0178,NG
nhan1238,Nhanda,,8,116,safe,Australia,-27.42523643,114.2680442,AU
cent2132,Nahuatl (Central),nhn,87,433,vulnerable,North America,19.1248,-98.3002,MX
huas1257,Nahuatl (Huasteca),nhe,87,433,unknown,North America,22.0,-99.0,MX
mich1245,Nahuatl (Michoacán),ncl,87,433,safe,North America,18.3412,-103.361,MX
nort2957,Nahuatl (North Puebla),ncj,87,433,safe,North America,20.1356,-97.9814,MX
poch1244,Nahuatl (Pochutla),,87,433,extinct,North America,15.75,-96.5,MX
tete1251,Nahuatl (Tetelcingo),nhg,87,433,safe,North America,18.8854,-98.893,MX
guer1241,Nahuatl (Xalitla),ngu,87,433,safe,North America,17.8583,-99.0023,MX
nias1242,Nias,nia,12,53,unknown,Papunesia,0.90691,97.4961,ID
cent1990,Nicobarese,ncb,67,426,unknown,Eurasia,7.94812,93.3921,IN
niua1240,Niuafo'ou,num,12,25,safe,Papunesia,-15.6014,-175.64,TO
japa1238,Nihon Shuwa (Japanese Sign Language),jsl,21,23,safe,Eurasia,36.0221,139.079,JP
nucl1633,Nimboran,nir,165,337,safe,Papunesia,-2.5803,140.179,ID
ning1273,Ningil,niz,1,92,safe,Papunesia,-3.49733,142.251,PG
nisi1239,Nyishi,dap,18,76,unknown,Eurasia,27.3708,93.1284,IN
niue1239,Niuean,niu,12,25,definitely endangered,Papunesia,-19.06,-169.86,NZ
gily1242,Nivkh,niv,203,434,unknown,Eurasia,52.59,140.681,RU
nyun1247,Nyungar,nys,8,116,unknown,Australia,-33.1199,118.151,AU
ngal1292,Ngalkbun,ngk,47,111,severely endangered,Australia,-13.9783,133.936,AU
nkem1242,Nkem,isi,4,31,unknown,Africa,6.59158,8.68668,NG
naka1260,Nakkara,nck,82,435,severely endangered,Australia,-12.07653,134.32729,AU
nkon1245,Nkonya,nko,4,5,unknown,Africa,7.20316,0.3209,GH
chig1238,Nkore-Kiga,cgg,4,31,safe,Africa,-1.04387,29.9122,UG
nuku1260,Nukuoro,nkr,12,25,definitely endangered,Papunesia,3.84,154.975,FM
nyah1250,Nyah Kur (Tha Pong),cbn,67,403,definitely endangered,Eurasia,15.8909,101.515,TH
ngar1286,Ngarla,nlr,8,116,safe,Australia,-20.0,119.0,AU
ngar1287,Ngarluma,nrl,8,116,unknown,Australia,-20.9235,117.203,AU
nyam1271,Nyamal,nly,8,116,severely endangered,Australia,-21.6092,119.693,AU
maon1238,Naga (Mao),nbi,18,33,vulnerable,Eurasia,25.3836,94.0035,IN
sout2994,Nambikuára (Southern),nab,204,436,unknown,South America,-14.3707,-59.5187,BR
samo1303,Nomad,smq,205,437,safe,Papunesia,-6.15496,142.195,PG
isth1242,Nahuatl (Mecayapan Isthmus),nhx,87,433,safe,North America,18.2,-94.7547,MX
mana1288,Manange,nmm,18,56,definitely endangered,Eurasia,28.6416,84.0515,NP
nend1239,Nend,anh,25,57,safe,Papunesia,-5.04271,144.886,PG
neng1238,Nengone,nen,12,25,safe,Papunesia,-21.5305,167.964,NC
nyan1304,Nyanga,nyj,4,31,unknown,Africa,-1.29357,28.31546,CD
nank1250,Nankina,nnk,25,144,safe,Papunesia,-5.80804,146.464,PG
tuva1244,Nanumea,tvl,12,25,unknown,Papunesia,-8.520813,179.198088,TV
nort2784,Nuni (Northern),nuv,4,143,unknown,Africa,12.131,-2.98206,BF
nant1249,Nanticoke,nnt,11,13,extinct,North America,39.67781,-74.98648,US
nobi1240,Nobiin,fia,16,393,unknown,Africa,22.8142,31.8376,EG SD
noct1238,Nocte,njb,18,184,unknown,Eurasia,27.152,95.3903,IN
noga1249,Noghay,nog,51,83,unknown,Eurasia,43.5917,46.6618,RU
noma1263,Nomatsiguenga,not,13,175,severely endangered,South America,-11.5349,-74.4371,PE
noon1243,Noni,nhu,4,31,safe,Africa,6.37256,10.5707,CM
noon1242,Noon,snf,4,122,unknown,Africa,14.792,-16.9205,SN
norw1259,Norwegian,nob,24,27,safe,Eurasia,61.112,8.886,NO
isth1241,Nahuatl (Pajapan),nhp,87,433,safe,North America,18.2513,-94.6647,MX
narp1239,Nar-Phu,npa,18,56,unknown,Eurasia,28.76714,84.22852,NP
nige1257,Nigerian Pidgin,pcm,21,34,safe,Africa,9.65873,4.21068,NG
naga1394,Naga Pidgin,nag,21,34,safe,Eurasia,25.2508,93.4438,IN
napu1241,Napu,npy,12,123,vulnerable,Papunesia,-1.43707,120.338,ID
nane1238,Nanerge,sen,4,143,safe,Africa,11.7548,-4.92148,BF
naro1251,Narom,nrm,12,118,unknown,Papunesia,4.42115,114.011,MY
naro1249,Nharo,nhr,46,70,unknown,Africa,-22.0939,20.7458,NA BW
nsen1242,Nsenga,nse,4,31,unknown,Africa,-15.3946,31.3544,ZM
nisg1240,Nisgha,ncg,97,265,severely endangered,North America,55.199,-129.192,CA
nask1242,Naskapi,nsk,11,13,unknown,North America,55.9316,-61.1318,CA
nise1244,Nisenan,nsz,97,346,extinct,North America,38.047,-120.393,US
assy1241,Neo-Aramaic (Assyrian),aii,2,4,unknown,Eurasia,36.75,43.0,SY
high1278,Nahuatl (Sierra de Zacapoaxtla),azz,87,433,safe,North America,20.1554,-97.5556,MX
norw1255,Norsk Tegnspråk,nsl,21,23,unknown,Eurasia,60.7733,10.242,NO
ngit1239,Ngiti,niy,30,371,safe,Africa,1.30455,30.2242,CD
ngaa1240,Ngaanyatjarra,ntj,8,116,vulnerable,Australia,-25.7514,127.602,AU
nate1242,Nateni,ntm,4,143,unknown,Africa,10.5191,1.21879,BJ
ntom1248,Ntomba,nto,4,31,unknown,Africa,-1.99062,18.265,CD
nuau1240,Nuaulu,nni,12,49,unknown,Papunesia,-3.25,129.166666667,ID
nubi1253,Nubi,kcn,21,34,safe,Africa,-0.183215,34.7552,UG
nuer1246,Nuer,nus,16,18,unknown,Africa,8.13911,32.3829,SD ET
nung1290,Nunggubuyu,nuy,47,438,severely endangered,Australia,-14.2623,135.753,AU
nuka1242,Nukak,mbr,86,170,definitely endangered,South America,2.65939,-71.4629,CO
nung1283,Nung (in Vietnam),nut,117,233,unknown,Eurasia,20.8965,104.286,VN
nupe1254,Nupe,nup,4,238,unknown,Africa,9.18404,5.40031,NG
nusu1239,Nusu,nuf,18,20,unknown,Eurasia,26.7292,98.8801,CN
nyaw1247,Nyawaygi,nyt,8,35,extinct,Australia,-18.8743,146.216,AU
nyan1313,Nyangi,nyp,16,293,safe,Africa,3.4997,33.73651,UG
nyih1240,Nyiha,nih,4,31,safe,Africa,-9.4472,32.9057,ZM TZ
amas1236,Nyimang,nyi,16,439,safe,Africa,12.0993,29.4332,SD
tukp1239,Nyamkad,tpq,18,56,definitely endangered,Eurasia,31.4925,78.1627,IN
nyal1254,Nyelâyu,yly,12,25,unknown,Papunesia,-19.72,163.66,NC
nyam1276,Nyamwezi,nym,4,31,unknown,Africa,-5.08559,32.94452,TZ
nyig1240,Nyigina,nyh,77,158,unknown,Australia,-17.9594,124.348,AU
nyan1301,Nyangumarda,nna,8,116,unknown,Australia,-20.6271,121.391,AU
nyul1247,Nyulnyul,nyv,77,158,extinct,Australia,-16.9129,122.851,AU
nzak1247,Nzakara,nzk,4,106,safe,Africa,4.79567,22.8254,CD CF
zeme1240,Naga (Zeme),nzm,18,33,unknown,Eurasia,25.3499,93.6463,IN
newz1236,New Zealand Sign Language,nzs,21,23,safe,Papunesia,-39.2923,175.773,NZ
ogbr1243,Ogbronuagum,ogu,4,29,safe,Africa,4.74842,6.9058,NG
obok1239,Obokuitai,afz,118,234,vulnerable,Papunesia,-2.88029,137.924,ID
obol1243,Obolo,ann,4,29,unknown,Africa,4.62851,7.81985,NG
ocai1244,Ocaina,oca,75,284,unknown,South America,-2.159,-72.1422,PE
occi1239,Occitan,oci,24,85,unknown,Eurasia,44.1415,6.82979,FR
atzi1235,Ocuilteco,ocu,42,440,severely endangered,North America,19.3871,-99.9239,MX
ogbi1239,Ogbia,ogb,4,29,unknown,Africa,4.75352,6.34034,NG
oyyy1238,Oi,oyb,67,155,unknown,Eurasia,15.42,106.658,LA
ixte1237,Otomí (Ixtenco),otz,42,382,severely endangered,North America,19.2146,-98.0272,MX
east2542,Ojibwa (Eastern),otw,11,13,severely endangered,North America,45.0112,-79.7503,CA
seve1240,Ojibwa (Severn),ojs,11,13,unknown,North America,53.9092,-89.9331,CA
okan1243,Okanagan,oka,60,202,unknown,North America,49.2745,-119.294,CA US
adiv1239,Oriya (Kotia),ort,24,84,safe,Eurasia,18.1046,82.8487,IN
oksa1245,Oksapmin,opm,206,441,safe,Papunesia,-5.20797,142.177,PG
okuu1243,Oku,oku,4,31,safe,Africa,6.23712,10.5096,CM
ngaj1237,Oloh Mangtangai,nij,12,128,unknown,Papunesia,-1.58463,112.794,ID
oloo1241,Olo,ong,1,92,unknown,Papunesia,-3.2929,142.131,PG
olut1240,Olutec,plo,188,386,safe,North America,17.8937,-94.8863,MX
omag1248,Omagua,omg,14,16,unknown,South America,-3.526,-69.1667,PE
omah1247,Omaha,oma,70,142,unknown,North America,42.0944,-96.5295,US
omie1241,Ömie,aom,25,100,unknown,Papunesia,-9.03136,148.107,PG
onei1249,Oneida,one,93,218,critically endangered,North America,43.438742,-75.708106,US
molm1235,One,aun,1,442,unknown,Papunesia,-3.38127,141.806,PG
onge1236,Onge,oon,152,310,critically endangered,Eurasia,10.6926,92.4707,IN
onon1246,Onondaga,ono,93,218,critically endangered,North America,42.92,-76.12,US
onoo1246,Ono,ons,25,144,unknown,Papunesia,-6.19223,147.579,PG
emai1241,Emai,ema,4,148,unknown,Africa,7.09089,5.84494,NG
bora1271,Oromo (Boraana),gax,2,10,unknown,Africa,1.05676,37.882,ET KE
oroc1248,Oroch,oac,51,251,unknown,Eurasia,50.3235,137.851,RU
peri1253,Ordos,mvf,51,109,unknown,Eurasia,42.4208,110.157,CN
orej1242,Orejón,ore,74,149,severely endangered,South America,-2.86315,-72.4926,PE
east2652,Oromo (Harar),hae,2,10,unknown,Africa,8.67428,41.4395,ET
tega1236,Orig,ras,150,443,unknown,Africa,11.9523,31.1112,SD
orok1265,Orok,oaa,51,251,unknown,Eurasia,49.3639,143.128,RU
orok1267,Orokolo,oro,154,444,safe,Papunesia,-7.81309,145.34,PG
ormu1247,Ormuri,oru,24,138,unknown,Eurasia,32.6819,69.3444,PK
orok1269,Orokaiva,okv,25,132,safe,Papunesia,-8.79019,148.09,PG
waat1238,Oromo (Waata),ssn,2,10,safe,Africa,0.55656,37.8568,KE
orya1242,Orya,ury,78,445,unknown,Papunesia,-2.76483,139.89,ID
osag1243,Osage,osa,70,142,critically endangered,North America,36.7828,-96.2949,US
quer1236,Otomí (Santiago Mexquititlan),otq,42,382,vulnerable,North America,20.1396,-100.115,MX
osse1243,Ossetic,oss,24,138,unknown,Eurasia,41.7882,43.2674,GE RU
mezq1235,Otomí (Mezquital),ote,42,382,definitely endangered,North America,20.2274,-99.5564,MX
iowa1245,Oto,iow,70,142,unknown,North America,40.0511,-95.5213,US
otor1240,Otoro,otr,150,413,unknown,Africa,11.1187,30.573,SD
east2556,Otomí (Sierra),otm,42,382,vulnerable,North America,20.5991,-98.0978,MX
west2721,Oromo (West-Central),gaz,2,10,unknown,Africa,8.81391,36.7365,ET
owin1240,Owininga,owi,40,60,safe,Papunesia,-4.47476,141.697,PG
nucl1284,Oriya,ori,24,84,unknown,Eurasia,21.0,85.0,IN
paaa1242,Pa'a,pqa,2,67,safe,Africa,11.0175,9.30091,NG
paco1243,Pacoh,pac,67,164,safe,Eurasia,16.3353,107.094,VN
pado1242,Padoe,pdo,12,123,vulnerable,Papunesia,-2.60642,121.236,ID
paez1247,Páez,pbb,207,446,unknown,South America,2.61516,-76.3125,CO
pagu1249,Pagu,pgu,9,268,unknown,Papunesia,1.2134,127.78,ID
paiw1248,Paiwan,pwn,12,447,vulnerable,Papunesia,22.3271,120.806,TW
paka1251,Pakanha,pkn,8,35,extinct,Australia,-15.0908,142.74,AU
pala1344,Palauan,pau,12,448,safe,Papunesia,7.34138,134.476678,PW
cent2145,Pame,pbs,42,449,vulnerable,North America,21.3762,-99.2898,MX
panj1256,Panjabi,pan,24,84,unknown,Eurasia,30.0368,75.6702,IN PK
papi1253,Papiamentu,pap,21,34,safe,North America,12.48485,-69.93988,AN
pari1256,Päri,lkr,16,18,safe,Africa,5.09472,32.4822,SD
pate1247,Patep,ptp,12,25,definitely endangered,Papunesia,-6.91988,146.639,PG
paum1247,Paumarí,pad,71,145,unknown,South America,-5.78403,-64.2803,BR
pawa1255,Pawaian,pwa,111,450,unknown,Papunesia,-6.88021,145.081,PG
pima1248,Pima Bajo,pia,87,428,unknown,North America,28.654,-108.326,MX
poqo1253,Pocomam,poc,15,17,safe,North America,14.73252,-89.73796,GT
folo1238,Folopa,ppo,111,220,unknown,Papunesia,-6.86321,144.458,PG
pech1241,Pech,pay,65,451,severely endangered,North America,15.8033,-85.558,HN
pemo1248,Pemon,aoc,33,45,unknown,South America,4.97031,-61.4033,GY VR
peng1244,Pengo,peg,61,273,unknown,Eurasia,19.3435,83.6552,IN
pero1241,Pero,pip,2,67,safe,Africa,9.62092,11.044,NG
pila1245,Pilagá,plg,5,6,unknown,South America,-25.0058,-60.1537,AR
ping1243,Pingilapese,pif,12,25,severely endangered,Papunesia,6.20743,160.711,FM
pwon1235,Phlong,pww,18,322,unknown,Eurasia,18.016,98.2709,TH
piar1243,Piaroa,pid,208,452,definitely endangered,South America,4.41805,-67.7574,VR
pile1238,Pileni,piv,12,25,unknown,Papunesia,-10.173335,166.247188,SB
pint1250,Pintupi,piu,8,116,vulnerable,Australia,-23.2963,130.643,AU
pipi1250,Pipil,ppl,87,433,critically endangered,North America,13.8931,-89.443,SV
yine1238,Piro,pib,13,77,definitely endangered,South America,-11.1086,-73.3087,PE
asue1235,Pisa,psa,25,38,safe,Papunesia,-5.98341,139.123,ID
pitj1243,Pitjantjatjara,pjt,8,116,vulnerable,Australia,-26.9704,131.357,AU
poco1241,Pokomchí,poh,15,17,unknown,North America,15.4166666667,-90.5,GT
darl1243,Paakantyi,drl,8,9,unknown,Australia,-32.7021,142.695,AU
poko1263,Pokot,pko,16,18,unknown,Africa,1.57023,35.2318,UG KE
play1240,Playero,gob,108,215,vulnerable,South America,6.90948,-71.0036,CO
pola1255,Polabian,pox,24,141,extinct,Eurasia,52.0,14.0,DE
nucl1291,Palaung,rbb,67,338,unknown,Eurasia,22.6666666667,96.6666666667,MM
paul1238,Paulohi,plh,12,49,critically endangered,Papunesia,-3.25404,128.779,ID
pali1279,Palikur,plu,13,453,vulnerable,South America,3.63993,-51.6246,BR
palo1243,Palor,fap,4,122,vulnerable,Africa,14.8628,-16.9557,SN
cent2138,Pomo (Central),poo,17,354,unknown,North America,38.90547,-123.66393,US
east2545,Pomo (Eastern),peb,17,354,safe,North America,38.5647,-122.586,US
nort2966,Pomo (Northern),pej,17,354,unknown,North America,39.1084,-123.209,US
paam1238,Paamese,pma,12,25,unknown,Papunesia,-16.47548,168.23693,VU
pamo1252,Pamona,pmf,12,123,safe,Papunesia,-1.62663,121.268,ID
pang1287,Pangwa,pbr,4,31,safe,Africa,-9.96782,34.8039,TZ
pang1290,Pangasinan,pag,12,139,safe,Papunesia,15.9377,120.365,PH
nort2954,Paiute (Northern),pao,87,198,unknown,North America,40.0799,-119.536,US
enap1235,Panare,pbh,33,45,vulnerable,South America,6.95035,-65.8483,VR
youn1235,Bunu (Younuo),buh,140,283,definitely endangered,Eurasia,25.7638,110.474,CN
pana1307,Panará,kre,48,75,vulnerable,South America,-10.58,-53.0,BR
pany1241,Panyjima,pnw,8,116,unknown,Australia,-22.7816,118.723,AU
fwai1237,Po-Ai,fwa,12,25,vulnerable,Papunesia,-20.6873,164.901,NC
poqo1257,Pocomam Oriental,poa,15,17,unknown,North America,14.75,-89.75,GT
park1239,Podoko,pbi,2,108,safe,Africa,11.0206,14.0964,CM
pogo1243,Pogoro,poy,4,31,safe,Africa,-8.72283,36.4148,TZ
pohn1238,Pohnpeian,pon,12,25,unknown,Papunesia,6.87212,158.223,FM
rawo1244,Poko-Rawo,rwa,79,454,safe,Papunesia,-2.84201,141.603,PG
poli1260,Polish,pol,24,141,safe,Eurasia,51.8439,18.6255,PL
mezo1235,Popoloca (Metzontla),pbe,42,177,safe,North America,18.1442,-97.5879,MX
port1283,Portuguese,por,24,85,unknown,Eurasia,39.91,-8.1,PT
pota1247,Potawatomi,pot,11,13,critically endangered,North America,40.955,-89.1881,US
powh1243,Powhatan,pim,11,13,extinct,North America,36.99422,-77.20752,US
piap1246,Piapoco,pio,13,15,definitely endangered,South America,4.37718,-68.5953,CO
pitt1247,Pitta Pitta,pit,8,9,extinct,Australia,-22.7952,139.983,AU
pras1239,Prasuni,prn,24,357,unknown,Eurasia,35.1731,70.8004,AF
pare1272,Parecis,pab,13,455,definitely endangered,South America,-14.5929,-57.4059,BR
duru1236,Parji (Dravidian),pci,61,263,unknown,Eurasia,19.0534,82.4881,IN
asut1235,Pare,asa,4,31,safe,Africa,-4.17978,37.8323,TZ
pira1253,Pirahã,myp,209,456,safe,South America,-6.77713,-61.8167,BR
prin1242,Príncipense,pre,21,34,safe,Africa,1.614,7.392,ST
puri1258,Purki,prx,18,56,vulnerable,Eurasia,34.3386,76.0127,IN
west2369,Persian,pes,24,138,unknown,Eurasia,28.6593,55.1586,IR
pira1254,Piratapuyo,pir,74,149,severely endangered,South America,0.50714,-69.5032,CO BR
cent1973,Pashto,pst,24,138,unknown,Eurasia,31.9153,69.4529,AF PK
sanj1285,Popoloca (San Juan Atzingo),poe,42,177,vulnerable,North America,18.22245,-97.37923,MX
plai1235,Plains-Indians Sign Language,psd,21,23,safe,North America,38.3941,-99.2499,US
male1292,Passamaquoddy-Maliseet,pqm,11,13,unknown,North America,45.494475,-67.40805,US CA
sout2982,Pomo (Southeastern),pom,17,354,safe,North America,38.9354,-122.599,US
coyo1236,Popoloca (San Vicente Coyotepec),pbf,42,177,unknown,North America,18.3814,-97.6258,MX
port1285,Port Sandwich,psw,12,25,critically endangered,Papunesia,-16.4952,167.78,VU
dumb1241,Paita,duf,12,25,vulnerable,Papunesia,-22.0947,166.531,NC
pait1244,Paite,pck,18,33,unknown,Eurasia,24.0381,93.6136,IN
patp1243,Patpatar,gfk,12,25,unknown,Papunesia,-3.74711,152.493,PG
patt1248,Pattani,lae,18,56,unknown,Eurasia,32.6963,76.5966,IN
wint1259,Patwin,wit,97,457,unknown,North America,39.7176,-122.445,US
puin1248,Puinave,pui,210,458,definitely endangered,South America,3.92974,-67.6886,VR CO
para1301,Parauk,prk,67,338,safe,Eurasia,22.8658,99.375,CN MM
pulu1242,Puluwat,puw,12,25,unknown,Papunesia,7.35695,149.2005,FM
pumi1242,Pumi,pmj,18,459,unknown,Eurasia,28.0,101.0,CN
puqu1242,Puquina,,211,460,extinct,South America,-15.8992,-69.9611,PE BO
pure1242,Purépecha,tsz,212,461,vulnerable,North America,19.2467,-101.631,MX
pawn1254,Pawnee,paw,32,44,unknown,North America,36.2862,-96.8937,US
afar1241,Qafar,aar,2,10,unknown,Africa,12.0,42.0,ER ET DJ
chiq1249,Quechua (Ancash),qxa,143,290,severely endangered,South America,-10.1831,-77.4152,PE
qawa1238,Qawasqar,alc,213,462,critically endangered,South America,-49.703,-75.3756,CL
ayac1239,Quechua (Ayacucho),quy,143,290,unknown,South America,-13.84714,-74.32246,PE
boli1262,Quechua (Bolivian),quh,143,290,unknown,South America,-20.0,-66.0,BO
caja1238,Quechua (Cajamarca),qvc,143,290,unknown,South America,-7.09314,-78.3214,PE
kich1262,Quiché,quc,15,17,vulnerable,North America,14.5278,-91.1696,GT
sout2991,Quechua (Cochabamba),quh,143,290,unknown,South America,-20.9201,-66.3331,BO
cusc1236,Quechua (Cuzco),quz,143,290,vulnerable,South America,-14.0853,-71.7663,PE
chim1302,Quechua (Ecuadorean),qug,143,290,severely endangered,South America,-1.36727,-78.8521,EC
huam1248,Quechua (Huallaga),qvh,143,290,unknown,South America,-9.15718,-76.3372,PE
qian1264,Qiang,cng,18,459,unknown,Eurasia,32.0,102.666666667,CN
imba1240,Quechua (Imbabura),qvi,143,290,severely endangered,South America,0.31776,-78.3729,EC
nort2980,Quechua (Tarma),qvn,143,290,severely endangered,South America,-11.2132,-75.8128,PE
quec1382,Quechan,yum,17,179,definitely endangered,North America,32.7859,-114.599,US
quil1240,Quileute,qui,100,199,unknown,North America,47.9106,-124.603,US
sipa1247,Sipakapense,qum,15,17,definitely endangered,North America,15.23054,-91.7041,GT
rade1240,Rade,rad,12,14,unknown,Eurasia,12.979,108.41,VN
hano1246,Raga,lml,12,25,safe,Papunesia,-15.5432,168.167,VU
ralt1242,Ralte,ral,18,33,safe,Eurasia,25.0201,94.7381,IN MM
rama1270,Rama,rma,65,463,safe,North America,11.5007,-83.8571,NI
raoo1244,Rao,rao,92,464,unknown,Papunesia,-4.85243,144.511,PG
rapa1244,Rapanui,rap,12,25,severely endangered,Papunesia,-27.113,-109.342,CL
balk1252,Romani (Ajia Varvara),rmn,24,84,unknown,Eurasia,42.67,21.17,GR
rawa1265,Rawang,raw,18,72,unknown,Eurasia,27.1027,97.0738,MM
sint1235,Romani (Burgenland),rmo,24,84,unknown,Eurasia,47.5,16.5,AT
reja1240,Rejang,rej,12,465,unknown,Papunesia,-3.33056,102.434,ID
bond1245,Remo,bfw,67,129,unknown,Eurasia,19.1512,83.8141,IN
rend1243,Rendille,rel,2,10,safe,Africa,2.27065,37.3608,KE
resi1247,Resígaro,rgr,13,15,critically endangered,South America,-2.48139,-71.3578,CO PE
tani1257,Retuarã,tnc,74,149,unknown,South America,-0.59023,-70.3853,CO
rong1268,Ronga,rng,4,31,unknown,Africa,-26.7329,32.6167,MZ
nort2994,Roglai (Northern),rog,12,14,safe,Eurasia,12.1967,108.849,VN
rian1263,Riantana,ran,161,330,safe,Papunesia,-7.50746,138.484,ID
rikb1245,Rikbaktsa,rkb,48,466,severely endangered,South America,-11.1887,-58.1942,BR
nyat1246,Rimi,rim,4,31,unknown,Africa,-5.12263,34.6657,TZ
rita1239,Ritharngu,rit,8,116,definitely endangered,Australia,-13.4559,135.259,AU
raji1240,Raji,rji,18,467,severely endangered,Eurasia,28.6151,81.577,NP IN
vlax1238,Romani (Kalderash),rmy,24,84,unknown,Eurasia,46.8191,14.8451,RS
remb1249,Rembarnga,rmb,47,468,critically endangered,Australia,-12.9608,134.308,AU
roma1326,Romansch,roh,24,85,unknown,Eurasia,46.5538,9.92812,CH
rund1242,Rundi,run,4,31,safe,Africa,-1.44174,31.3191,BI
reng1252,Rengao,ren,67,155,unknown,Eurasia,14.6066,107.859,VN
renn1242,Rennellese,mnv,12,25,unknown,Papunesia,-11.6237,160.265,SB
balt1257,Romani (North Russian),rml,24,84,unknown,Eurasia,60.0,38.0,RU
nyan1307,Runyankore,nyn,4,31,unknown,Africa,-0.46364,30.548,UG
ronn1241,Ron,cla,2,67,unknown,Africa,9.3,9.02,NG
waim1251,Roro,rro,12,25,unknown,Papunesia,-8.67145,146.544,PG
rotu1241,Rotuman,rtm,12,25,vulnerable,Papunesia,-12.5008,177.066,FJ
rovi1238,Roviana,rug,12,25,safe,Papunesia,-8.20493,157.408,SB
nyor1246,Runyoro-Rutooro,nyo,4,31,unknown,Africa,0.95294,31.3493,UG
shug1248,Rushan,sgh,24,138,unknown,Eurasia,37.5018,71.7925,TJ AF
russ1255,Russian Sign Language,rsl,21,23,safe,Eurasia,56.0,44.0,RU
term1237,Roti,twu,12,49,unknown,Papunesia,-10.7326,123.169,ID
roto1249,Rotokas,roo,170,345,unknown,Papunesia,-5.94339,155.154,PG
ruka1240,Rukai (Tanan),dru,12,469,unknown,Papunesia,22.7738,120.844,TW
rumu1243,Rumu,klq,214,470,safe,Papunesia,-7.17149,144.179,PG
rung1258,Runga,rou,184,378,safe,Africa,9.7154,20.9945,TD CF
russ1263,Russian,rus,24,141,unknown,Eurasia,59.0,50.0,RU
rutu1240,Rutul,rut,26,32,unknown,Eurasia,41.6187,47.3244,RU AZ
rawa1267,Rawa,rwo,25,144,unknown,Papunesia,-5.83155,145.937,PG
wels1246,Romani (Welsh),rmw,24,84,extinct,Eurasia,52.1166,-3.7888,GB
cent2126,Shuri,ryu,151,309,unknown,Eurasia,26.14854,127.7816,JP
saaa1240,Sa'a,apb,12,25,unknown,Papunesia,-9.60258,161.467,SB
saba1265,Sa'ban,snv,12,118,safe,Papunesia,3.58723,115.664,ID
saek1240,Saek,skb,117,233,unknown,Eurasia,17.4558,104.787,LA TH
sahu1245,Sahu,saj,9,268,unknown,Papunesia,1.00742,127.493,ID
saka1289,Sakao,sku,12,25,unknown,Papunesia,-15.0757,167.051,VU
sali1253,Salinan,sln,215,471,extinct,North America,37.6646,-121.718,US
samo1305,Samoan,smo,12,25,safe,Papunesia,-13.92,-171.83,AS WS
sang1328,Sango,sag,4,106,safe,Africa,6.78584,20.1702,CF
saho1246,Saho,ssy,2,10,safe,Africa,14.75,39.75,ER ET
sapu1248,Sapuan,spu,67,155,safe,Eurasia,15.3692,106.843,LA
kapr1245,Sare,dju,3,46,unknown,Papunesia,-4.51011,143.241,PG
savi1242,Savi,sdg,24,84,definitely endangered,Eurasia,35.3029,71.5557,AF
sabu1255,Sawu,hvn,12,49,unknown,Papunesia,-10.5522,121.847,ID
sayu1241,Sayultec,pos,188,386,safe,North America,17.8606,-94.9531,MX
sali1298,Sáliba (in Colombia),slc,208,472,severely endangered,South America,5.30115,-69.3843,VR CO
bala1311,Sama (Balangingi),sse,12,105,unknown,Papunesia,6.011614,121.686646,PH
sout1528,Serbian-Croatian,hrv,24,141,unknown,Eurasia,44.0,19.0,RS BA HR
sout2674,Saami (Central-South),sma,122,473,severely endangered,Eurasia,62.8801,13.7006,SE
sind1272,Sindhi,snd,24,84,unknown,Eurasia,26.0,69.0,PK IN
sand1273,Sandawe,sad,216,474,safe,Africa,-5.26918,35.4808,TZ
sout2859,Southeast Ambrym,tvk,12,25,unknown,Papunesia,-16.2975,168.211,VU
kups1238,Sebei,kpz,16,18,unknown,Africa,1.33197,34.5991,UG
seco1241,Secoya,sey,74,149,unknown,South America,-0.459785,-75.5547,EC PE
seda1262,Sedang,sed,67,155,unknown,Eurasia,14.7793,108.027,VN
taro1264,Seediq,trv,12,86,unknown,Papunesia,23.9032,121.358,TW
onaa1245,Selknam,ona,129,475,extinct,South America,-54.0,-68.5,AR
sumi1235,Sema,nsm,18,33,unknown,Eurasia,25.9996,94.4235,IN
nucl1396,Sena,seh,4,31,unknown,Africa,-19.7933,34.9829,MZ
seri1257,Seri,sei,17,476,vulnerable,North America,28.9877,-112.384,MX
sout2807,Sesotho,sot,4,31,unknown,Africa,-30.4445,27.8951,ZA LS
sese1246,Seychelles Creole,crs,21,34,safe,Africa,-4.62314,55.4503,SC
mani1235,Sougb,mnx,189,388,safe,Papunesia,-1.49611,133.95,ID
song1303,Songe,sop,4,31,unknown,Africa,-5.71993,25.2765,CD
seng1278,Sengele,szg,4,31,safe,Africa,-1.92256,17.2965,CD
sang1336,Sangir,sxn,12,150,unknown,Papunesia,5.444878,125.481047,ID
sang1333,Sangu,snq,4,31,safe,Africa,-1.52694,11.9098,GA
shan1277,Shan,shn,117,233,unknown,Eurasia,21.5995,98.0342,MM
shab1252,Shabo,sbf,217,477,severely endangered,Africa,7.64407,35.223,ET
sher1257,Sherdukpen,sdp,18,126,vulnerable,Eurasia,27.0035,92.5799,IN
sher1255,Sherpa,xsr,18,56,unknown,Eurasia,27.674,86.9994,NP
shar1245,Sharanahua,mcd,38,55,unknown,South America,-9.8626,-71.1232,PE BR
nina1238,Shiriana,shb,218,478,unknown,South America,4.03894,-62.7801,VR BR
ship1254,Shipibo-Konibo,shp,38,55,unknown,South America,-7.17105,-74.8219,PE
shil1265,Shilluk,shk,16,18,safe,Africa,9.85472,31.7926,SD
sham1280,Shambala,ksb,4,31,safe,Africa,-8.5,34.17,TZ
shos1248,Shoshone,shh,87,198,unknown,North America,41.0,-116.0,US
nort1527,Sahaptin (Northern),waa,97,429,unknown,North America,46.5,-120.0,US
shor1247,Shor,cjs,51,83,unknown,Eurasia,52.3261,88.4344,RU
shas1239,Shasta,sht,17,479,extinct,North America,41.7587,-122.738,US
shat1244,Shatt,shj,16,225,severely endangered,Africa,10.8525,29.7687,SD
shus1248,Shuswap,shs,60,202,unknown,North America,50.8734,-119.667,CA
shaw1249,Shawnee,sjw,11,13,severely endangered,North America,35.354,-96.7635,US
east2337,Shira Yughur,yuy,51,109,severely endangered,Eurasia,37.9882,101.762,CN
sian1257,Siane,snp,25,28,unknown,Papunesia,-6.13188,145.247,PG
sida1246,Sidaama,sid,2,480,safe,Africa,6.74176,38.3729,ET
sika1262,Sika,ski,12,49,unknown,Papunesia,-8.67302,122.38,ID
dars1235,Sila,dau,16,225,unknown,Africa,11.9861,22.2013,TD
sime1241,Simeulue,smr,12,53,safe,Papunesia,2.50288,96.2757,ID
sion1247,Siona,snn,74,149,definitely endangered,South America,0.31733,-76.0237,CO EC
sioo1240,Sio,xsi,12,25,safe,Papunesia,-5.96037,147.353,PG
siar1238,Siar,sjr,12,25,safe,Papunesia,-4.62059,152.892,PG
baba1268,Sisiqa,baa,12,25,unknown,Papunesia,-7.22281,157.149,SB
sius1254,Siuslaw,sis,35,481,extinct,North America,42.5111,-124.379,US
kild1236,Saami (Kildin),sjd,122,473,severely endangered,Eurasia,68.2158,35.8348,RU
sikk1242,Sikkimese,sip,18,56,safe,Eurasia,27.85795,88.59153,IN
siku1242,Sikule,skh,12,53,unknown,Papunesia,2.69113,95.9636,ID
suku1261,Sukuma,suk,4,31,unknown,Africa,-3.16082,32.8765,TZ
nucl1634,Skou,skv,79,236,safe,Papunesia,-2.64378,140.902,ID
selk1253,Selkup,sel,122,245,unknown,Eurasia,59.9409,82.3004,RU
sika1263,Sikaritai,tty,118,234,safe,Papunesia,-2.80285,138.287,ID
suku1259,Suku,sub,4,31,safe,Africa,-5.76495,17.7736,AO CD
shek1243,Shekhawati,swv,24,84,unknown,Eurasia,27.34,75.407,IN
slav1253,Slave,xsl,27,37,unknown,North America,67.0,-125.0,CA
sali1295,Saliba (in Papua New Guinea),sbe,12,25,unknown,Papunesia,-10.6148,150.727,PG
samb1305,Samba Leko,ndi,4,224,unknown,Africa,8.19236,11.7366,CM NG
sulu1241,Sulung,suv,219,482,definitely endangered,Eurasia,27.6589,92.3557,IN
slov1268,Slovene,slv,24,141,unknown,Eurasia,46.2543,14.7766,SI
sele1250,Selepet,spl,25,144,unknown,Papunesia,-6.03532,147.234,PG
sala1264,Salar,slr,51,83,unknown,Eurasia,35.5457,102.819,CN
sout2959,Slavey,xsl,27,37,definitely endangered,North America,59.8794,-117.047,CA
sela1260,Selayar,sly,12,87,safe,Papunesia,-6.10145,120.496,ID
sema1269,Semandang,sdm,12,137,unknown,Papunesia,-0.75188,110.527,ID
siam1242,Seme,sif,4,41,safe,Africa,10.998,-4.92143,BF
sema1266,Semai,sea,67,302,unknown,Eurasia,4.13257,101.477,MY
seme1247,Semelai,sza,67,302,severely endangered,Eurasia,2.82799,102.806,MY
shom1245,Shompen,,220,483,safe,Eurasia,7.02099,93.8064,IN
umat1237,Sahaptin (Umatilla),uma,97,429,severely endangered,North America,45.6391,-118.552,US
shin1264,Shina,scl,24,84,unknown,Eurasia,34.6515,75.287,PK
sene1264,Seneca,see,93,218,critically endangered,North America,42.56,-77.53,US
ceba1235,Senadi,sef,4,143,unknown,Africa,9.50768,-6.15264,CI
sina1266,Sinaugoro,snc,12,25,unknown,Papunesia,-9.79791,147.861,PG
sinh1246,Sinhala,sin,24,84,safe,Eurasia,8.0,81.0,LK
sanu1240,Sanuma,xsu,218,478,unknown,South America,1.31875,-67.6498,BR VR
soni1259,Soninke,snk,59,107,unknown,Africa,13.1273,-11.7178,CI SN BF ML
nort2671,Saami (Northern),sme,122,473,unknown,Eurasia,68.725,22.1113,NO FI SE
nucl1632,Sentani,set,221,484,unknown,Papunesia,-2.6013,140.512,ID
sooo1256,So,teu,16,293,critically endangered,Africa,2.58367,34.7595,UG
sobe1238,Sobei,sob,12,25,definitely endangered,Papunesia,-1.86998,138.75,ID
kist1241,Soddo,gru,2,4,unknown,Africa,8.33561,38.4763,ET
soma1255,Somali,som,2,10,unknown,Africa,4.778704,45.152856,SO
sons1242,Sonsorol-Tobi,sov,12,25,unknown,Papunesia,7.47282,134.565,PW
soqo1240,Soqotri,sqt,2,4,unknown,Eurasia,12.4892,53.9168,YE
sora1254,Sora,srb,67,129,vulnerable,Eurasia,19.1213,84.19,IN
uppe1395,Sorbian (Upper),hsb,24,141,unknown,Eurasia,51.2403,14.4098,DE
stan1288,Spanish,spa,24,85,unknown,Eurasia,40.4414,-1.11788,ES
spok1245,Spokane,spo,60,202,critically endangered,North America,47.9087,-118.062,US
sout2965,Salish (Southern Puget Sound),slh,60,194,unknown,North America,47.263,-122.141,US
squa1248,Squamish,squ,60,194,critically endangered,North America,49.3231,-123.014,CA
sran1240,Sranan,srn,21,34,safe,South America,5.83,-55.33,SR
sorb1249,Sorbian,hsb,24,141,unknown,Eurasia,51.5,14.0,DE
sars1236,Sarcee,srs,27,37,critically endangered,North America,50.8822,-114.301,CA
camp1261,Sardinian,sro,24,85,unknown,Eurasia,39.0566,9.03935,IT
koho1244,Sre,kpm,67,155,unknown,Eurasia,11.6444,108.057,VN
siri1274,Siriano,sri,74,149,vulnerable,South America,0.436515,-70.184,BR CO
lowe1385,Sorbian (Lower),dsb,24,141,definitely endangered,Eurasia,51.6621,13.9407,DE
sara1340,Saramaccan,srm,21,34,unknown,South America,4.54729,-54.0238,SR GF
siri1273,Sirionó,srq,14,16,severely endangered,South America,-15.5298,-63.9688,BO
siro1249,Siroi,ssd,25,57,safe,Papunesia,-5.52893,145.994,PG
serr1255,Serrano,ser,87,171,extinct,North America,33.9479,-116.772,US
sela1259,Selaru,slu,12,49,safe,Papunesia,-8.18376,130.961,ID
sira1267,Siraya,fos,12,58,unknown,Papunesia,22.9777,120.315,TW
west2465,Sisaala,sld,4,143,safe,Africa,10.8561,-2.36423,GH
boro1277,Shinassha,bwo,2,259,unknown,Africa,10.6596,35.345,ET
kore1273,South Korean Sign Language,kvk,21,23,safe,Eurasia,37.4718,127.609,KR
dong1285,Santa,sce,51,109,unknown,Eurasia,31.5,107.5,CN
stie1250,Stieng,stt,67,155,unknown,Eurasia,11.8333333333,106.75,VN KH
sant1410,Santali,sat,67,129,unknown,Eurasia,25.0317,87.8185,IN
pedi1238,Sotho (Northern),nso,4,31,unknown,Africa,-24.7993,29.4718,ZA
ston1242,Stoney,sto,70,142,unknown,North America,51.1939,-114.984,CA
subi1246,Subiya,sbs,4,31,safe,Africa,-17.5696,24.8867,
sude1239,Sudest,tgo,12,25,unknown,Papunesia,-11.5229,153.488,PG
suen1241,Suena,sue,25,132,critically endangered,Papunesia,-7.76339,147.534,PG
assa1269,Sungor,sjg,16,394,unknown,Africa,13.9592,22.6393,TD
suii1243,Sui,swi,117,233,unknown,Eurasia,24.0488,106.563,CN
suki1245,Suki,sui,133,485,safe,Papunesia,-8.04783,141.842,PG
sulk1246,Sulka,sua,222,486,safe,Papunesia,-5.03471,151.891,PG
sumo1243,Sumu,sum,191,395,unknown,North America,13.0,-84.5,NI
sund1252,Sundanese,sun,12,14,unknown,Papunesia,-6.89708,107.106,ID
supy1237,Supyire,spp,4,143,safe,Africa,11.632,-5.87709,ML
surs1246,Sursurunga,sgz,12,25,safe,Papunesia,-3.99078,152.768,PG
susu1250,Susu,sus,59,107,safe,Africa,10.4046,-13.3628,GN
svan1243,Svan,sva,128,264,unknown,Eurasia,42.9134,42.5915,GE
slov1269,Slovak,slk,24,141,vulnerable,Eurasia,48.545705,18.78479,SK
savo1255,Savosavo,svs,68,487,definitely endangered,Papunesia,-9.12853,159.814,SB
swed1236,Svenska Teckenspråket,swl,21,23,safe,Eurasia,58.929,16.1133,SE
swah1253,Swahili,swh,4,31,unknown,Africa,-8.25605,37.624,TZ
swed1254,Swedish,swe,24,27,unknown,Eurasia,59.800634,17.389526,FI SE
sawa1247,Sawai,szw,12,63,unknown,Papunesia,0.51111,128.086,ID
swat1243,Swati,ssw,4,31,unknown,Africa,-26.0,31.5,ZA SZ
west2402,Saryg Yughur,ybe,51,83,severely endangered,Eurasia,39.0548,99.3112,CN
salt1242,Salt-Yui,sll,25,217,safe,Papunesia,-6.26519,145.021,PG
east2440,Taba,mky,12,63,unknown,Papunesia,0.07337,127.423,ID
taca1256,Tacana,tna,43,66,definitely endangered,South America,-13.39249,-68.04056,BO
sapo1253,Taiof,sps,12,25,unknown,Papunesia,-5.64103,154.732,PG
taga1270,Tagalog,tgl,12,30,unknown,Papunesia,14.06,121.747,PH
tahi1242,Tahitian,tah,12,25,safe,Papunesia,-17.6485,-149.45,PF
taha1241,Tuareg (Air),thv,2,113,unknown,Africa,22.5908,8.73169,NE
taji1245,Tajik,tgk,24,138,safe,Eurasia,38.8213,68.5549,TJ
taki1248,Takia,tbc,12,25,unknown,Papunesia,-4.69057,145.975,PG
tali1258,Talinga,tlj,4,31,safe,Africa,0.676185,29.9494,UG CD
east2346,Tamang (Eastern),taj,18,56,unknown,Eurasia,28.2213,84.9451,NP
nucl1696,Tangale,tan,2,67,unknown,Africa,9.75444,11.3228,NG
tara1313,Tarao,tro,18,33,critically endangered,Eurasia,24.4003,94.1703,IN
taia1239,Taiap,gpn,223,488,severely endangered,Papunesia,-4.05047,144.506,PG
tari1256,Tariana,tae,13,15,critically endangered,South America,0.440205,-68.9042,BR
tach1250,Tashlhiyt,shi,2,113,safe,Africa,29.7854,-7.77879,MA
tata1257,Tatana',txx,12,118,safe,Papunesia,5.49808,115.553,MY
tauy1241,Tauya,tya,25,57,safe,Papunesia,-5.74255,145.366,PG
tawa1275,Tawala,tbo,12,25,unknown,Papunesia,-10.3115,150.644,PG
tayo1238,Tayo,cks,21,34,safe,Papunesia,-22.2277,166.546,NC
taly1247,Talysh (Azerbaijan),tly,24,138,unknown,Eurasia,38.4552,48.6349,AZ
sina1271,Tabare,sst,25,217,unknown,Papunesia,-6.08728,145.032,PG
tuba1278,Tübatulabal,tub,87,171,critically endangered,North America,35.327,-117.163,US
tigr1270,Tigré (Beni Amer),tig,2,4,safe,Africa,17.3494,38.2233,ER
tabl1243,Tabla,tnm,221,484,unknown,Papunesia,-2.45368,140.396,ID
tbol1240,Tboli,tbl,12,134,unknown,Papunesia,6.20377,124.538,PH
taba1263,Tabaru,tby,9,268,unknown,Papunesia,1.46563,127.633,ID
taba1259,Tabassaran,tab,26,32,vulnerable,Eurasia,42.0198,47.8379,RU
toba1266,Tobati,tti,12,25,severely endangered,Papunesia,-2.56434,140.71,ID
tebu1238,Tubu,dzg,157,321,unknown,Africa,16.0,15.0,TD NE
taab1238,Tabwa,tap,4,31,safe,Africa,-7.91416,29.5238,ZM CD
seke1240,Tangbe,skj,18,56,unknown,Eurasia,28.9251,83.8064,NP
cent2131,Tarahumara (Central),tar,87,274,safe,North America,27.5648,-107.154,MX
toda1252,Toda,tcx,61,115,critically endangered,Eurasia,11.4184,77.0168,IN
tekt1235,Teco,ttc,15,17,severely endangered,North America,15.4599,-92.1136,GT MX
hueh1236,Tepehua (Huehuetla),tee,224,489,definitely endangered,North America,20.6189,-97.9347,MX
tehu1242,Tehuelche,teh,129,475,extinct,South America,-47.5796,-68.3235,AR
telu1262,Telugu,tel,61,273,unknown,Eurasia,16.4529,78.7024,IN
temm1241,Tem,kdh,4,143,safe,Africa,8.967,1.136,BJ GH TG
tenn1246,Tennet,tex,16,140,vulnerable,Africa,4.91107,32.6307,SD
teop1238,Teop,tio,12,25,unknown,Papunesia,-5.67474,154.971,PG
tlac1235,Tepehua (Tlachichilco),tpt,224,489,definitely endangered,North America,20.704,-98.1947,MX
tera1251,Tera,ttr,2,108,unknown,Africa,11.0376,11.80953,NG
teso1249,Teso,teo,16,18,unknown,Africa,1.18321,33.9394,UG
tete1250,Tetela,tll,4,31,vulnerable,Africa,-4.29314,24.546,CD
tewa1260,Tewa (Arizona),tew,149,306,unknown,North America,35.9053,-106.124,US
khor1269,Turkic (East-Central Xorasan),kmz,51,83,unknown,Eurasia,36.4438,60.0277,IR
tang1348,Tangga,tgg,12,25,unknown,Papunesia,-4.08824,153.611,PG
tagb1258,Tagbanwa (Aborlan),tbw,12,30,safe,Papunesia,9.54263,118.497,PH
tiga1245,Tigak,tgc,12,25,unknown,Papunesia,-2.70951,150.893,PG
tsha1245,Tshangla,tsj,18,56,definitely endangered,Eurasia,27.3694,91.7741,BT IN
tugu1245,Tugun,tzn,12,49,unknown,Papunesia,-7.72555,126.7,ID
tsog1243,Tsogo,tsv,4,31,safe,Africa,-1.55469,11.1359,GA
sawi1256,Tanglapui,swt,10,334,unknown,Papunesia,-8.29105,125.078,ID
west2538,Tarangan (West),txn,12,49,unknown,Papunesia,-6.62046,134.168,ID
thai1261,Thai,tha,117,233,safe,Eurasia,14.192,100.671,TH
thad1238,Thadou,tcz,18,33,unknown,Eurasia,24.096,93.722,IN MM
thak1245,Thakali,ths,18,56,unknown,Eurasia,28.7014,83.6466,NP
than1259,Thangmi,thf,18,88,unknown,Eurasia,28.7554,85.7657,NP
thom1243,Thompson,thp,60,202,severely endangered,North America,50.1668,-120.193,CA
thay1248,Thaypan,typ,8,35,extinct,Australia,-14.8292,143.324,AU
thai1240,Thai Sign Language,tsq,21,23,safe,Eurasia,13.7837,100.445,TH
tehi1237,Tehit,kps,9,490,unknown,Papunesia,-1.51049,131.985,ID
thul1246,Thulung,tdh,18,88,unknown,Eurasia,27.5389,87.6063,NP
thao1240,Thao,ssf,12,491,unknown,Papunesia,23.8333,120.93,TW
thay1249,Kuuk Thaayorre,thd,8,35,definitely endangered,Australia,-14.8159,142.034,AU
tima1241,Tima,tms,150,356,severely endangered,Africa,11.7176,29.1632,SD
ticu1245,Ticuna,tca,225,492,definitely endangered,South America,-3.66289,-69.8723,BR PE
tido1248,Tidore,tvo,9,268,safe,Papunesia,0.02461,127.746,ID
tifa1245,Tifal,tif,25,407,unknown,Papunesia,-5.03899,141.293,PG
tigr1271,Tigrinya,tir,2,4,definitely endangered,Africa,15.3359,38.9266,ER ET
tika1246,Tikar,tik,4,31,unknown,Africa,5.87004,11.6104,CM
till1254,Tillamook,til,60,493,extinct,North America,44.0924,-122.769,US
timu1262,Timugon,tih,12,118,unknown,Papunesia,5.1796,115.826,MY
tiri1258,Tinrin,cir,12,25,unknown,Papunesia,-21.8147,165.792,NC
trio1238,Tiriyo,tri,33,45,vulnerable,South America,2.53616,-55.7599,BR SR
tivv1240,Tiv,tiv,4,31,safe,Africa,6.88039,9.26287,NG
tiwi1244,Tiwi,tiw,226,494,vulnerable,Australia,-11.6308,130.949,AU
toke1240,Tokelauan,tkl,12,25,severely endangered,Papunesia,-9.227642,-171.780833,TK
tuki1240,Tuki,bag,4,31,unknown,Africa,4.64348,11.5353,CM
take1257,Takelma,tkm,227,495,extinct,North America,42.423,-123.452,US
turk1304,Turkmen,tuk,51,83,unknown,Eurasia,37.0872,59.1757,TM
teke1280,Teke (Southern),kkw,4,31,safe,Africa,-2.27122,14.4407,CG
kuan1248,Tolai,ksd,12,25,unknown,Papunesia,-4.30986,152.114,PG
tala1285,Talaud,tld,12,150,unknown,Papunesia,4.11846,126.795,ID
tele1256,Telefol,tlf,25,407,unknown,Papunesia,-5.07444,141.731,PG
tlin1245,Tlingit,tli,27,496,critically endangered,North America,59.4447,-135.29,US
taul1251,Taulil,tuh,73,497,vulnerable,Papunesia,-4.44425,152.095,PG
tobe1252,Tobelo,tlb,9,268,unknown,Papunesia,1.0946,128.154,ID
acat1239,Tlapanec,tcf,42,498,unknown,North America,17.1034,-99.0602,MX
timu1245,Timucua,tjm,228,499,extinct,North America,30.3027,-82.3132,US
tama1336,Tamagario,tcg,229,500,safe,Papunesia,-6.64493,138.892,ID
tata1255,Tatar (Mishar),tat,51,83,unknown,Eurasia,55.0,50.0,RU
tuma1260,Tumak,tmc,2,130,unknown,Africa,9.43747,17.4216,TD
tami1289,Tamil,tam,61,115,unknown,Eurasia,10.520219,78.825989,LK IN
malo1243,Tamabo,mla,12,25,unknown,Papunesia,-15.6835,167.16,VU
nucl1339,Temein,teq,16,501,severely endangered,Africa,11.8275,29.3898,SD
tamp1252,Tampulma,tpm,4,143,safe,Africa,9.75577,-1.35467,GH
temi1246,Temiar,tea,67,302,unknown,Eurasia,4.974,101.438,MY
musl1236,Tat (Muslim),ttt,24,138,unknown,Eurasia,41.425062,46.645589,AZ
turk1308,Turkana,tuv,16,18,unknown,Africa,4.30688,35.7101,KE UG
ango1257,Tunebo,tnd,65,502,definitely endangered,South America,6.54198,-71.9212,CO
tana1290,Tanacross,tcb,27,37,critically endangered,North America,63.4046,-143.338,US
tind1238,Tindi,tin,26,74,definitely endangered,Eurasia,42.3316,45.9227,RU
timn1235,Temne,tem,4,127,unknown,Africa,8.90294,-12.3331,SL
tong1325,Tongan,ton,12,25,safe,Papunesia,-21.17,-175.25,TO
tina1246,Tinani,lbf,18,56,definitely endangered,Eurasia,32.2852,77.9912,IN
tana1289,Tanaina,tfn,27,37,severely endangered,North America,60.4712,-150.759,US
tung1290,Tungak,lcm,12,25,safe,Papunesia,-2.52188,150.198,PG
lowe1425,Tanana (Lower),taa,27,37,critically endangered,North America,64.8834,-149.451,US
tune1241,Tunen,baz,4,31,safe,Africa,4.75,10.67,CM
tond1251,Tondano,tdn,12,503,unknown,Papunesia,1.28024,124.964,ID
sout2869,Tanna (Southwest),nwi,12,25,unknown,Papunesia,-19.57953,169.35603,VU
tont1239,Tontemboan,tnt,12,503,unknown,Papunesia,1.24813,124.654,ID
west2466,Tenyer,kza,4,143,unknown,Africa,10.6298,-4.76482,BF
toar1246,Toaripi,tqo,154,444,unknown,Papunesia,-8.07231,146.206,PG
toba1269,Toba,tob,5,6,unknown,South America,-24.40253,-60.4472866667,AR
stod1241,Tod,sbu,18,56,unknown,Eurasia,32.497,77.116,IN
kara1462,Tofa,kim,51,83,critically endangered,Eurasia,53.7145,98.3792,RU
tojo1241,Tojolabal,toj,15,17,safe,North America,16.2572,-91.7825,MX
taro1263,Tarok,yer,4,135,unknown,Africa,8.98356,10.0288,NG
toll1241,Tol,jic,230,504,critically endangered,North America,14.6686,-87.0372,HN
tonk1249,Tonkawa,tqw,231,505,extinct,North America,30.25,-96.75,US
toab1237,Toqabaqita,mlu,12,25,safe,Papunesia,-8.39233,160.619,SB
rata1244,Toratán,rth,12,150,definitely endangered,Papunesia,1.07592,124.858,ID
high1243,Totonac (Sierra),tos,224,489,severely endangered,North America,20.3798,-97.6159,MX
yecu1235,Totonac (Misantla),tlc,224,489,critically endangered,North America,20.1765,-96.8741,MX
tusi1238,Toussian,wib,4,143,unknown,Africa,11.0,-4.66666666667,BF
sout2797,Toussian (Win),wib,4,143,safe,Africa,10.877,-4.65678,BF
tong1318,Tonga (in Zambia),toi,4,31,unknown,Africa,-17.422325,27.103495,ZM
papa1238,Totonac (Papantla),top,224,489,definitely endangered,North America,20.5671,-97.2554,MX
tepe1278,Tepecano,tep,87,428,extinct,North America,19.2343,-101.729,MX
tokp1240,Tok Pisin,tpi,21,34,safe,Papunesia,-9.41971,147.303,PG
nort2959,Tepehuan (Northern),ntp,87,428,safe,North America,26.4348,-107.379,MX
tupu1244,Tupuri,tui,4,224,unknown,Africa,10.0144,14.8697,CM TD
sout2976,Tepehuan (Southeastern),stp,87,428,safe,North America,23.1584,-103.983,MX
tapi1253,Tapieté,tpj,14,16,severely endangered,South America,-21.4169,-62.684,PY
teri1250,Teribe,tfr,65,157,critically endangered,North America,9.067,-82.9631,PA CR
chic1273,Trique (Chicahuaxtla),trs,42,211,safe,North America,17.1628,-97.8547,MX
tora1261,Toraja,sda,12,87,unknown,Papunesia,-2.97144,119.829,ID
copa1237,Trique (Copala),trc,42,211,safe,North America,17.1541,-97.9826,MX
tere1279,Terêna,ter,13,110,unknown,South America,-20.6614,-56.0329,BR
nort2920,Tairora,tbg,25,28,unknown,Papunesia,-6.51563,145.959,PG
tern1247,Ternate,tft,9,268,safe,Papunesia,0.80562,127.333,ID
trum1247,Trumai,tpy,232,506,critically endangered,South America,-11.8119,-53.5717,BR
torw1241,Torwali,trw,24,84,unknown,Eurasia,35.3101,72.5316,PK
tiru1241,Tiruray,tiy,12,134,safe,Papunesia,6.77321,124.127,PH
tsak1249,Tsakhur,tkr,26,32,unknown,Eurasia,41.5916,46.8858,RU AZ
uabm1237,Timorese,aoz,12,49,unknown,Papunesia,-9.77284,124.144,ID
colo1256,Tsafiki,cof,55,96,definitely endangered,South America,-0.21181,-79.2347,EC
taus1251,Tausug,tsg,12,30,safe,Papunesia,5.12236,118.88,PH MY ID
pana1305,Tümpisa Shoshone,par,87,198,critically endangered,North America,36.0007,-117.901,US
nucl1649,Tsimshian (Coast),tsi,97,265,unknown,North America,52.59103,-128.544545,US CA
tama1365,Tamashek,taq,2,113,unknown,Africa,14.2038,-2.41269,ML
tanz1238,Tanzania Sign Language,tza,21,23,safe,Africa,-6.82431,39.127,TZ
tson1249,Tsonga,tso,4,31,unknown,Africa,-23.5754,31.8105,MZ ZA
tsou1248,Tsou,tsu,12,507,unknown,Papunesia,23.216,120.787,TW
taus1253,Taushiro,trr,233,508,critically endangered,South America,-3.22497,-75.5603,PE
tsat1238,Tsat,huq,12,14,definitely endangered,Eurasia,18.3192,109.336,CN
tswa1253,Tswana,tsn,4,31,unknown,Africa,-24.368,24.7587,BW ZA
dido1241,Tsez,ddo,26,74,definitely endangered,Eurasia,42.2646,45.8096,RU
tetu1245,Tetun Dili,tet,12,49,unknown,Papunesia,-9.11217,125.528,TL
tute1247,Tutelo,tta,70,142,extinct,North America,37.67,-78.75,US
take1255,Tati (Southern),tks,24,138,unknown,Eurasia,38.1971,47.9954,IR
bats1242,Tsova-Tush,bbl,26,182,severely endangered,Eurasia,42.1806,45.344,GE
tatu1247,Tatuyo,tav,74,149,definitely endangered,South America,0.55582,-70.5327,CO
tuam1242,Tuamotuan,pmt,12,25,unknown,Papunesia,-16.17259,-146.321755,PF
tuba1279,Tubar,tbu,87,509,extinct,North America,30.0,-111.0,MX
tuca1252,Tucano,tuo,74,149,unknown,South America,0.579755,-69.5763,BR CO
turk1288,Türk Isaret Dili,tsm,21,23,safe,Eurasia,41.02675,28.85551,TR
tuka1247,Tukang Besi,bhq,12,123,unknown,Papunesia,-5.5,123.5,ID
tulu1258,Tulu,tcy,61,115,vulnerable,Eurasia,12.8114,75.2651,IN
tuml1238,Tumleo,tmq,12,25,safe,Papunesia,-3.14955,142.346,PG
tuni1252,Tunica,tun,234,510,extinct,North America,30.9888,-92.5403,US
nucl1301,Turkish,tur,51,83,unknown,Eurasia,39.8667,32.8667,TR
tusc1257,Tuscarora,tus,93,218,critically endangered,North America,43.1303,-79.4214,US
nort2941,Tutchone (Northern),ttm,27,37,definitely endangered,North America,62.8235,-136.644,CA
tuvi1240,Tuvan,tyv,51,83,unknown,Eurasia,48.436,92.6693,RU MN
tuyu1244,Tuyuca,tue,74,149,vulnerable,South America,0.39441,-70.043515,CO BR
tuts1235,Tutsa,tvt,18,184,safe,Eurasia,27.161,95.8,IN
twan1247,Twana,twa,60,194,unknown,North America,47.7419,-121.765,US
lowl1265,Tarahumara (Western),tac,87,274,vulnerable,North America,27.4623,-107.854,MX
nort1550,Tiwa (Northern),twf,149,306,vulnerable,North America,36.4277,-105.604,US
sout2961,Tiwa (Southern),tix,149,306,unknown,North America,34.7873,-106.661,US
xico1235,Totonac (Xicotepec de Juárez),too,224,489,safe,North America,20.6532,-97.7463,MX
tyar1236,Tyeraity,woa,194,399,extinct,Australia,-12.4868,130.676,AU
tzel1254,Tzeltal (Aguacatenango),tzh,15,17,unknown,North America,16.6384,-92.2786,MX
tzel1255,Tzeltal (Bachajón),tzb,15,17,unknown,North America,16.9166666667,-92.0,MX
tzel1253,Tzeltal,tzb,15,17,unknown,North America,16.8333333333,-92.25,MX
taiw1241,Taiwanese Sign Language (Ziran Shouyu),tss,21,23,unknown,Papunesia,25.0206,121.305,TW
tzot1262,Tzotzil,tzc,15,17,unknown,North America,16.5,-92.6666666667,MX
tzot1260,Tzotzil (San Andrés),tzs,15,17,unknown,North America,17.0,-92.8333333333,MX
cakc1244,Tzutujil,tzt,15,17,unknown,North America,14.6666666667,-91.3333333333,GT
tzot1264,Tzotzil (Zinacantán),tzz,15,17,unknown,North America,16.8333333333,-92.8333333333,MX
ubyk1235,Ubykh,uby,6,7,extinct,Eurasia,43.67,39.67,RU TR
udih1248,Udihe,ude,51,251,unknown,Eurasia,46.6309,135.678,RU
udii1243,Udi,udi,26,32,unknown,Eurasia,40.9,47.7236,AZ
udmu1245,Udmurt,udm,122,348,unknown,Eurasia,56.12921,52.63548,RU
ugan1238,Ugandan Sign Language,ugn,21,23,safe,Africa,0.2475,32.4829,UG
atam1239,Uradhi,urf,8,35,extinct,Australia,-11.0018,142.273,AU
ukra1253,Ukrainian,ukr,24,141,unknown,Eurasia,48.175842,24.395786,UA
uppe1438,Upper Kuskokwim,kuu,27,37,critically endangered,North America,62.2976,-155.951,US
ulch1241,Ulcha,ulc,51,251,critically endangered,Eurasia,51.8521,140.29,RU
wuzl1236,Uldeme,udl,2,108,safe,Africa,10.955,14.1378,CM
ulit1238,Ulithian,uli,12,25,severely endangered,Papunesia,9.961388,139.603611,FM
umaa1242,Uma,ppk,12,123,unknown,Papunesia,-1.70416,119.968,ID
umbu1257,UMbundu,umb,4,31,safe,Africa,-12.4763,14.4148,AO
umpi1239,Umpila,ump,8,35,severely endangered,Australia,-13.1528,143.467,AU
unaa1239,Una,mtg,25,240,safe,Papunesia,-4.69676,140.1,ID
ngar1284,Ungarinjin,ung,132,271,unknown,Australia,-16.4006,126.433,AU
unam1242,Unami,unm,11,13,extinct,North America,35.0264,-98.3201,US
urav1235,Ura,uur,12,25,safe,Papunesia,-18.6747,169.084,VU
urdu1245,Urdu,urd,24,84,unknown,Eurasia,25.0,67.0,PK
urho1239,Urhobo,urh,4,148,unknown,Africa,5.31155,5.86148,NG
urim1252,Urim,uri,1,511,unknown,Papunesia,-3.58018,142.653,PG
urub1250,Urubú-Kaapor,urb,14,16,vulnerable,South America,-2.46455,-46.2204,BR
urak1238,Urak Lawoi',urk,12,14,definitely endangered,Eurasia,7.5258,99.0768,TH
urum1249,Urum,uum,51,83,definitely endangered,Eurasia,42.0379,43.994,GE UA
urar1246,Urarina,ura,235,512,vulnerable,South America,-4.44006,-75.4211,PE
urat1244,Urat,urt,1,92,unknown,Papunesia,-3.60065,142.79,PG
uruu1244,Uru,ure,104,209,safe,South America,-16.72547,-68.97119,BO
usan1239,Usan,wnu,25,57,safe,Papunesia,-4.84265,145.362,PG
urub1243,Urubú Sign Language,uks,21,23,safe,South America,-2.54091,-46.4213,BR
usar1243,Usarufa,usa,25,28,safe,Papunesia,-6.38898,145.633,PG
uigh1240,Uyghur,uig,51,83,unknown,Eurasia,43.67,79.75,CN
uzbe1247,Uzbek,uzs,51,83,unknown,Eurasia,39.0,66.0,AF UZ
vafs1240,Vafsi,vaf,24,138,definitely endangered,Eurasia,34.5309,50.0013,IR
vagl1239,Vagla,vag,4,143,unknown,Africa,9.33848,-2.31333,GH
vaii1241,Vai,vai,59,107,safe,Africa,7.05085,-11.3262,SL LR
vasa1239,Vasavi,vas,24,84,unknown,Eurasia,21.3624,73.8652,IN
lako1244,Vata,dic,4,41,safe,Africa,5.86012,-5.40633,CI
vedd1240,Vedda,ved,24,84,definitely endangered,Eurasia,6.97396,81.2618,LK
vend1245,Venda,ven,4,31,unknown,Africa,-22.188,29.9523,ZW ZA
veps1250,Veps,vep,122,249,unknown,Eurasia,60.3353,34.7865,RU
viet1252,Vietnamese,vie,67,417,unknown,Eurasia,20.681188,105.774071,VN
vili1238,Vili,vif,4,31,safe,Africa,-4.06716,11.3804,GA CG
kari1304,Kariera,vka,8,116,extinct,Australia,-20.445,118.613,AU
vlaa1235,Vlaamse Gebarentaal,bvs,21,23,safe,Eurasia,51.119147,4.913097,BE
vinm1237,Vinmavis,vnm,12,25,safe,Papunesia,-16.2253,167.427,VU
voti1245,Votic,vot,122,249,unknown,Eurasia,59.3802,28.6235,RU
wage1238,Wagiman,waq,236,513,severely endangered,Australia,-13.8627,131.893,AU
wahg1249,Wahgi,whg,25,217,unknown,Papunesia,-5.83333333333,144.716666667,PG
waiw1244,Wai Wai,waw,33,45,vulnerable,South America,1.50881,-59.1417,BR GY
wakh1245,Wakhi,wbl,24,138,unknown,Eurasia,37.1768,73.9777,AF PK TJ
valm1241,Walman,van,1,92,safe,Papunesia,-3.24963,142.499,PG
wamb1258,Wambaya,wmb,116,514,unknown,Australia,-17.496,135.683,AU
ngur1261,Wangkumara,nbx,8,9,unknown,Australia,-29.2411,143.216,AU
waor1240,Waorani,auc,237,515,vulnerable,South America,-1.12312,-76.683,EC
wapp1239,Wappo,wao,238,516,safe,North America,38.25,-122.5,US
wari1268,Wari',pav,239,517,definitely endangered,South America,-10.69948,-64.56152,BR
wash1253,Washo,was,240,518,severely endangered,North America,38.8184,-119.64,US
waja1257,Watjarri,wbv,8,116,severely endangered,Australia,-28.1761,117.153,AU
woun1238,Waunana,noa,90,174,vulnerable,South America,8.5,-78.0,CO PA
waya1270,Wayampi,oym,14,16,unknown,South America,1.73817,-52.6887,BR
wamb1259,Wambon,wms,25,38,safe,Papunesia,-5.44334,140.48,ID
wanm1242,Wanman,wbt,8,116,severely endangered,Australia,-22.7078,122.325,AU
wich1264,Wichí,mzh,95,189,vulnerable,South America,-23.1633,-62.1757,BO AR
wels1247,Welsh (Colloquial),cym,24,159,unknown,Eurasia,52.0,-4.0,GB
weda1241,Wedau,wed,12,25,unknown,Papunesia,-10.1246,150.172,PG
weri1253,Weri,wer,25,336,unknown,Papunesia,-7.71834,146.914,PG
luan1263,Wetan,lex,12,49,unknown,Papunesia,-8.18378,127.944,ID
wang1290,Wangkangurru,wgg,8,9,extinct,Australia,-25.8148,135.941,AU
waig1243,Waigali,wbk,24,357,unknown,Eurasia,35.0358,70.9761,AF
waru1264,Warrongo,wrg,8,35,extinct,Australia,-18.2496,144.37,AU
wich1260,Wichita,wic,32,44,unknown,North America,35.0665,-98.1831,US
yoku1256,Wikchamni,yok,97,519,unknown,North America,36.3167,-119.721,US
wira1265,Wirangu,wiw,8,9,safe,Australia,-32.0,134.0,AU
wiyo1248,Wiyot,wiy,11,520,extinct,North America,39.2492,-122.952,US
waka1274,Wagawaga,wkw,8,112,unknown,Australia,-26.248,151.868,AU
nucl1347,Wolof,wol,4,122,unknown,Africa,15.2534,-15.383,SN GM
wall1257,Wallisian,wls,12,25,safe,Papunesia,-13.2903,-176.207,WF
walm1241,Walmatjari,wmt,8,116,definitely endangered,Australia,-19.7229,126.113,AU
woli1241,Wolio,wlo,12,123,safe,Papunesia,-5.33,122.67,ID
warl1256,Warluwara,wrb,8,116,extinct,Australia,-22.2909,138.738,AU
wola1242,Wolaytta,wal,2,259,safe,Africa,6.32668,37.7537,ET
west2600,West Makian,mqs,9,268,safe,Papunesia,0.45332,127.63,ID
wamb1257,Wambule,wme,18,88,unknown,Eurasia,27.14808,86.47646,NP
weme1239,Wéménugbé,wem,4,5,safe,Africa,6.77227,2.47457,BJ
wikm1247,Wik Munkan,wim,8,35,vulnerable,Australia,-13.98051,141.81611,AU
wikn1245,Wik Ngathana,wig,8,35,definitely endangered,Australia,-13.8691,141.532,AU
wann1242,Wan,wan,59,136,unknown,Africa,7.88773,-5.82092,CI
hoch1243,Winnebago,win,70,142,unknown,North America,43.5,-88.5,US
want1252,Wantoat,wnc,25,144,unknown,Papunesia,-6.15216,146.513,PG
weno1238,Wobe,wob,4,41,unknown,Africa,7.40391,-7.24617,CI
woga1249,Wogamusin,wog,3,3,safe,Papunesia,-4.22936,142.401,PG
kama1365,Woisika,woi,10,12,unknown,Papunesia,-8.26897,124.792,ID
wole1240,Woleaian,woe,12,25,unknown,Papunesia,7.37957,143.916,FM
womo1238,Womo,,79,454,unknown,Papunesia,-2.91666666667,141.833333333,PG
woro1255,Worora,unp,132,271,unknown,Australia,-15.6666666667,124.666666667,AU
wapi1253,Wapishana,wap,13,521,unknown,South America,2.58744,-59.8021,BR GY
wara1303,Warao,wba,241,522,definitely endangered,South America,7.50851,-59.3528,VR
warr1257,Warrnambool,,8,112,extinct,Australia,-38.345,142.4608,AU
ward1246,Wardaman,wrr,242,523,severely endangered,Australia,-15.4155,132.604,AU
warr1255,Warrgamay,wgy,8,35,extinct,Australia,-18.5468,146.179,AU
guar1293,Warekena,gae,13,15,unknown,South America,1.80835,-66.922505,VR CO BR
warl1254,Warlpiri,wbp,8,116,unknown,Australia,-20.1008,131.05,AU
ware1253,Warembori,wsa,12,63,safe,Papunesia,-1.65941,137.566,ID
wand1263,Warndarang,wnd,37,524,extinct,Australia,-14.2996,135.705,AU
waro1242,Waropen,wrp,12,63,unknown,Papunesia,-2.31142,136.633,ID
wari1266,Waris,wrs,41,61,safe,Papunesia,-3.139,140.931,PG ID
waru1265,Warumungu,wrm,8,116,severely endangered,Australia,-20.6479,134.375,AU
warr1258,Warrwa,wwr,77,158,extinct,Australia,-17.0965,123.971,AU
wara1290,Waray (in Australia),wrz,47,525,extinct,Australia,-13.0941,131.236,AU
wask1241,Waskia,wsk,25,57,safe,Papunesia,-4.57978,145.979,PG
wath1238,Wathawurrung,,8,112,extinct,Australia,-37.68777565,144.1013148,AU
wata1253,Watam,wax,92,317,safe,Papunesia,-4.02591,144.583,PG
wuch1236,Wu (Changzhou),wuu,18,191,unknown,Eurasia,29.8621,119.682,CN
waur1244,Waurá,wau,13,455,vulnerable,South America,-13.296,-53.6971,BR
waam1244,Waama,wwa,4,143,unknown,Africa,10.5956,1.65318,BJ
woiw1237,Woiwurrung,,8,112,unknown,Australia,-37.64264501,145.5879962,AU
wara1300,Waray-Waray,war,12,30,unknown,Papunesia,11.4911,125.012,PH
wyan1247,Wyandot,wya,93,218,unknown,North America,44.33,-77.5,CA
waya1269,Wayana,way,33,45,unknown,South America,2.77537,-54.4429,SR BR GF
xamm1241,/Xam,xam,243,526,extinct,Africa,-31.7612,20.1733,ZA
xara1244,Xârâcùù,ane,12,25,safe,Papunesia,-21.7034,165.996,NC
xaas1235,Xasonga,kao,59,107,safe,Africa,14.2147,-13.8051,ML SN
xava1240,Xavánte,xav,48,75,vulnerable,South America,-14.3017,-52.4367,BR
komb1272,Kombio,xbi,1,1,unknown,Papunesia,-3.48467,142.694,PG
xere1240,Xerénte,xer,48,75,severely endangered,South America,-9.59426,-48.2629,BR
xhos1239,Xhosa,xho,4,31,unknown,Africa,-31.0389,28.0769,ZA
kana1283,Kanashi,xns,18,56,definitely endangered,Eurasia,32.2843,77.1553,IN
xokl1240,Xokleng,xok,48,75,critically endangered,South America,-26.9217,-49.5886,BR
xooo1239,!Xóõ,nmn,243,526,definitely endangered,Africa,-23.59,19.15,BW
kung1261,!Xun (Ekoka),knw,141,311,safe,Africa,-21.92,18.0,NA AO
yagu1244,Yagua,yad,244,527,definitely endangered,South America,-3.42913,-72.2186,PE
yama1264,Yahgan,yag,245,528,critically endangered,South America,-55.2748,-68.2648,CL
yaka1269,Yaka,yaf,4,31,unknown,Africa,-6.93964,16.9965,AO CD
kosa1249,Yale (Kosarek),kkl,25,240,unknown,Papunesia,-4.06603,139.645,ID
yami1256,Yaminahua,yaa,38,55,unknown,South America,-9.8846,-71.5964,BR PE
yana1271,Yana,ynn,17,529,unknown,North America,39.2769,-121.608,US
yaoo1241,Yao (in Malawi),yao,4,31,unknown,Africa,-13.6119,35.2387,MW MZ
yape1248,Yapese,yap,12,530,safe,Papunesia,9.55811,138.125,FM
yaqu1251,Yaqui,yaq,87,250,vulnerable,North America,29.9446,-110.681,MX
yare1248,Yareba,yrb,246,531,safe,Papunesia,-9.50651,148.605,PG
nucl1454,Yawa,yva,247,532,unknown,Papunesia,-1.77196,136.263,ID
bouy1240,Yay,pcc,117,233,unknown,Eurasia,24.8484,106.187,VN
yazg1240,Yazgulyam,yah,24,138,unknown,Eurasia,38.2801,71.565,TJ
yamb1251,Yamba,yam,4,31,unknown,Africa,6.535505,11.07711,CM
yamp1242,Yamphu,ybi,18,88,definitely endangered,Eurasia,27.6322,87.0441,NP
cent2127,Yup'ik (Chevak),esu,23,91,vulnerable,North America,60.3062,-161.486,US
yucu1253,Yucuna,ycn,13,15,definitely endangered,South America,-0.76075,-71.0033,CO
yuca1254,Yucatec,yua,15,17,definitely endangered,North America,18.7757,-88.9567,MX
east2295,Yiddish (Bessarabian),ydd,24,27,unknown,Eurasia,51.75,19.42,MD
yidd1255,Yiddish,ydd,24,27,unknown,Eurasia,52.0,23.0,LT PL DE BY UA
yeii1239,Yei,jei,167,342,unknown,Papunesia,-7.87489,140.863,ID PG
yele1255,Yelî Dnye,yle,248,533,unknown,Papunesia,-11.3796,154.127,PG
yemb1246,Yemba,ybb,4,31,unknown,Africa,5.47421,10.0214,CM
yess1239,Yessan-Mayo,yss,3,392,unknown,Papunesia,-4.15721,142.574,PG
yeyi1239,Yeyi,yey,4,31,definitely endangered,Africa,-18.9178,23.6088,BW NA
diii1241,Yag Dii,dur,4,224,unknown,Africa,7.77412,13.9884,CM
yagn1238,Yaghnobi,yai,24,138,unknown,Eurasia,39.1486,69.2422,TJ
sich1238,Yi,iii,18,20,unknown,Eurasia,28.1947,102.121,CN
yidi1250,Yidiny,yii,8,35,unknown,Australia,-17.1332,145.876,AU
yill1241,Yil,yll,1,92,safe,Papunesia,-3.46501,142.178,PG
yima1243,Yimas,yee,92,181,severely endangered,Papunesia,-4.71731,143.572,PG
yind1247,Yindjibarndi,yij,8,116,safe,Australia,-21.5379,117.001,AU
yiry1245,Yir Yiront,yiy,8,35,unknown,Australia,-15.1117,141.767,AU
yuki1243,Yuki,yuk,238,534,extinct,North America,39.8389,-123.296,US
yako1252,Yakoma,yky,4,106,safe,Africa,4.1651,22.1702,CF
yaka1277,Yakan,yka,12,105,safe,Papunesia,6.531023,122.021729,PH
sout2750,Yukaghir (Kolyma),yux,249,535,critically endangered,Eurasia,64.218,154.375,RU
yukp1241,Yukpa,yup,33,45,unknown,South America,9.67534,-73.0557,VR CO
yaku1245,Yakut,sah,51,83,vulnerable,Eurasia,61.6974,133.98,RU
angg1239,Yali,yli,25,232,safe,Papunesia,-4.0836,139.457,ID
yelm1242,Yelmek,jel,192,397,safe,Papunesia,-7.4453,139.096,ID
yala1262,Yalarnnga,ylr,8,35,extinct,Australia,-21.731,139.511,AU
yamd1240,Yamdena,jmd,12,49,unknown,Papunesia,-7.73722,131.44,ID
yami1254,Yami,tao,12,300,vulnerable,Papunesia,22.055,121.544,TW
yems1235,Yemsa,jnj,2,259,unknown,Africa,7.79821,37.4412,ET
nauk1242,Yupik (Naukan),ynk,23,91,critically endangered,Eurasia,65.5184,-171.755,RU
ying1247,Yingkarta,yia,8,116,unknown,Australia,-25.4446,115.58,AU
yank1247,Yankuntjatjara,kdd,8,116,definitely endangered,Australia,-26.4064,133.577,AU
yano1262,Yanomámi,wca,218,478,unknown,South America,2.48999,-62.8522,BR
yans1239,Yansi,yns,4,31,safe,Africa,-3.8231,18.2341,CD
yany1243,Yanyuwa,jao,8,116,severely endangered,Australia,-15.7621,136.055,AU
yoru1245,Yoruba,yor,4,296,unknown,Africa,7.15345,3.67225,NG BJ
yaqa1246,Yaqay,jaq,50,152,unknown,Papunesia,-6.66632,139.249,ID
yura1255,Yuracare,yuz,250,536,unknown,South America,-16.7479,-65.1224,BO
yuru1243,Yurimangí,,251,537,extinct,South America,3.436864,-76.522636,CO
pume1238,Yaruro,yae,252,538,definitely endangered,South America,7.10677,-67.5996,VR
yuru1263,Yuruti,yui,74,149,safe,South America,0.735585,-69.6955,CO
sire1246,Yupik (Sirenik),ysr,23,91,extinct,Eurasia,64.5192,-173.925,RU
cent2128,Yupik (St. Lawrence Island),ess,23,91,unknown,Eurasia,63.4308,-170.272,US
nort2745,Yukaghir (Tundra),ykg,249,535,critically endangered,Eurasia,65.3874,151.318,RU
yuch1247,Yuchi,yuc,253,539,critically endangered,North America,35.96146,-95.03933,US
yugh1239,Yugh,yuu,159,325,extinct,Eurasia,60.8778,89.7479,RU
gang1267,Yukulta,gcd,156,319,unknown,Australia,-17.5446,139.426,AU
yuro1248,Yurok,yur,11,540,critically endangered,North America,41.3262,-123.824,US
yawu1244,Yawuru,ywr,77,158,unknown,Australia,-18.004,122.693,AU
yayg1236,Yaygir,,8,112,extinct,Australia,-29.91558791,153.2691386,AU
yort1237,Yorta Yorta,,8,112,extinct,Australia,-35.9,145.01,AU
zagh1240,Beria,zag,157,541,unknown,Africa,17.4842,23.4626,SD TD
isth1244,Zapotec (Isthmus),zai,42,188,safe,North America,16.4548,-94.8444,MX
sier1250,Zapotec (Juárez),zaa,42,188,safe,North America,17.4219,-96.6191,MX
mixt1426,Zapotec (Mixtepec),zpm,42,188,critically endangered,North America,16.1724,-96.2372,MX
zand1248,Zande,zne,4,106,unknown,Africa,4.62047,26.7157,SD CF CD
mitl1236,Zapotec (Mitla),zaw,42,188,safe,North America,16.86849,-96.29434,MX
sant1451,Zapotec (Quiegolani),zpi,42,188,safe,North America,16.033,-96.0486,MX
zarm1239,Zarma,dje,158,323,safe,Africa,12.8554,2.41173,NE
zays1235,Zayse,zay,2,259,unknown,Africa,5.83747,37.3409,ET
diml1238,Zazaki,diq,24,138,unknown,Eurasia,38.6147,39.6388,TR
chim1300,Zoque (Chimalapa),zoh,188,386,safe,North America,16.6543,-94.6913,MX
zena1248,Zenaga,zen,2,113,severely endangered,Africa,16.82,-16.1711,MR
fran1266,Zoque (Francisco León),zos,188,386,unknown,North America,17.3654,-93.3633,MX
jang1254,Zhang-Zhung,jna,18,56,definitely endangered,Eurasia,31.5666,78.4344,IN
guib1245,Zhuang (Northern),zgb,117,233,safe,Eurasia,23.6818,107.184,CN
zima1244,Zimakani,zik,50,152,unknown,Papunesia,-7.3701,141.452,PG
zulu1248,Zulu (Northern),zul,4,31,unknown,Africa,-25.3305,31.3512,ZA
sout3005,Zapotec (Ixtlan),zpd,42,188,safe,North America,17.2588,-96.6199,MX
zapa1253,Zaparo,zro,49,79,critically endangered,South America,-1.99871,-76.364,PE EC
copa1236,Zoque (Copainalá),zoc,188,386,unknown,North America,17.2157,-93.3183,MX
rayo1235,Zoque (Rayon),zor,188,386,safe,North America,17.2953,-93.1006,MX
high1276,Zoque (Soteapan),poi,188,386,vulnerable,North America,18.198,-94.9109,MX
sanj1284,Zapotec (San Lucas Quiaviní),zab,42,188,unknown,North America,17.0332,-96.5967,MX
texm1235,Zapotec (Texmelucan),zpz,42,188,safe,North America,16.49197,-97.08947,MX
zuni1245,Zuni,zun,254,542,vulnerable,North America,35.0056,-108.782,US
yatz1235,Zapotec (Yatzachi),zav,42,188,safe,North America,17.1869,-96.284,MX
zoog1238,Zapotec (Zoogocho),zpq,42,188,unknown,North America,17.2016,-96.3433,MX
